,id,name,address,postal_code,charger_level,lat,lng,cost,gg_address,gg_lat,gg_lng,city,province
1,CEA-10097,DGI - Complexe Desjardins,"1251 rue Jeanne-Mance, Montréal, QC",H2X 3Y2,Level2,45.507924,-73.56414000000001,"1,00 $ (CAD) de l'heure","1251 Rue Jeanne-Mance, Montréal, QC H2X, Canada",45.5070394,-73.5651293,Montréal,QC
11,CEA-11250,RIO - Parc Olympique,"4141 Avenue Pierre-De Coubertin, Montréal, QC",H1V 3N7,Level2,45.5554177287515,-73.5513811997223,"2,50 $ (CAD) par session","4141 Avenue Pierre-De Coubertin, Montréal, QC H1V 3N7, Canada",45.559774,-73.5514832,Montréal,QC
15,CEA-10306,301 | BSR | RPP | 6511 St-André,"6511 Rue Saint-André, Montréal, QC",H2S 2K7,Level2,45.536686,-73.60300500000001,"1,00 $ (CAD) de l'heure","6511 Rue Saint-André, Montréal, QC H2S 2K7, Canada",45.536734,-73.6030444,Montréal,QC
20,CEA-10848,717 | BSR | CDN-NDG | 5225 Sherbrooke,"5252 Sherbrooke, Montréal, QC",H4A 1V1,Level2,45.474704,-73.608527,"1,00 $ (CAD) de l'heure","5252 Rue Sherbrooke E, Montréal, QC H1N, Canada",45.568083200000004,-73.5521558,Montréal,QC
21,CEA-10156,703 | BSR | CDN-NDG | 5038 rue Sherbrooke O,"5038 Sherbrooke O, Montréal, QC",H4A 1S7,Level2,45.476487,-73.606153,"1,00 $ (CAD) de l'heure","5038 Rue Sherbrooke Ouest, Montréal, QC H4A 1S7, Canada",45.4763895,-73.6059853,Montréal,QC
28,CEA-10637,808 | BSR | SO | 6098 Mazarin,"6098 Rue Mazarin, Montréal, QC",H4E 2X2,Level2,45.456132,-73.60130799999999,"1,00 $ (CAD) de l'heure","6098 Rue Mazarin, Montréal, QC H4E 2X2, Canada",45.456127,-73.601213,Montréal,QC
29,CEA-11014,105 | BSR | AC | 1530 Fleury,"1530 rue Fleury, Montréal, QC",H2C 2Y6,Level2,45.562906,-73.656227,"1,00 $ (CAD) de l'heure","1530 Rue Fleury E, Montréal, QC H2C 2Y6, Canada",45.5629748,-73.6561512,Montréal,QC
30,CEA-10378,109 | BSR | AC | 205 Chabanel,"205 Rue Chabanel O, Montréal, QC",H2N 1G3,Level2,45.540928,-73.653312,"1,00 $ (CAD) de l'heure","205 Rue Chabanel O, Montréal, QC H2N 1G3, Canada",45.540977000000005,-73.6536969,Montréal,QC
31,CEA-10843,320 | BSR | RPP | 3810 Rosemont,"3810 boul. Rosemont, Montréal, QC",H1X 2P6,Level2,45.5578,-73.576045,"1,00 $ (CAD) de l'heure","3810 Boulevard Rosemont, Montréal, QC H1X 1L4, Canada",45.5578734,-73.575942,Montréal,QC
32,CEA-10183,625 | BSR | VM | 1956 Frontenac,"1956 Rue Frontenac, Montréal, QC",H2K 2Z1,Level2,45.532725,-73.552184,"1,00 $ (CAD) de l'heure","1956 Rue Frontenac, Montréal, QC H2K 2Z1, Canada",45.5325695,-73.5521119,Montréal,QC
35,CEA-10840,316 | BSR | RPP | 4300 Bélanger,"4300A Bélanger, Montréal, QC",H1T 3M1,Level2,45.566674,-73.585495,"1,00 $ (CAD) de l'heure","4300 Rue Bélanger, Montréal, QC H1T 1A7, Canada",45.5667637,-73.5854248,Montréal,QC
36,CEA-10544,820 | BSR | SO | 3041 Notre-Dame,"3041 Notre-Dame , Montréal, QC",H4C 2J2,Level2,45.480917,-73.578968,"1,00 $ (CAD) de l'heure","3041 Rue Notre-Dame Ouest, Montréal, QC H4C 1N9, Canada",45.480889000000005,-73.5787889,Montréal,QC
42,CEA-11480,331 | BSR | RPP | 6679 Rue Garnier,"6679 Rue Garnier, Montréal, QC",H2G 3A2,Level2,45.5428645,-73.601371,"1,00 $ (CAD) de l'heure","6679 Rue Garnier, Montréal, QC H2G 3A2, Canada",45.542891999999995,-73.60115,Montréal,QC
45,CEA-10070,DGI - Complexe Desjardins,"1251 rue Jeanne-Mance, Montréal, QC",H2X 3Y2,Level2,45.507924,-73.56414000000001,"1,00 $ (CAD) de l'heure","1251 Rue Jeanne-Mance, Montréal, QC H2X, Canada",45.5070394,-73.5651293,Montréal,QC
46,CEA-10448,801 | BSR | SO | 3451 St-Jacques,"3451 Rue Saint-Jacques, Montréal, QC",H4C 1H2,Level2,45.48193,-73.582383,"1,00 $ (CAD) de l'heure","3451 Rue Saint-Jacques, Montréal, QC H4C 1H2, Canada",45.4822301,-73.58218719999999,Montréal,QC
47,CEA-10690,411 | BSR | MHM | 3450 Ste-Catherine,"3450 Ste-Catherine, Montréal, QC",H1W 2E2,Level2,45.541957,-73.539358,"1,00 $ (CAD) de l'heure","3450 Rue Sainte-Catherine E, Montréal, QC H1W 2E2, Canada",45.5418559,-73.5393527,Montréal,QC
48,CEA-11295,231 | BSR | VSMPE | 3901 Jarry,"3901 jarry E, Montréal, QC",H1Z 2G1,Level2,45.569855,-73.604919,"1,00 $ (CAD) de l'heure","3901 Rue Jarry E, Montréal, QC H1Z 2G1, Canada",45.57100820000001,-73.6047437,Montréal,QC
51,CEA-083,580 | BHR | PMR | 4365 Cartier : Aréna Mont-Royal,"4365 Cartier Rue, Montréal, Montréal, QC",H2H 2N9,Level2,45.533424,-73.57226,"2,50 $ (CAD) par session","4365 Rue Cartier, Montréal, QC H2H 2N9, Canada",45.533234,-73.571813,Montréal,QC
54,CEA-10356,709 | BSR | CDN-NDG |5137 Décarie,"5137 Décarie, Montréal, QC",H3W 3C2,Level2,45.484167,-73.629705,"1,00 $ (CAD) de l'heure","5137 Boulevard Décarie, Montréal, QC H3W 3C3, Canada",45.4843052,-73.6295153,Montréal,QC
55,CEA-11188,116 | BSR | AC | 10625 Francis,"10625 Rue Francis, Montréal, QC",H2C 3A5,Level2,45.565295,-73.660453,"1,00 $ (CAD) de l'heure","10625 Rue Francis, Montréal, QC H2C 3A5, Canada",45.5653481,-73.6603467,Montréal,QC
59,CEA-10262,211 | BSR | VSMPE | 625 Liege O,"625 Liege O, Montréal, QC",H3N 1A7,Level2,45.532997,-73.642027,"1,00 $ (CAD) de l'heure","625 Rue de Liège O, Montréal, QC H3N 1A7, Canada",45.533015999999996,-73.64207259999999,Montréal,QC
60,CEA-10612,412 | BSR | MHM | 2222 Valois,"2222 Avenue Valois , Montréal, QC",H1W 3M5,Level2,45.548361,-73.54682700000001,"1,00 $ (CAD) de l'heure","2222 Avenue Valois, Montréal, QC H1W 3M5, Canada",45.548027000000005,-73.54698540000001,Montréal,QC
62,CEA-10844,713 | BSR | CDN-NDG | 5468 Claranald,"5468A Claranald, Montréal, QC",H3X 2S7,Level2,45.483967,-73.637694,"1,00 $ (CAD) de l'heure","5468 Avenue Clanranald, Montréal, QC H3X 2S3, Canada",45.4837375,-73.63781469999999,Montréal,QC
63,CEA-10740,224 | BSR | VSMPE | 7200 Hutchison,"7200 Hutchison, Montréal, QC",H3N 1Z2,Level2,45.529826,-73.62305,"1,00 $ (CAD) de l'heure","7200 Rue Hutchison, Montréal, QC H3N 1Z2, Canada",45.529608,-73.62315699999999,Montréal,QC
69,CEA-10380,708 | BSR | CDN-NDG | 6200 Côte Des-Neiges,"6200 ch. de la Côte-des-Neiges, Montréal, QC",H3S 2A1,Level2,45.500598,-73.632462,"1,00 $ (CAD) de l'heure","6200 Chemin de la Côte-des-Neiges, Montréal, QC H3S 2A1, Canada",45.500826200000006,-73.63260240000001,Montréal,QC
74,CEA-11239,826 | BSR | SO | 2855 Centre,"2855 rue du Centre, Montréal, QC",H4C 3B4,Level2,45.476501,-73.57244,"1,00 $ (CAD) de l'heure","2855 Rue Centre, Montréal, QC H3K 3C4, Canada",45.4765656,-73.57280159999999,Montréal,QC
76,CEA-11202,830 | BSR | SO | 256 Charlevoix,"256 Charlevoix, Montréal, QC",H3J 1N7,Level2,45.482396,-73.57547199999999,"1,00 $ (CAD) de l'heure","256 Rue Charlevoix, Montréal, QC H3J 1N7, Canada",45.4820981,-73.57517840000001,Montréal,QC
81,CEA-055,285 | BHR | VSMPE | 8000 de Normanville : Centre sportif Jean-Rougeau,"8000 rue de Normanville, Montréal, QC",H2R 2V6,Level2,45.548532,-73.622186,"2,50 $ (CAD) par session","8000 Rue de Normanville, Montréal, QC H2R 2V6, Canada",45.5483499,-73.62149840000001,Montréal,QC
88,CEA-10302,305 | BSR | RPP | 26e avenue,"6435 26e Avenue, Montréal, QC",H1T 3K7,Level2,45.564852,-73.577294,"1,00 $ (CAD) de l'heure","6435 26e Avenue, Montréal, QC H1T 3K7, Canada",45.5648695,-73.57716059999998,Montréal,QC
94,CEA-10172,614 | BSR | VM | 1455 Metcalfe,"1550 rue Metcalfe, Montréal, QC",H3A 3L8,Level2,45.501087,-73.573064,"1,00 $ (CAD) de l'heure","1550 Rue Metcalfe, Montréal, QC H3A 3L8, Canada",45.5009902,-73.5737518,Montréal,QC
96,CEA-11025,821 | BSR | SO | 6000 Laurendeau,"6000 rue Laurendeau, Montréal, QC",H4E 3X4,Level2,45.458143,-73.588273,"1,00 $ (CAD) de l'heure","6000 Rue Laurendeau, Montréal, QC H4E 3X4, Canada",45.4583407,-73.588099,Montréal,QC
101,CEA-358,SHDM - Complexe Chaussegros-De-Léry,"330, rue Champ-de-Mars, Montréal, QC",H2Y 3Z3,Level2,45.509619,-73.55353000000001,"2,50 $ (CAD) par session","330 Rue du Champ de Mars, Montréal, QC H2Y 3Z8, Canada",45.5100013,-73.55362209999998,Montréal,QC
103,CEA-10524,519 | BSR | PMR | 5465 St-Denis,"5465 rue St-Denis, Montréal, QC",H2J 4B7,Level2,45.529242,-73.594302,"1,00 $ (CAD) de l'heure","5465 Rue Saint-Denis, Montréal, QC H2J 4B7, Canada",45.5295737,-73.59439429999999,Montréal,QC
106,CEA-10367,203 | BSR | VSMPE | 7501 rue St-Denis,"7501 rue St-Denis, Montréal, QC",H2R 2E7,Level2,45.540232,-73.620191,"1,00 $ (CAD) de l'heure","7501 Rue Saint-Denis, Montréal, QC H2R 2E7, Canada",45.540237899999994,-73.6202848,Montréal,QC
107,CEA-10706,212 | BSR | VSMPE | 4085A Bélanger,"4085 rue Belanger, Montréal, QC",H1X 1B9,Level2,45.56475,-73.58761,"1,00 $ (CAD) de l'heure","4085 Rue Bélanger, Montréal, QC H1X 1B9, Canada",45.5648311,-73.58784859999999,Montréal,QC
108,CEA-10530,515 | BSR | PMR | 4801 Papineau,"4801 Avenue Papineau, Montréal, QC",H2H 1V7,Level2,45.534713,-73.57794100000001,"1,00 $ (CAD) de l'heure","4801 Rue Papineau, Montréal, QC H2H 1V7, Canada",45.5348126,-73.5780873,Montréal,QC
110,CEA-10731,221 | BSR | VSMPE | 2200 Jean-Talon E,"2200 Jean-Talon E, Montréal, QC",H2E 2R1,Level2,45.551248,-73.60377199999999,"1,00 $ (CAD) de l'heure","2200 Rue Jean-Talon Est, Montréal, QC H2E 2R1, Canada",45.550911,-73.6038593,Montréal,QC
111,CEA-10538,513 | BSR | PMR | 5030 St-Denis,"5030 St-Denis, Montréal, QC",H2J 2L9,Level2,45.526792,-73.589348,"1,00 $ (CAD) de l'heure","5030 Rue Saint-Denis, Montréal, QC H2J 2L8, Canada",45.5263482,-73.58895890000001,Montréal,QC
113,CEA-10705,409 | BSR | MHM | 3450 Ontario,"3450 Ontario, Montréal, QC",H1W 1R2,Level2,45.544099,-73.544871,"1,00 $ (CAD) de l'heure","3450 Rue Ontario E, Montréal, QC H1W 1R2, Canada",45.543665999999995,-73.5447723,Montréal,QC
116,CEA-10938,720 | BSR | CDN-NDG | 3165 Côte Ste-Catherine,"3165A Côte Ste-Catherine, Montréal, QC",H3T 1C4,Level2,45.503899,-73.622842,"1,00 $ (CAD) de l'heure","3165 Chemin de la Côte-Sainte-Catherine, Montréal, QC H3T 1C4, Canada",45.503252,-73.62410600000001,Montréal,QC
117,CEA-10350,707 | BSR | CDN-NDG | 3506 Lacombe,"3506 ave. Lacombe, Montréal, QC",H3T 1M1,Level2,45.4974,-73.622784,"1,00 $ (CAD) de l'heure","3506 Avenue Lacombe, Montréal, QC H3T 1X5, Canada",45.4973435,-73.6226701,Montréal,QC
119,CEA-10285,401 | BSR | MHM | 4119 Ontario Est,"4119 Rue Ontario E, Montréal, QC",H1V 1J7,Level2,45.55096,-73.540898,"1,00 $ (CAD) de l'heure","4119 Rue Ontario E, Montréal, QC H1V 1J7, Canada",45.5508409,-73.5410833,Montréal,QC
121,CEA-033,282 | BHR | VSMPE | 9235 Papineau : Stade de Soccer de Montréal,"9235 Avenue Papineau, Montréal, QC",H2M 2G5,Level2,45.562243,-73.63818,"2,50 $ (CAD) par session","9235 Rue Papineau, Montréal, QC H2M 2G5, Canada",45.562889500000004,-73.63885450000001,Montréal,QC
125,CEA-10279,306 | BSR | RPP | 3189 Masson,"3189 Rue Masson , Montréal, QC",H1Y 1Y2,Level2,45.550345,-73.573841,"1,00 $ (CAD) de l'heure","3189 Rue Masson, Montréal, QC H1Y 1Y2, Canada",45.550287100000006,-73.5738282,Montréal,QC
127,CEA-10859,111 | BSR | AC | 55 Cremazie O,"55 boul. Crémazie O, Montréal, QC",H2N 1L3,Level2,45.541031,-73.642792,"1,00 $ (CAD) de l'heure","55 Boulevard Crémazie O, Montréal, QC H2N 1L3, Canada",45.5411395,-73.64264200000001,Montréal,QC
133,CEA-10555,Monit Investments,"1000 Sherbrooke Ouest, Montréal, QC",H3A 3G4,Level2,45.502062,-73.57476,"1,00 $ (CAD) de l'heure","1000 Sherbrooke, Montréal, QC H3A, Canada",45.5027183,-73.57511579999999,Montréal,QC
137,CEA-10379,702 | BSR | CDN-NDG | 5252 Sherbrooke O,"5252 Sherbrooke O, Montréal, QC",H4A 3K5,Level2,45.474621,-73.608302,"1,00 $ (CAD) de l'heure","5252 Rue Sherbrooke Ouest, Montréal, QC H4A 3K5, Canada",45.4745826,-73.60823640000001,Montréal,QC
142,CEA-10777,418 | BSR | MHM | 8355 Notre-Dame,"8355 Notre-Dame, Montréal, QC",H1L 3L2,Level2,45.594272,-73.51131600000001,"1,00 $ (CAD) de l'heure","8355 Rue Notre-Dame Est, Montréal, QC H1L 3L2, Canada",45.5944597,-73.51147440000001,Montréal,QC
143,CEB-10179,Fairmont Le Reine Elizabeth,"900 René-Lévesque Ouest, Montréal, QC",H3B 4A5,Level2,45.501350402832,-73.5675964355469,"2,50 $ (CAD) par session","900 Boulevard René-Lévesque O, Montréal, QC H3B 1X8, Canada",45.50054179999999,-73.5677628,Montréal,QC
147,CEA-11215,824 | BSR | SO | 1306 Olier,"1306 Rue Olier, Montréal, QC",H3C 1W4,Level2,45.490105,-73.55968,"1,00 $ (CAD) de l'heure","1306 Rue Olier, Montréal, QC H3C 1W4, Canada",45.4912749,-73.5582632,Montréal,QC
148,CEA-10025,605 | BSR | VM | 265 St-Antoine,"301 rue St-Antoine Ouest, Montréal, QC",H2Z 1H5,Level2,45.503582,-73.56019,"1,00 $ (CAD) de l'heure","301 Rue Saint-Antoine O, Montréal, QC H2Z 1H5, Canada",45.5036148,-73.56053840000001,Montréal,QC
152,CEA-094,282 | BHR | VSMPE | 9235 Papineau : Stade de Soccer de Montréal,"9235 Avenue Papineau, Montréal, QC",H2M 2G5,Level2,45.562243,-73.63818,"2,50 $ (CAD) par session","9235 Rue Papineau, Montréal, QC H2M 2G5, Canada",45.562889500000004,-73.63885450000001,Montréal,QC
153,CEA-10743,711 | BSR | CDN-NDG | 6190 Monkland,"6190 Monkland, Montréal, QC",H4B 2X6,Level2,45.469082,-73.628219,"1,00 $ (CAD) de l'heure","6190 Av de Monkland, Montréal, QC H4B 1G4, Canada",45.4693195,-73.62822,Montréal,QC
154,CEA-10692,409 | BSR | MHM | 3450 Ontario,"3450 Ontario, Montréal, QC",H1W 1R2,Level2,45.544099,-73.544871,"1,00 $ (CAD) de l'heure","3450 Rue Ontario E, Montréal, QC H1W 1R2, Canada",45.543665999999995,-73.5447723,Montréal,QC
157,CEA-10699,215 | BSR | VSMPE | 7140 Bordeaux,"7140 Rue de Bordeaux, Montréal, QC",H2E 2M3,Level2,45.549552,-73.60523,"1,00 $ (CAD) de l'heure","7140 Rue de Bordeaux, Montréal, QC H2E 2M3, Canada",45.5494502,-73.6052291,Montréal,QC
160,CEA-10344,307 | BSR | RPP | 1031 St-Zotique,"1031 Rue Saint-Zotique E, Montréal, QC",H2S 1N1,Level2,45.539199,-73.605241,"1,00 $ (CAD) de l'heure","1031 Rue Saint-Zotique E, Montréal, QC H2S 1N1, Canada",45.5390674,-73.60546109999999,Montréal,QC
161,CEA-350,SHDM - Complexe Chaussegros-De-Léry,"330, rue Champ-de-Mars, Montréal, QC",H2Y 3Z3,Level2,45.509619,-73.55353000000001,"2,50 $ (CAD) par session","330 Rue du Champ de Mars, Montréal, QC H2Y 3Z8, Canada",45.5100013,-73.55362209999998,Montréal,QC
164,CEA-10688,219 | BSR | VSMPE | 1210 Villeray,"1210 Villeray, Montréal, QC",H2R 1J7,Level2,45.547077,-73.61853,"1,00 $ (CAD) de l'heure","1210 Rue Villeray, Montréal, QC H2R 1J7, Canada",45.546833500000005,-73.61840140000001,Montréal,QC
169,CEA-10734,814 | BSR | SO | 2415 Allard,"2415 Allard, Montréal, QC",H4E 2L5,Level2,45.450914,-73.594951,"1,00 $ (CAD) de l'heure","2415 Rue Allard, Montréal, QC H4E 2L3, Canada",45.451234899999996,-73.5934408,Montréal,QC
173,CEA-11199,528 | BSR | PMR | 640 Prince-Arthur O,"640 Rue Prince Arthur O, Montréal, QC", H2X 1T9,Level2,45.507682,-73.57831800000001,"1,00 $ (CAD) de l'heure","640 Rue Prince Arthur O, Montréal, QC H2X 1T9, Canada",45.5078384,-73.57824649999999,Montréal,QC
176,CEA-10685,RIO - Parc Olympique 2,"3200 Rue Viau, Montréal, QC",H1V 3J3,Level2,45.560388,-73.55135,"2,50 $ (CAD) par session","3200 Rue Viau, Montréal, QC H1V 3J3, Canada",45.55976210000001,-73.5514912,Montréal,QC
177,CEA-10332,404 | BSR | MHM | 3622 Hochelaga,"3622 Rue Hochelaga, Montréal, QC",H1W 1J1,Level2,45.547475,-73.550661,"1,00 $ (CAD) de l'heure","3622 Rue Hochelaga, Montréal, QC H1W 1J1, Canada",45.547396899999995,-73.5507923,Montréal,QC
187,CEA-10830,711 | BSR | CDN-NDG | 6190 Monkland,"6190 Monkland, Montréal, QC",H4B 2X6,Level2,45.469082,-73.628219,"1,00 $ (CAD) de l'heure","6190 Av de Monkland, Montréal, QC H4B 1G4, Canada",45.4693195,-73.62822,Montréal,QC
188,CEA-10741,727 | BSR | CDN-NDG | 6521 Décarie,"6521 boul. Decarie, Montréal, QC",H3W 3E3,Level2,45.491264,-73.645548,"1,00 $ (CAD) de l'heure","6521 Boulevard Décarie, Montréal, QC H3W 3E3, Canada",45.4912864,-73.64545720000001,Montréal,QC
192,CEA-11270,826 | BSR | SO | 2855 Centre,"2855 rue du Centre, Montréal, QC",H4C 3B4,Level2,45.476501,-73.57244,"1,00 $ (CAD) de l'heure","2855 Rue Centre, Montréal, QC H3K 3C4, Canada",45.4765656,-73.57280159999999,Montréal,QC
195,CEA-11232,829 | BSR | SO | 472 Ste-Madeleine,"472 Rue Sainte Madeleine, Montréal, QC",H3K 2K7,Level2,45.480554,-73.555775,"1,00 $ (CAD) de l'heure","472 Rue Sainte Madeleine, Montréal, QC H3K 2K7, Canada",45.480514,-73.5554071,Montréal,QC
198,CEA-10648,812 | BSR | SO | 2441 Notre-Dame,"2441A Notre-Dame, Montréal, QC",H3J 1N6,Level2,45.483512,-73.57468100000001,"1,00 $ (CAD) de l'heure","2441 Rue Notre-Dame Ouest, Montréal, QC H3J 1N6, Canada",45.4833877,-73.5746749,Montréal,QC
201,CEA-10649,310 | BSR | RPP | 7085 St-Laurent,"7085A St-Laurent, Montréal, QC",H2S 3E3,Level2,45.533914,-73.616473,"1,00 $ (CAD) de l'heure","7085 Boul St-Laurent, Montréal, QC H2S 3E3, Canada",45.534040999999995,-73.6165121,Montréal,QC
203,CEA-11130,734 | BSR | CDN-NDG | 5160 Decarie,"5160 Decarie, Montréal, QC",H3X 2H9,Level2,45.483925,-73.630404,"1,00 $ (CAD) de l'heure","5160 Boulevard Décarie, Montréal, QC H3X 2H9, Canada",45.4839956,-73.6309651,Montréal,QC
205,CEB-10021,METRO - Fleury,"1745 rue Fleury Est, Montréal, QC",H2C 1T3,Level2,45.5666999816895,-73.6542129516602,"1,00 $ (CAD) de l'heure","1745 Rue Fleury E, Montréal, QC H2C 1T3, Canada",45.566800799999996,-73.65473850000001,Montréal,QC
208,CEA-10548,DGI - Complexe Desjardins,"1251 rue Jeanne-Mance, Montréal, QC",H2X 3Y2,Level2,45.507924,-73.56414000000001,"1,00 $ (CAD) de l'heure","1251 Rue Jeanne-Mance, Montréal, QC H2X, Canada",45.5070394,-73.5651293,Montréal,QC
210,CEA-10141,Collège de Rosemont,"6400 16e avenue, Montréal, QC",H1X 2S9,Level2,45.5571391156207,-73.5811485717582,"1,00 $ (CAD) de l'heure","6400 16e Avenue, Montréal, QC H1X 1H2, Canada",45.557444,-73.582376,Montréal,QC
217,CEA-10674,280 | BHR | VSMPE | 7501 François Perrault : Maison du citoyen,"7501 François Perrault, Montréal, QC",H2A 1M1,Level2,45.56153,-73.60127,"2,50 $ (CAD) par session","7501 Rue François-Perrault, Montréal, QC H2A 1M1, Canada",45.5617131,-73.60121240000001,Montréal,QC
219,CEA-10820,721 | BSR | CDN-NDG | 2885 Barclay,"2885 Barclay, Montréal, QC", H3S 2J6,Level2,45.509323,-73.62974799999999,"1,00 $ (CAD) de l'heure","2885 Avenue Barclay, Montréal, QC H3S 1J7, Canada",45.509576200000005,-73.6296927,Montréal,QC
222,CEA-11144,117 | BSR | AC | 1545 Henri-Bourassa,"1545 Henri Bourassa, Montréal, QC",H3M 1X7,Level2,45.538203,-73.678763,"1,00 $ (CAD) de l'heure","1545 Boul Henri-Bourassa O, Montréal, QC H3M 1X6, Canada",45.5381839,-73.6790046,Montréal,QC
224,CEA-10347 ,707 | BSR | CDN-NDG | 3506 Lacombe,"3506 ave. Lacombe, Montréal, QC",H3T 1M1,Level2,45.4974,-73.622784,"1,00 $ (CAD) de l'heure","3506 Avenue Lacombe, Montréal, QC H3T 1X5, Canada",45.4973435,-73.6226701,Montréal,QC
226,CEA-10341,201 | BSR | VSMPE | 622 Jarry O,"622 rue Jarry O, Montréal, QC",H3N 1G2,Level2,45.531226,-73.635681,"1,00 $ (CAD) de l'heure","622 Rue Jarry O, Montréal, QC H3N 1G2, Canada",45.531056899999996,-73.63560799999999,Montréal,QC
229,CEA-10877,416 | BSR | MHM | 5750 Pierre de Coubertin,"5750 Pierre de Coubertin, Montréal, QC",H1N 2K9,Level2,45.571544,-73.540664,"1,00 $ (CAD) de l'heure","5750 Avenue Pierre-De Coubertin, Montréal, QC H1N 1R4, Canada",45.571661,-73.54074279999999,Montréal,QC
231,CEA-10827,820 | BSR | SO | 3041 Notre-Dame,"3041 Notre-Dame , Montréal, QC",H4C 2J2,Level2,45.480917,-73.578968,"1,00 $ (CAD) de l'heure","3041 Rue Notre-Dame Ouest, Montréal, QC H4C 1N9, Canada",45.480889000000005,-73.5787889,Montréal,QC
233,CEA-10520,513 | BSR | PMR | 5030 St-Denis,"5030 St-Denis, Montréal, QC",H2J 2L9,Level2,45.526792,-73.589348,"1,00 $ (CAD) de l'heure","5030 Rue Saint-Denis, Montréal, QC H2J 2L8, Canada",45.5263482,-73.58895890000001,Montréal,QC
236,CEA-266,Bentall Kennedy - Tour KPMG,"600 Boulevard de Maisonneuve Ouest, Montréal, QC",H3A 0A3,Level2,45.504524,-73.5705,"2,50 $ (CAD) par session","600 Boulevard de Maisonneuve O, Montréal, QC H3A 3J2, Canada",45.5041009,-73.5710036,Montréal,QC
243,CEA-10043,614 | BSR | VM | 1455 Metcalfe,"1550 rue Metcalfe, Montréal, QC",H3A 3L8,Level2,45.501087,-73.573064,"1,00 $ (CAD) de l'heure","1550 Rue Metcalfe, Montréal, QC H3A 3L8, Canada",45.5009902,-73.5737518,Montréal,QC
245,CEA-10829,811 | BSR | SO | 123 Courcelle,"123 Courcelle, Montréal, QC",H4C 3B4,Level2,45.471563,-73.586178,"1,00 $ (CAD) de l'heure","123 Rue de Courcelle, Montréal, QC H4C 3B4, Canada",45.471630700000006,-73.5861051,Montréal,QC
246,CEA-10939,712 | BSR | CDN-NDG |1070 Decarie,"1070 Decarie, Montréal, QC",H4A 3H9,Level2,45.472083,-73.60405300000001,"1,00 $ (CAD) de l'heure","1070 Boulevard Décarie, Montréal, QC H4A 3H9, Canada",45.4720575,-73.6040663,Montréal,QC
252,CEA-10639,808 | BSR | SO | 6098 Mazarin,"6098 Rue Mazarin, Montréal, QC",H4E 2X2,Level2,45.456132,-73.60130799999999,"1,00 $ (CAD) de l'heure","6098 Rue Mazarin, Montréal, QC H4E 2X2, Canada",45.456127,-73.601213,Montréal,QC
256,CEA-10947,318 | BSR | RPP | 2919 Bellechasse,"2919 Bellechasse, Montréal, QC",H2G 1N8,Level2,45.551265,-73.584723,"1,00 $ (CAD) de l'heure","2919 Rue de Bellechasse, Montréal, QC H1Y 1K1, Canada",45.5516476,-73.5851119,Montréal,QC
259,CEA-10615,412 | BSR | MHM | 2222 Valois,"2222 Avenue Valois , Montréal, QC",H1W 3M5,Level2,45.548361,-73.54682700000001,"1,00 $ (CAD) de l'heure","2222 Avenue Valois, Montréal, QC H1W 3M5, Canada",45.548027000000005,-73.54698540000001,Montréal,QC
260,CEA-11353,233 | BSR | VSMPE | 7707 Shelley,"7707 Shelley, Montréal, QC",H2A 1H6,Level2,45.562171,-73.604732,"1,00 $ (CAD) de l'heure","7707 Avenue Shelley, Montréal, QC H2A 1H6, Canada",45.562410899999996,-73.6048151,Montréal,QC
272,CEA-10177,618 | BSR | VM | 254 Boisbriand,"270 rue de Boisbriand, Montréal, QC",H2X 3C5,Level2,45.512673,-73.562445,"1,00 $ (CAD) de l'heure","270 Rue de Boisbriand, Montréal, QC H2X, Canada",45.5129085,-73.5622645,Montréal,QC
274,CEA-10810,319 | BSR | RPP | 6501 St-Laurent,"6501A St-Laurent, Montréal, QC",H2S 3C4,Level2,45.530366,-73.608664,"1,00 $ (CAD) de l'heure","6501 Boul St-Laurent, Montréal, QC H2S 3C4, Canada",45.530368200000005,-73.6085368,Montréal,QC
276,CEA-10614,816 | BSR | SO | 1660 Centre,"1660A Centre, Montréal, QC",H3K 1G4,Level2,45.484356,-73.559822,"1,00 $ (CAD) de l'heure","1660 Rue Centre, Montréal, QC H3K 1H6, Canada",45.484206799999995,-73.5595833,Montréal,QC
278,CEA-11245,228 | BSR | VSMPE | 405 Guizot,"405 Rue Guizot E, Montréal, QC",H2P 1M8,Level2,45.543788,-73.632248,"1,00 $ (CAD) de l'heure","405 Rue Guizot E, Montréal, QC H2P 1M8, Canada",45.543828999999995,-73.63228659999999,Montréal,QC
284,CEA-10454,801 | BSR | SO | 3451 St-Jacques,"3451 Rue Saint-Jacques, Montréal, QC",H4C 1H2,Level2,45.48193,-73.582383,"1,00 $ (CAD) de l'heure","3451 Rue Saint-Jacques, Montréal, QC H4C 1H2, Canada",45.4822301,-73.58218719999999,Montréal,QC
287,CEA-10566,220 | BSR | VSMPE | 7151 St-Dominique,"7151A St-Dominique, Montréal, QC",H2R 1X3,Level2,45.535353,-73.61758,"1,00 $ (CAD) de l'heure","7151 Rue Saint-Dominique, Montréal, QC H2R 1X3, Canada",45.535179,-73.6173677,Montréal,QC
288,CEA-10755,102 | BSR | AC | 1100 Fleury,"1100 rue Fleury, Montréal, QC",H2C 1P9,Level2,45.558804,-73.65865500000001,"1,00 $ (CAD) de l'heure","1100 Rue Fleury E, Montréal, QC H2C 1P9, Canada",45.558618,-73.658333,Montréal,QC
290,CEA-10845,111 | BSR | AC | 55 Cremazie O,"55 boul. Crémazie O, Montréal, QC",H2N 1L3,Level2,45.541031,-73.642792,"1,00 $ (CAD) de l'heure","55 Boulevard Crémazie O, Montréal, QC H2N 1L3, Canada",45.5411395,-73.64264200000001,Montréal,QC
293,CEA-10880,516 | BSR | PMR | 3620 St-Denis,"3620 St-Denis, Montréal, QC",H2X 3L6,Level2,45.517751,-73.569529,"1,00 $ (CAD) de l'heure","3620 Rue Saint-Denis, Montréal, QC H2X 3L7, Canada",45.517817,-73.56995490000001,Montréal,QC
294,CEA-11211,729 | BSR | CDN-NDG | 2405 Cote Ste-Catherine,"2405 Chemin de la Côte-Sainte-Catherine, Montréal, QC",H3T 1A8,Level2,45.508874,-73.61836,"1,00 $ (CAD) de l'heure","2405 Chemin de la Côte-Sainte-Catherine, Montréal, QC H3T 1A8, Canada",45.5097386,-73.619582,Montréal,QC
295,CEA-10578,313 | BSR | RPP | 6036 St-Hubert,"6036 St-Hubert, Montréal, QC",H2S 2L7,Level2,45.534474,-73.59958,"1,00 $ (CAD) de l'heure","6036 Rue St-Hubert, Montréal, QC H2S 2L7, Canada",45.534389000000004,-73.59970799999999,Montréal,QC
297,CEA-10697,408 | BSR | MHM | 1870 Davidson,"1870 Davidson, Montréal, QC",H1W 2Y6,Level2,45.542656,-73.545168,"1,00 $ (CAD) de l'heure","1870 Rue Davidson, Montréal, QC H1W 2Y6, Canada",45.5423324,-73.54523809999999,Montréal,QC
299,CEA-10585,522 | BSR | PMR | 4490 Fabre,"4490 Rue Fabre, Montréal, QC",H2J 3V3,Level2,45.531321,-73.575622,"1,00 $ (CAD) de l'heure","4490 Rue Fabre, Montréal, QC H2J 3V3, Canada",45.5312697,-73.5756427,Montréal,QC
312,CEA-10928,101 | BSR | AC | 10490 Lajeunesse,"10490 Lajeunesse, Montréal, QC",H3J 2E1,Level2,45.554181,-73.664827,"1,00 $ (CAD) de l'heure","10490 Rue Lajeunesse, Montréal, QC H3L 2E5, Canada",45.55407,-73.66486090000001,Montréal,QC
314,CEA-11217,731 | BSR | CDN-NDG | 5600 Côte-des-Neiges,"5600 Chemin de la Côte-des-Neiges, Montréal, QC",H3T 1Z1,Level2,45.497777,-73.62566600000001,"1,00 $ (CAD) de l'heure","5600 Chemin de la Côte-des-Neiges, Montréal, QC H3T 1Z1, Canada",45.4974662,-73.6261036,Montréal,QC
324,CEA-10654,320 | BSR | RPP | 3810 Rosemont,"3810 boul. Rosemont, Montréal, QC",H1X 2P6,Level2,45.5578,-73.576045,"1,00 $ (CAD) de l'heure","3810 Boulevard Rosemont, Montréal, QC H1X 1L4, Canada",45.5578734,-73.575942,Montréal,QC
326,CEA-11300,115 | BSR | AC | 10305 St-Laurent,"10305 St-Laurent, Montréal, QC",H3L 2M3,Level2,45.548862,-73.664778,"1,00 $ (CAD) de l'heure","10305 Boul St-Laurent, Montréal, QC H3L 2M3, Canada",45.548894399999995,-73.66496020000001,Montréal,QC
331,CEA-10596,106 | BSR | AC | 780 Fleury,"1780 Fleury, Montréal, QC",H2C 1T4,Level2,45.567582,-73.653615,"1,00 $ (CAD) de l'heure","1780 Rue Fleury E, Montréal, QC H2C 3E4, Canada",45.567422799999996,-73.6535553,Montréal,QC
332,CEA-10198,604 | BSR | VM | 163 St-Antoine,"115 rue St-Antoine Ouest, Montréal, QC",H2Z 1X8,Level2,45.505539,-73.55852,"1,00 $ (CAD) de l'heure","115 Rue Saint-Antoine O, Montréal, QC H2Z 1X8, Canada",45.5054528,-73.55869090000002,Montréal,QC
338,CEA-288,602 | BSR | VM | 1245 St-Urbain,"rue St-Urbain & René-Lévesque, Montréal, QC",H2Z 1A4,Level2,45.507908,-73.56276,"1,00 $ (CAD) de l'heure","Boulevard René-Lévesque O & Rue Saint-Urbain, Montréal, QC H2Z, Canada",45.507678399999996,-73.562505,Montréal,QC
342,CEA-11136,635 | BSR | VM | 799 De La Commune,"799 De La Commune, Ville-Marie, QC",H3C 1Y1,Level2,45.495752,-73.552719,"1,00 $ (CAD) de l'heure","799 Rue de la Commune O, Montréal, QC H3C 1Y1, Canada",45.495422999999995,-73.55288890000001,Montréal,QC
345,CEA-10326,704 | BSR | CDN-NDG | 5620 Chemin de la Côte-St-Luc,"5620 Chemin de la Côte-St-Luc, Montréal, QC",H3X 2E3,Level2,45.478208,-73.629689,"1,00 $ (CAD) de l'heure","5620 Chemin de la Côte-Saint-Luc, Montréal, QC H3X 2E3, Canada",45.4780659,-73.62944940000001,Montréal,QC
349,CEA-102,581 | BHR | PMR | 5633 Saint-Dominique : Aréna St-Louis,"5633 rue Saint-Dominique, Montréal, QC",H2T 1V7,Level2,45.527779,-73.59976,"2,50 $ (CAD) par session","5633 Rue Saint-Dominique, Montréal, QC H2T 1V7, Canada",45.5273112,-73.5994845,Montréal,QC
356,CEA-10782,604 | BSR | VM | 163 St-Antoine,"155 rue St-Antoine Ouest, Montréal, QC",H2Z 2A7,Level2,45.505046,-73.55894,"1,00 $ (CAD) de l'heure","155 Rue Saint-Antoine O, Montréal, QC H2Z 1H2, Canada",45.505202000000004,-73.5589031,Montréal,QC
357,CEA-10527,508 | BSR | PMR | 5271 St-Hubert,"5271 rue St-Hubert, Montréal, QC",H2J 2Y4,Level2,45.530108,-73.590299,"1,00 $ (CAD) de l'heure","5271 Rue St-Hubert, Montréal, QC H2J 2Y4, Canada",45.5302115,-73.59012690000002,Montréal,QC
360,CEA-10091,DGI - Complexe Desjardins,"1251 rue Jeanne-Mance, Montréal, QC",H2X 3Y2,Level2,45.507924,-73.56414000000001,"1,00 $ (CAD) de l'heure","1251 Rue Jeanne-Mance, Montréal, QC H2X, Canada",45.5070394,-73.5651293,Montréal,QC
362,CEC-00153,Centre de services communautaires du Monastère,"4451 rue Berri, Montréal, QC",H2J 2W9,FastDC,45.524942,-73.580838,"10,00 $ (CAD) de l'heure","4451 Rue Berri, Montréal, QC H2J 1W5, Canada",45.5249085,-73.5807816,Montréal,QC
366,CEA-10846,316 | BSR | RPP | 4300 Bélanger,"4300A Bélanger, Montréal, QC",H1T 3M1,Level2,45.566674,-73.585495,"1,00 $ (CAD) de l'heure","4300 Rue Bélanger, Montréal, QC H1T 1A7, Canada",45.5667637,-73.5854248,Montréal,QC
375,CEA-10868,325 | BSR | RPP | 5841 des Écores,"5841 Rue des Écores , Montréal, QC",H2G 1X6,Level2,45.544691,-73.58632,"1,00 $ (CAD) de l'heure","5841 Rue des Écores, Montréal, QC H2G 2J2, Canada",45.5447644,-73.5863595,Montréal,QC
379,CEA-10383,708 | BSR | CDN-NDG | 6200 Côte Des-Neiges,"6200 ch. de la Côte-des-Neiges, Montréal, QC",H3S 2A1,Level2,45.500598,-73.632462,"1,00 $ (CAD) de l'heure","6200 Chemin de la Côte-des-Neiges, Montréal, QC H3S 2A1, Canada",45.500826200000006,-73.63260240000001,Montréal,QC
380,CEA-11308,628 | BSR | VM | 2330 Sherbrooke Ouest,"2330 rue Sherbrooke O, Montréal, QC",H3H 1G8,Level2,45.491734,-73.587228,"1,00 $ (CAD) de l'heure","2330 Rue Sherbrooke Ouest, Montréal, QC H3H 1G8, Canada",45.491395000000004,-73.586883,Montréal,QC
383,CEA-10941,108 | BSR | AC | 990 Salaberry,"990 Salaberry, Montréal, QC",H3L 3L6,Level2,45.545777,-73.692268,"1,00 $ (CAD) de l'heure","990 Rue de Salaberry, Montréal, QC H3L, Canada",45.5455256,-73.6925484,Montréal,QC
384,CEA-10149,611 | BSR | VM | 530 Peel,"530 rue Peel, Montréal, QC",H3C 6M8,Level2,45.495621,-73.563865,"1,00 $ (CAD) de l'heure","530 Rue Peel, Montréal, QC H3C 6M8, Canada",45.4953646,-73.5635567,Montréal,QC
389,CEA-10864,627 | BSR | VM | 1475 Alexandre DeSève,"1475 Rue Alexandre-DeSève, Montréal, QC",H2L 4P2,Level2,45.521667,-73.554563,"1,00 $ (CAD) de l'heure","1475 Rue Alexandre-DeSève, Montréal, QC H2L 4P2, Canada",45.5218232,-73.554902,Montréal,QC
391,CEA-10958,725 | BSR | CDN-NDG | 7440 Décarie,"7440 Décarie, H4P 2N1, QC",H4A 3H9,Level2,45.494349,-73.65420999999999,"1,00 $ (CAD) de l'heure","7440 Boulevard Décarie, Montréal, QC H4P 2N1, Canada",45.495273299999994,-73.655125,Montréal,QC
395,CEA-10748,318 | BSR | RPP | 2919 Bellechasse,"2919 Bellechasse, Montréal, QC",H2G 1N8,Level2,45.551265,-73.584723,"1,00 $ (CAD) de l'heure","2919 Rue de Bellechasse, Montréal, QC H1Y 1K1, Canada",45.5516476,-73.5851119,Montréal,QC
401,CEA-10517,521 | BSR | PMR | 375 St-Viateur,"375A St-Viateur, Montréal, QC",H2V 4B5,Level2,45.521651,-73.602802,"1,00 $ (CAD) de l'heure","263 Rue Saint Viateur O, Montréal, QC H2V 1Y1, Canada",45.5226902,-73.60196440000001,Montréal,QC
402,CEA-10724,724 | BSR | CDN-NDG | 2940 Côte Ste-Catherine,"2940 Côte Ste-Catherine, Montréal, QC",H3S 2C2,Level2,45.504899,-73.621948,"1,00 $ (CAD) de l'heure","2940 Chemin de la Côte-Sainte-Catherine, Montréal, QC H3S 2C2, Canada",45.504887599999996,-73.6218803,Montréal,QC
407,CEA-10353,206 | BSR | VSMPE | 8106 Casgrain,"8106 Avenue Casgrain , Montréal, QC",H2P 2K5,Level2,45.540098,-73.63096999999999,"1,00 $ (CAD) de l'heure","8106 Avenue Casgrain, Montréal, QC H2P 2K5, Canada",45.540012100000006,-73.63104150000001,Montréal,QC
410,CEA-10351,725 | BSR | CDN-NDG | 7440 Décarie,"7440 Décarie, H4P 2N1, QC",H4A 3H9,Level2,45.49426,-73.654292,"1,00 $ (CAD) de l'heure","7440 Boulevard Décarie, Montréal, QC H4P 2N1, Canada",45.495273299999994,-73.655125,Montréal,QC
411,CEA-10148,620 | BSR | VM | 1551 St-Denis,"1551 rue St-Denis, Montréal, QC",H2L 3K3,Level2,45.514626,-73.56228,"1,00 $ (CAD) de l'heure","1551 Rue Saint-Denis, Montréal, QC H2X 3K3, Canada",45.5146299,-73.562003,Montréal,QC
414,CEA-10873,321 | BSR | RPP | 6919 19e ave,"6919 19e ave, Montréal, QC",H1X 2T5,Level2,45.562636,-73.588902,"1,00 $ (CAD) de l'heure","6919 19e Avenue, Montréal, QC H2A 2L2, Canada",45.5628143,-73.589214,Montréal,QC
422,CEB-10188,ITHQ,"3535 rue St-Denis, Montréal, QC",H2X 3P1,Level2,45.518076,-73.56879,"1,00 $ (CAD) de l'heure","3535 Rue Saint-Denis, Montréal, QC H2X 3P1, Canada",45.5177092,-73.5687593,Montréal,QC
423,CEA-10543,324 | BSR | RPP | 5808 St-Hubert,"5808St-Hubert, Montréal, QC",H2S 2L7,Level2,45.533244,-73.59685999999999,"1,00 $ (CAD) de l'heure","Rue St-Hubert, Montréal, QC, Canada",45.5442437,-73.62094909999999,Montréal,QC
427,CEA-11027,529 | BSR | PMR | 2025 Masson,"2025 Rue Masson, Montréal, QC",H2H 2P7,Level2,45.539172,-73.58224,"1,00 $ (CAD) de l'heure","2025 Rue Masson, Montréal, QC H2H 2P7, Canada",45.5393624,-73.58210240000001,Montréal,QC
429,CEA-10701,210 | BSR | VSMPE | 15 Liège E,"15A Liege E, Montréal, QC",H2P 1H8,Level2,45.541019,-73.63746,"1,00 $ (CAD) de l'heure","15 Rue de Liège E, Montréal, QC H2P 1H8, Canada",45.5410242,-73.6375275,Montréal,QC
434,CEA-10909,715 | BSR | CND-NDG | 3285 Lacombe,"3285 Lacombe, Montréal, QC",H3T 1L8,Level2,45.498543,-73.62177199999999,"1,00 $ (CAD) de l'heure","3285 Avenue Lacombe, Montréal, QC H3T 1L6, Canada",45.4990236,-73.6215875,Montréal,QC
437,CEA-10329,506 | BSR | PMR | 5004 St-Laurent : Parc Lahaie,"5004 Boul St-Laurent, Montréal, QC",H2T 1R7,Level2,45.522579,-73.591611,"1,00 $ (CAD) de l'heure","5004 Boul St-Laurent, Montréal, QC H2T 1R7, Canada",45.522451200000006,-73.59183730000001,Montréal,QC
439,CEA-11291,523 | BSR | PMR | 4752 Berri,"4752 Berri, Montréal, QC",H2J 2R6,Level2,45.526525,-73.585349,"1,00 $ (CAD) de l'heure","4752 Rue Berri, Montréal, QC H2J 2R5, Canada",45.526371999999995,-73.58540500000001,Montréal,QC
442,CEA-10841,112 | BSR | AC | 460 Chabanel O,"460 Rue Chabanel O, Montréal, QC",H2N 1G8,Level2,45.537961,-73.654751,"1,00 $ (CAD) de l'heure","460 Rue Chabanel O, Montréal, QC H2N 2K6, Canada",45.537746000000006,-73.6544455,Montréal,QC
445,CEA-11039,829 | BSR | SO | 472 Ste-Madeleine,"472 Rue Sainte Madeleine, Montréal, QC",H3K 2K7,Level2,45.480554,-73.555775,"1,00 $ (CAD) de l'heure","472 Rue Sainte Madeleine, Montréal, QC H3K 2K7, Canada",45.480514,-73.5554071,Montréal,QC
446,CEA-10652,713 | BSR | CDN-NDG | 5468 Claranald,"5468 Claranald, Montréal, QC",H3X 2S7,Level2,45.483906,-73.637557,"1,00 $ (CAD) de l'heure","5468 Avenue Clanranald, Montréal, QC H3X 2S3, Canada",45.4837375,-73.63781469999999,Montréal,QC
449,CEA-10570,718 | BSR | CDN-NDG | 3555 Queen Mary,"3355 Chemin Queen Mary, Montréal, QC",H3V 1H9,Level2,45.49571,-73.618201,"1,00 $ (CAD) de l'heure","3355 Chemin Queen Mary, Montréal, QC H3V 1A5, Canada",45.4961536,-73.6188136,Montréal,QC
450,CEA-10178,618 | BSR | VM | 254 Boisbriand,"270 rue de Boisbriand, Montréal, QC",H2X 3C5,Level2,45.512673,-73.562445,"1,00 $ (CAD) de l'heure","270 Rue de Boisbriand, Montréal, QC H2X, Canada",45.5129085,-73.5622645,Montréal,QC
451,CEA-11005,118 | BSR | AC | 9335 St-Hubert,"9335 rue St Hubert, Montréal, QC",H2M 1Y7,Level2,45.552497,-73.646632,"1,00 $ (CAD) de l'heure","9335 Rue St-Hubert, Montréal, QC H2M 1Y7, Canada",45.5531259,-73.6463446,Montréal,QC
453,CEA-10945,107 | BSR | AC | 11988 Obrien,"11988 Boulevard O'Brien, Montréal, QC",H4J 1Y9,Level2,45.53217,-73.706766,"1,00 $ (CAD) de l'heure","11988 Boulevard O'Brien, Montréal, QC H4J 1Y9, Canada",45.532015,-73.7068,Montréal,QC
459,CEA-10568,601 | BSR | VM | 800 Gauvin,"800 rue du Square Victoria, Montréal, QC",H4Z 1A1,Level2,45.500852,-73.56134,"1,00 $ (CAD) de l'heure","800 Rue du Square-Victoria, Montréal, QC H4Z 1A1, Canada",45.5003412,-73.56207140000001,Montréal,QC
462,CEA-10273,119 | BSR | AC |  10905 rue Basile Routhier : Parc Basile Routhier,"10905A rue Basile Routhier, Montréal, QC",H2C 3H5,Level2,45.557084,-73.671649,"1,00 $ (CAD) de l'heure","10905 Rue Basile Routhier, Montréal, QC H2C 1N7, Canada",45.557458600000004,-73.6725483,Montréal,QC
465,CEA-10389,502 | BSR | PMR | 4502 Boyer,"4502 rue Boyer, Montréal, QC",H2J 3E2,Level2,45.527465,-73.580138,"1,00 $ (CAD) de l'heure","4502 Rue Boyer, Montréal, QC H2J 3E2, Canada",45.5274177,-73.5800945,Montréal,QC
467,CEA-10902,104 | BSR | AC | 54 Gouin,"54 Boul. Gouin Est, Montréal, QC",H3L 1A6,Level2,45.552297,-73.673625,"1,00 $ (CAD) de l'heure","54 Boulevard Gouin E, Montréal, QC H3L, Canada",45.552005,-73.67369709999998,Montréal,QC
470,CEA-10575,508 | BSR | PMR | 5271 St-Hubert,"5271 rue St-Hubert, Montréal, QC",H2J 2Y4,Level2,45.530108,-73.590299,"1,00 $ (CAD) de l'heure","5271 Rue St-Hubert, Montréal, QC H2J 2Y4, Canada",45.5302115,-73.59012690000002,Montréal,QC
471,CEB-10014,St-Hubert - Lajeunesse,"10520 rue Lajeunesse, Montréal, QC",H3L 2E6,Level2,45.5542526245117,-73.66552734375,"1,00 $ (CAD) de l'heure","10520 Rue Lajeunesse, Montréal, QC H3L 2E6, Canada",45.5542534,-73.6652332,Montréal,QC
476,CEA-11120,181 | BHR | AC | 11301 de l'Acadie : Aréna Marcelin-Wilson,"11301 Boulevard de l'Acadie, Montréal, QC",H3M 2T1,Level2,45.537078,-73.684914,"1,00 $ (CAD) de l'heure","11301 Boulevard de l'Acadie, Montréal, QC H3M 2T1, Canada",45.5365968,-73.68487950000001,Montréal,QC
477,CEA-10727,226 | BSR | VSMPE | 151 Castelnau,"151 Castelnau, Montréal, QC",H2R 1P3,Level2,45.536733,-73.61896,"1,00 $ (CAD) de l'heure","151 Rue de Castelnau O, Montréal, QC H2R 2Y6, Canada",45.5339635,-73.62186,Montréal,QC
479,CEA-11191,634 | BSR | VM | 350 rue St-Hubert,"350 St-Hubert, Montréal, QC",H2L 0A4,Level2,45.512078,-73.550062,"1,00 $ (CAD) de l'heure","350 Rue St-Hubert, Montréal, QC H2Y 4B3, Canada",45.512123700000004,-73.5504839,Montréal,QC
480,CEA-10258,119 | BSR | AC |  10905 rue Basile Routhier : Parc Basile Routhier,"10905A rue Basile Routhier, Montréal, QC",H2C 3H5,Level2,45.557084,-73.671649,"1,00 $ (CAD) de l'heure","10905 Rue Basile Routhier, Montréal, QC H2C 1N7, Canada",45.557458600000004,-73.6725483,Montréal,QC
484,CEA-10162,625 | BSR | VM | 1956 Frontenac,"1956 Rue Frontenac, Montréal, QC",H2K 2Z1,Level2,45.532725,-73.552184,"1,00 $ (CAD) de l'heure","1956 Rue Frontenac, Montréal, QC H2K 2Z1, Canada",45.5325695,-73.5521119,Montréal,QC
485,CEA-10638,218 | BSR | VSMPE | 8498 Châteaubriand,"8498 Avenue De Chateaubriand, Montréal, QC",H2P 2A3,Level2,45.547498,-73.63325,"1,00 $ (CAD) de l'heure","8498 Avenue De Chateaubriand, Montréal, QC H2P 2A3, Canada",45.547575099999996,-73.63310440000001,Montréal,QC
486,CEA-426,St-Hubert - Côte-des-Neiges,"5235 Chemin de la Côte-des-Neiges, Montréal, QC",H3T 1Y1,Level2,45.4962737196333,-73.6211819828034,"1,00 $ (CAD) de l'heure","5235 Chemin de la Côte-des-Neiges, Montréal, QC H3T 1Y1, Canada",45.496123299999994,-73.62106259999999,Montréal,QC
487,CEA-10284,305 | BSR | RPP | 26e avenue,"6435 26e Avenue, Montréal, QC",H1T 3K7,Level2,45.564852,-73.577294,"1,00 $ (CAD) de l'heure","6435 26e Avenue, Montréal, QC H1T 3K7, Canada",45.5648695,-73.57716059999998,Montréal,QC
491,CEA-10861,722 | BSR | CDN-NDG | 3756 Queen Mary,"3756 Chemin Queen Mary, Montréal, QC",H3V 1A6,Level2,45.494166,-73.61964499999999,"1,00 $ (CAD) de l'heure","3756 Chemin Queen Mary, Montréal, QC H3V 1A6, Canada",45.494077000000004,-73.61950999999999,Montréal,QC
494,CEA-10297,804 | BSR | SO | 1105 de la Sucrerie,"1105 Rue de la Sucrerie, Montréal, QC",H3K 3E7,Level2,45.483595,-73.56020799999999,"1,00 $ (CAD) de l'heure","1105 Rue de la Sucrerie, Montréal, QC H3K 3E7, Canada",45.48353,-73.55993199999999,Montréal,QC
497,CEA-10572,718 | BSR | CDN-NDG | 3555 Queen Mary,"3355 Chemin Queen Mary, Montréal, QC",H3V 1H9,Level2,45.49571,-73.618201,"1,00 $ (CAD) de l'heure","3355 Chemin Queen Mary, Montréal, QC H3V 1A5, Canada",45.4961536,-73.6188136,Montréal,QC
498,CEA-101,580 | BHR | PMR | 4365 Cartier : Aréna Mont-Royal,"4365 Cartier Rue, Montréal, Montréal, QC",H2H 2N9,Level2,45.533424,-73.57226,"2,50 $ (CAD) par session","4365 Rue Cartier, Montréal, QC H2H 2N9, Canada",45.533234,-73.571813,Montréal,QC
507,CEB-10020,Place des Arts,"1450 rue St-Urbain, Montréal, QC",H5B 1E4,Level2,45.5091667175293,-73.5659484863281,"2,50 $ (CAD) par session","1450 Rue Saint-Urbain, Montréal, QC H2X 1Z8, Canada",45.5090838,-73.5660905,Montréal,QC
508,CEA-11230,731 | BSR | CDN-NDG | 5600 Côte-des-Neiges,"5600 Chemin de la Côte-des-Neiges, Montréal, QC",H3T 1Z1,Level2,45.497777,-73.62566600000001,"1,00 $ (CAD) de l'heure","5600 Chemin de la Côte-des-Neiges, Montréal, QC H3T 1Z1, Canada",45.4974662,-73.6261036,Montréal,QC
511,CEA-10761,223 | BSR | VSMPE | 8630 Berri,"8630 Rue Berri, Montréal, QC",H2P 2G4,Level2,45.545698,-73.63738000000001,"1,00 $ (CAD) de l'heure","8630 Rue Berri, Montréal, QC H2P 2Z4, Canada",45.5455533,-73.6374537,Montréal,QC
517,CEA-10360,303 | BSR | RPP | 2160 Beaubien,"2160 Rue Beaubien E, Montréal, QC",H2G 1M6,Level2,45.546029,-73.59401899999999,"1,00 $ (CAD) de l'heure","2160 Rue Beaubien E, Montréal, QC H2G 1M6, Canada",45.545912,-73.5940186,Montréal,QC
521,CEA-10290,507 | BSR | PMR | 3528 Calixa-Lavallée : Parc Lafontaine,"3528 Avenue Calixa-Lavallée, Montréal, QC",H2L 2T6,Level2,45.524943,-73.565462,"1,00 $ (CAD) de l'heure","3528 Avenue Calixa-Lavallée, Montréal, QC H2L 2T6, Canada",45.5247991,-73.56526159999999,Montréal,QC
522,CEA-10545,319 | BSR | RPP | 6501 St-Laurent,"6501A St-Laurent, Montréal, QC",H2S 3C4,Level2,45.530366,-73.608664,"1,00 $ (CAD) de l'heure","6501 Boul St-Laurent, Montréal, QC H2S 3C4, Canada",45.530368200000005,-73.6085368,Montréal,QC
526,CEA-10959,722 | BSR | CDN-NDG | 3756 Queen Mary,"3756 Chemin Queen Mary, Montréal, QC",H3V 1A6,Level2,45.494166,-73.61964499999999,"1,00 $ (CAD) de l'heure","3756 Chemin Queen Mary, Montréal, QC H3V 1A6, Canada",45.494077000000004,-73.61950999999999,Montréal,QC
528,CEA-10581,510 | BSR | PMR | 3440 St-Laurent,"3440 Boul St-Laurent, H2X 2T9, Montréal, QC",H2H 1W1,Level2,45.512799,-73.570279,"1,00 $ (CAD) de l'heure","3440 Boul St-Laurent, Montréal, QC H2X 2T9, Canada",45.512429,-73.5699604,Montréal,QC
533,CEA-10331,807 | BSR | SO | 52385 du Parc Garneau,"2385 Rue du Parc Garneau, Montréal, QC",H4E 2C2,Level2,45.455853,-73.594737,"1,00 $ (CAD) de l'heure","2385 Rue du Parc Garneau, Montréal, QC H4E 2C2, Canada",45.4559799,-73.594697,Montréal,QC
540,CEA-10855,112 | BSR | AC | 460 Chabanel O,"460 Rue Chabanel O, Montréal, QC",H2N 1G8,Level2,45.537961,-73.654751,"1,00 $ (CAD) de l'heure","460 Rue Chabanel O, Montréal, QC H2N 2K6, Canada",45.537746000000006,-73.6544455,Montréal,QC
541,CEA-111,581 | BHR | PMR | 5633 Saint-Dominique : Aréna St-Louis,"5633 rue Saint-Dominique, Montréal, QC",H2T 1V7,Level2,45.527779,-73.59976,"2,50 $ (CAD) par session","5633 Rue Saint-Dominique, Montréal, QC H2T 1V7, Canada",45.5273112,-73.5994845,Montréal,QC
544,CEA-10599,220 | BSR | VSMPE | 7151 St-Dominique,"7151A St-Dominique, Montréal, QC",H2R 1X3,Level2,45.535353,-73.61758,"1,00 $ (CAD) de l'heure","7151 Rue Saint-Dominique, Montréal, QC H2R 1X3, Canada",45.535179,-73.6173677,Montréal,QC
546,CEA-11040,113 | BSR | AC | 12505 Lachapelle,"12505 Lachapelle, Montréal, QC",H4J 2N2,Level2,45.531689,-73.72589,"1,00 $ (CAD) de l'heure","12505 Rue Lachapelle, Montréal, QC H4J 2N2, Canada",45.531921999999994,-73.72627299999999,Montréal,QC
551,CEA-10693,214 | BSR | VSMPE | 6961 des Écores,"6961 Des Écores, Montréal, QC",H2E 2V7,Level2,45.551028,-73.59976999999999,"1,00 $ (CAD) de l'heure","6961 Rue des Écores, Montréal, QC H2E 2V7, Canada",45.551163200000005,-73.5999005,Montréal,QC
555,CEA-10934,107 | BSR | AC | 11988 Obrien,"11988 Boulevard O'Brien, Montréal, QC",H4J 1Y9,Level2,45.53217,-73.706766,"1,00 $ (CAD) de l'heure","11988 Boulevard O'Brien, Montréal, QC H4J 1Y9, Canada",45.532015,-73.7068,Montréal,QC
557,CEA-11306,115 | BSR | AC | 10305 St-Laurent,"10305 St-Laurent, Montréal, QC",H3L 2M3,Level2,45.548862,-73.664778,"1,00 $ (CAD) de l'heure","10305 Boul St-Laurent, Montréal, QC H3L 2M3, Canada",45.548894399999995,-73.66496020000001,Montréal,QC
564,CEA-222,Allied - 111 Duke,"111 Rue Duke, Montreal, QC",H3C 2M1,Level2,45.4971082709454,-73.5567164535113,"2,50 $ (CAD) par session","111 Rue Duke, Montréal, QC H3C 2M1, Canada",45.4967578,-73.5562301,Montréal,QC
566,CEA-10365,208 | BSR | VSMPE | 10 Villeray,"10 Rue Villeray, Montréal, QC",H2R 1E8,Level2,45.537317,-73.624953,"1,00 $ (CAD) de l'heure","10 Rue Villeray, Montréal, QC H2R 1E8, Canada",45.537246,-73.624707,Montréal,QC
569,CEA-10343,704 | BSR | CDN-NDG | 5620 Chemin de la Côte-St-Luc,"5620 Chemin de la Côte-St-Luc, Montréal, QC",H3X 2E3,Level2,45.478208,-73.629689,"1,00 $ (CAD) de l'heure","5620 Chemin de la Côte-Saint-Luc, Montréal, QC H3X 2E3, Canada",45.4780659,-73.62944940000001,Montréal,QC
577,CEA-10847,822 | BSR | SO | 555 Des Seigneurs,"555 Des Seigneurs, Montréal, QC",H3J 2S5,Level2,45.488813,-73.570943,"1,00 $ (CAD) de l'heure","555 Rue des Seigneurs, Montréal, QC H3J 1Y1, Canada",45.4885844,-73.5700977,Montréal,QC
585,CEA-11192,421 | BSR | MHM | 1401 De la Salle,"1401 Avenue de la Salle, Montréal, QC",H1V 2J4,Level2,45.550076,-73.534962,"1,00 $ (CAD) de l'heure","1401 Avenue de la Salle, Montréal, QC H1V 2J4, Canada",45.550181099999996,-73.53481009999999,Montréal,QC
591,CEA-10289,803 | BSR | SO | 1825 Notre-Dame O,"1825 rue Notre-Dame O, Montréal, QC",H3J 2Y4,Level2,45.487874,-73.569212,"1,00 $ (CAD) de l'heure","1825 Rue Notre-Dame Ouest, Montréal, QC H3J 2Y4, Canada",45.488162,-73.568995,Montréal,QC
592,CEA-10369,701 | BSR | CND-NDG | 3405 Grand Boulevard,"3405 Grand Boulevard, Montréal, QC",H4B 2X3,Level2,45.466805,-73.623583,"1,00 $ (CAD) de l'heure","3405 Grand Boulevard, Montréal, QC H4B 2X3, Canada",45.466897100000004,-73.62359570000001,Montréal,QC
598,CEA-10370,706 | BSR | CDN-NDG | 3340 Côte Ste-Catherin,"3340 Côte Ste-Catherine, Montréal, QC",H1W 2C7,Level2,45.5001,-73.626006,"1,00 $ (CAD) de l'heure","3340 Chemin de la Côte-Sainte-Catherine, Montréal, QC H3T 1C6, Canada",45.5000421,-73.6258217,Montréal,QC
599,CEA-10703,219 | BSR | VSMPE | 1210 Villeray,"1210 Villeray, Montréal, QC",H2R 1J7,Level2,45.547077,-73.61853,"1,00 $ (CAD) de l'heure","1210 Rue Villeray, Montréal, QC H2R 1J7, Canada",45.546833500000005,-73.61840140000001,Montréal,QC
600,CEA-10561,512 | BSR | PMR | 1 Mont-Royal Est,"1 Avenue du Mont-Royal E, Montréal, QC",H2T 1N4,Level2,45.520262,-73.586551,"1,00 $ (CAD) de l'heure","1 Avenue du Mont-Royal E, Montréal, QC H2T 1N4, Canada",45.520303000000006,-73.58645200000001,Montréal,QC
602,CEA-10295,806 | BSR | SO | 550 Avenue Atwater,"550 Avenue Atwater, Montréal, QC",H4C 2G6,Level2,45.48178,-73.578613,"1,00 $ (CAD) de l'heure","550 Avenue Atwater, Montréal, QC H4C 2G6, Canada",45.4820871,-73.5787063,Montréal,QC
603,CEA-10582,710 | BSR | CDN-NDG | 6205 Sherbrooke Ouest,"6205 Sherbrooke O, Montréal, QC",H4B 2X3,Level2,45.466759,-73.62378100000001,"1,00 $ (CAD) de l'heure","6205 Rue Sherbrooke Ouest, Montréal, QC H4B 1M4, Canada",45.46666,-73.62391600000001,Montréal,QC
606,CEC-00102,BRCC - Marché Atwater,"138, Avenue Atwater, Montréal, QC",H4C 2H6,FastDC,45.478722,-73.57675,"10,00 $ (CAD) de l'heure","138 Avenue Atwater, Montréal, QC H4C 2H6, Canada",45.4795202,-73.5769653,Montréal,QC
607,CEA-11298,636 | BSR | VM | 2005 Ste-Catherine E,"2005 rue Ste-Catherine E, Montréal, QC",H2K 2H6,Level2,45.524189,-73.551029,"1,00 $ (CAD) de l'heure","2005 Rue Sainte-Catherine E, Montréal, QC H2K 2H6, Canada",45.5244401,-73.5510127,Montréal,QC
609,CEA-10522,514 | BSR | PMR | 5333 Papineau,"5333 Papineau, Montréal, QC",H2H 1W1,Level2,45.537015,-73.583259,"1,00 $ (CAD) de l'heure","5333 Rue Papineau, Montréal, QC H2H 1W1, Canada",45.5369802,-73.5830187,Montréal,QC
612,CEA-267,Allied - 75 Queen,"75 Queen, Montreal, QC",H3C 2N5,Level2,45.4975137141037,-73.55427392108541,"2,50 $ (CAD) par session","75 Rue Queen, Montréal, QC H3C 2N6, Canada",45.497498900000004,-73.5540847,Montréal,QC
616,CEA-10747,418 | BSR | MHM | 8355 Notre-Dame,"8355 Notre-Dame, Montréal, QC",H1L 3L2,Level2,45.594272,-73.51131600000001,"1,00 $ (CAD) de l'heure","8355 Rue Notre-Dame Est, Montréal, QC H1L 3L2, Canada",45.5944597,-73.51147440000001,Montréal,QC
617,CEB-10227,Altitude Montréal,"1225 Robert-Bourassa, Montréal, QC",H3B 9A9,Level2,45.502713,-73.56853199999999,"2,50 $ (CAD) par session","1225 Boulevard Robert-Bourassa, Montréal, QC H3B 3A7, Canada",45.5027219,-73.5685777,Montréal,QC
618,CEA-11470,113 | BSR | AC | 12505 Lachapelle,"12505 Lachapelle, Montréal, QC",H4J 2N2,Level2,45.531689,-73.72589,"1,00 $ (CAD) de l'heure","12505 Rue Lachapelle, Montréal, QC H4J 2N2, Canada",45.531921999999994,-73.72627299999999,Montréal,QC
623,CEB-10185,Centre Bell,"1275 rue Saint-Antoine Ouest, Montréal, QC",H3C 5L2,Level2,45.4956512451172,-73.5681915283203,"2,50 $ (CAD) par session","1275 Rue Saint-Antoine O, Montréal, QC H3C 5L2, Canada",45.4952593,-73.5691542,Montréal,QC
625,CEA-10834,721 | BSR | CDN-NDG | 2885 Barclay,"2885 Barclay, Montréal, QC",H3S 2J6,Level2,45.509323,-73.62974799999999,"1,00 $ (CAD) de l'heure","2885 Avenue Barclay, Montréal, QC H3S 1J7, Canada",45.509576200000005,-73.6296927,Montréal,QC
629,CEA-10146,611 | BSR | VM | 530 Peel,"530 rue Peel, Montréal, QC",H3C 6M8,Level2,45.495621,-73.563865,"1,00 $ (CAD) de l'heure","530 Rue Peel, Montréal, QC H3C 6M8, Canada",45.4953646,-73.5635567,Montréal,QC
632,CEA-10293,407 | BSR | MHM | 1407 William David,"1407 Avenue William-David, Montréal, QC",H1V 2R5,Level2,45.552578,-73.53335,"1,00 $ (CAD) de l'heure","1407 Avenue William-David, Montréal, QC H1V 2R5, Canada",45.5526909,-73.5334142,Montréal,QC
633,CEA-10736,418 | BSR | MHM | 8355 Notre-Dame,"8355 Notre-Dame, Montréal, QC",H1L 3L2,Level2,45.594272,-73.51131600000001,"1,00 $ (CAD) de l'heure","8355 Rue Notre-Dame Est, Montréal, QC H1L 3L2, Canada",45.5944597,-73.51147440000001,Montréal,QC
642,CEA-11218,326 | BSR | RPP | 1550 Bélanger,"1550 rue Bélanger, Montréal, QC",H2G 1A8,Level2,45.545093,-73.6043,"1,00 $ (CAD) de l'heure","1550 Rue Bélanger, Montréal, QC H2G 1A9, Canada",45.5453854,-73.60403769999999,Montréal,QC
643,CEA-11228,730 | BSR | CDN-NDG | 4268 Royal,"4268 Avenue Royal, Montréal, QC",H4A 2M5,Level2,45.471682,-73.625817,"1,00 $ (CAD) de l'heure","4268 Avenue Royal, Montréal, QC H4A 2M5, Canada",45.4714686,-73.62589179999999,Montréal,QC
648,CEA-10689,410 | BSR | MHM | 3150 Sainte-Catherine E,"3150 Rue Sainte-Catherine E, Montréal, QC",H1W 2C3,Level2,45.538602,-73.541466,"1,00 $ (CAD) de l'heure","3150 Rue Sainte-Catherine E, Montréal, QC H1W 2C3, Canada",45.5385544,-73.5414806,Montréal,QC
650,CEA-386,SHDM - Complexe Chaussegros-De-Léry,"330, rue Champ-de-Mars, Montréal, QC",H2Y 3Z3,Level2,45.509619,-73.55353000000001,"2,50 $ (CAD) par session","330 Rue du Champ de Mars, Montréal, QC H2Y 3Z8, Canada",45.5100013,-73.55362209999998,Montréal,QC
651,CEB-10016,Place des Arts,"1450 rue St-Urbain, Montréal, QC",H5B 1E4,Level2,45.5091667175293,-73.5659484863281,"2,50 $ (CAD) par session","1450 Rue Saint-Urbain, Montréal, QC H2X 1Z8, Canada",45.5090838,-73.5660905,Montréal,QC
654,CEA-10337,807 | BSR | SO | 52385 du Parc Garneau,"2385 Rue du Parc Garneau, Montréal, QC",H4E 2C2,Level2,45.455853,-73.594737,"1,00 $ (CAD) de l'heure","2385 Rue du Parc Garneau, Montréal, QC H4E 2C2, Canada",45.4559799,-73.594697,Montréal,QC
656,CEA-11213,734 | BSR | CDN-NDG | 5160 Decarie,"5160 Decarie, Montréal, QC",H3X 2H9,Level2,45.483925,-73.630404,"1,00 $ (CAD) de l'heure","5160 Boulevard Décarie, Montréal, QC H3X 2H9, Canada",45.4839956,-73.6309651,Montréal,QC
657,CEA-10950,725 | BSR | CDN-NDG | 7440 Décarie,"7440 Décarie, H4P 2N1, QC",H4A 3H9,Level2,45.494349,-73.65420999999999,"1,00 $ (CAD) de l'heure","7440 Boulevard Décarie, Montréal, QC H4P 2N1, Canada",45.495273299999994,-73.655125,Montréal,QC
659,CEA-10174,626 | BSR | VM | 2027 L'Espérance,"2030 Rue L'espérance, Montréal, QC",H2K 2N9,Level2,45.537758,-73.549702,"1,00 $ (CAD) de l'heure","2030 Rue Lespérance, Montréal, QC H2K 2N9, Canada",45.537695,-73.550104,Montréal,QC
661,CEA-087,FCR - Faubourg des Prairies,"12421 Boulevard Rodolphe, Montréal, QC",H1E 4T4,Level2,45.649299,-73.57813,"1,00 $ (CAD) de l'heure","12421 Boulevard Rodolphe Forget, Montréal, QC H1E 7J8, Canada",45.6408174,-73.56985859999999,Montréal,QC
663,CEA-11129,234 | BSR | VSMPE | 6900 Parc,"6900 Av du Parc, Montréal, QC",H3N 1W9,Level2,45.529095,-73.618287,"1,00 $ (CAD) de l'heure","6900 Av du Parc, Montréal, QC H3N 1W9, Canada",45.5288325,-73.61839659999998,Montréal,QC
664,CEA-10372,501 | BSR | PMR | 4492 rue Parth,"4492 rue Parthenais, Montréal, QC",H2H 2G5,Level2,45.536337,-73.571,"1,00 $ (CAD) de l'heure","4492 Rue Parthenais, Montréal, QC H2H 2G5, Canada",45.536284,-73.57097990000001,Montréal,QC
665,CEA-11467,328 | BSR | RPP | 440 Beaubien,"440 Beaubien, Montréal, QC",H2S 2P7,Level2,45.534569,-73.60441,"1,00 $ (CAD) de l'heure","440 Rue Beaubien E, Montréal, QC H2S 1S3, Canada",45.534534,-73.604271,Montréal,QC
667,CEA-10946,314 | BSR | RPP | 3561 Masson,"3561 Rue Masson, Montréal, QC",H1X 1S1,Level2,45.553956,-73.571797,"1,00 $ (CAD) de l'heure","3561 Rue Masson, Montréal, QC H1X 1S1, Canada",45.553840799999996,-73.5718039,Montréal,QC
668,CEA-11244,828 | BSR | SO | 2190 Favard,"2190 Rue Favard, Montréal, QC",H3K 1Z8,Level2,45.475625,-73.557778,"1,00 $ (CAD) de l'heure","2190 Rue Favard, Montréal, QC H3K 1Z8, Canada",45.475855100000004,-73.5576564,Montréal,QC
669,CEA-10867,5600.com,"5656 Hochelaga, Montréal, QC",H1N 3L7,Level2,45.56898,-73.53826600000001,"1,00 $ (CAD) de l'heure","5656 Rue Hochelaga, Montréal, QC H1N 3T1, Canada",45.5698388,-73.53807940000002,Montréal,QC
671,CEA-11209,422 | BSR | MHM | 3090 Hochelaga,"3090 Rue Hochelaga, Montréal, QC",H1W 1G2,Level2,45.541194,-73.55475899999999,"1,00 $ (CAD) de l'heure","3090 Rue Hochelaga, Montréal, QC H1W 1G2, Canada",45.5412445,-73.5545291,Montréal,QC
672,CEA-159,282 | BHR | VSMPE | 9235 Papineau : Stade de Soccer de Montréal,"9235 Avenue Papineau, Montréal, QC",H2M 2G5,Level2,45.562243,-73.63818,"2,50 $ (CAD) par session","9235 Rue Papineau, Montréal, QC H2M 2G5, Canada",45.562889500000004,-73.63885450000001,Montréal,QC
673,CEA-10876,315 | BSR | RPP | 2460 Dandurand,"2460 Dandurand, Montréal, QC",H2G 2A1,Level2,45.543958,-73.581129,"1,00 $ (CAD) de l'heure","2460 Rue Dandurand, Montréal, QC H2G 2A3, Canada",45.54387020000001,-73.5809345,Montréal,QC
677,CEA-10969,780 | BHR | CDN-NDG | 400 Monkland : Centre culturel de Notre-Dame-de-Grâce,"400 Monkland Ave, Montreal, QC",H4B 1H3,Level2,45.4650448,-73.63183769999999,"2,50 $ (CAD) par session","Av de Monkland, Montréal, QC, Canada",45.469203799999995,-73.6286223,Montréal,QC
679,CEA-10366,203 | BSR | VSMPE | 7501 rue St-Denis,"7501 rue St-Denis, Montréal, QC",H2R 2E7,Level2,45.540232,-73.620191,"1,00 $ (CAD) de l'heure","7501 Rue Saint-Denis, Montréal, QC H2R 2E7, Canada",45.540237899999994,-73.6202848,Montréal,QC
680,CEA-10384,302 | BSR | RPP | 253 Mozart,"253 rue Mozart E, Montréal, QC",H2S 1B5,Level2,45.535996,-73.613517,"1,00 $ (CAD) de l'heure","253 Avenue Mozart E, Montréal, QC H2S 1B5, Canada",45.535822499999995,-73.6137959,Montréal,QC
682,CEC-00104,BRCC - 5600.com,"5656 Hochelaga, Montréal, QC",H1N 3L7,FastDC,45.56898,-73.53826600000001,"10,00 $ (CAD) de l'heure","5656 Rue Hochelaga, Montréal, QC H1N 3T1, Canada",45.5698388,-73.53807940000002,Montréal,QC
685,CEA-11208,634 | BSR | VM | 350 rue St-Hubert,"350 St-Hubert, Montréal, QC",H2L 0A4,Level2,45.512078,-73.550062,"1,00 $ (CAD) de l'heure","350 Rue St-Hubert, Montréal, QC H2Y 4B3, Canada",45.512123700000004,-73.5504839,Montréal,QC
691,CEA-10658,310 | BSR | RPP | 7085 St-Laurent,"7085A St-Laurent, Montréal, QC",H2S 3E3,Level2,45.533914,-73.616473,"1,00 $ (CAD) de l'heure","7085 Boul St-Laurent, Montréal, QC H2S 3E3, Canada",45.534040999999995,-73.6165121,Montréal,QC
692,CEA-10537,819 | BSR | SO | 4039 Notre-Dame,"4039 Rue Notre-Dame Ouest , Montréal, QC",H4C 2S1,Level2,45.477515,-73.584979,"1,00 $ (CAD) de l'heure","4039 Rue Notre-Dame Ouest, Montréal, QC H4C 1R3, Canada",45.4774804,-73.5849392,Montréal,QC
694,CEA-10521,520 | BSR | PMR | 4604 Parc,"4604A ave du Parc , Montréal, QC",H2V 4E5,Level2,45.517256,-73.591151,"1,00 $ (CAD) de l'heure","4604 Av du Parc, Montréal, QC H2V 4E5, Canada",45.5172996,-73.59136459999999,Montréal,QC
698,CEA-11018,631 | BSR | VM | 1717 René-Levesque Est,"1717 Boulevard René-Lévesque E, Montréal, QC",H2L 2R8,Level2,45.521602,-73.55053000000001,"1,00 $ (CAD) de l'heure","1717 Boulevard René-Lévesque E, Montréal, QC H2L 2R8, Canada",45.521378000000006,-73.55037779999999,Montréal,QC
699,CEA-11201,528 | BSR | PMR | 640 Prince-Arthur O,"640 Rue Prince Arthur O, Montréal, QC",H2X 1T9,Level2,45.507682,-73.57831800000001,"1,00 $ (CAD) de l'heure","640 Rue Prince Arthur O, Montréal, QC H2X 1T9, Canada",45.5078384,-73.57824649999999,Montréal,QC
701,CEA-389,Palais des Congrès de Montréal,"159 St-Antoine O, Montréal, QC",H2Z 1H2,Level2,45.505426,-73.561206,"2,50 $ (CAD) par session","159 Rue Saint-Antoine O, Montréal, QC H2Z 1H2, Canada",45.505055299999995,-73.5590771,Montréal,QC
702,CEA-10584,518 | BSR | PMR | 5185 Parc,"5185A Parc, Montréal, QC",H2V 2G3,Level2,45.52069,-73.59733100000001,"1,00 $ (CAD) de l'heure","5185 Av du Parc, Montréal, QC H2V 4G4, Canada",45.520592,-73.5972887,Montréal,QC
708,CEA-10750,102 | BSR | AC | 1100 Fleury,"1100 rue Fleury, Montréal, QC",H2C 1P9,Level2,45.558804,-73.65865500000001,"1,00 $ (CAD) de l'heure","1100 Rue Fleury E, Montréal, QC H2C 1P9, Canada",45.558618,-73.658333,Montréal,QC
711,CEB-10018,ARTM - Terminus Radisson,"7250 rue Sherbrooke Est, Montréal, QC",H1N 1E7,Level2,45.5899502624981,-73.5367756187916,"2,50 $ (CAD) par session","7250 Rue Sherbrooke E, Montréal, QC H1N 1E7, Canada",45.5896455,-73.5388848,Montréal,QC
713,CEA-243,Bentall Kennedy - Tour KPMG,"600 Boulevard de Maisonneuve Ouest, Montréal, QC",H3A 0A3,Level2,45.504524,-73.5705,"2,50 $ (CAD) par session","600 Boulevard de Maisonneuve O, Montréal, QC H3A 3J2, Canada",45.5041009,-73.5710036,Montréal,QC
716,CEA-10651,321 | BSR | RPP | 6919 19e ave,"6919 19e ave, Montréal, QC",H1X 2T5,Level2,45.562636,-73.588902,"1,00 $ (CAD) de l'heure","6919 19e Avenue, Montréal, QC H2A 2L2, Canada",45.5628143,-73.589214,Montréal,QC
718,CEA-10862,311 | BSR | RPP | 19 St-Zotique O,"19 St-Zotique O, Montréal, QC",H2S 1N9,Level2,45.531561,-73.61254,"1,00 $ (CAD) de l'heure","19 Rue Saint Zotique O, Montréal, QC H2S 1N9, Canada",45.53166829999999,-73.6127208,Montréal,QC
730,CEA-10828,809 | BSR | SO | 5505A Angers,"5505A rue Angers, Montréal, QC",H4E 1G5,Level2,45.462917,-73.584786,"1,00 $ (CAD) de l'heure","5505 Rue Angers, Montréal, QC H4E 1G5, Canada",45.463341799999995,-73.5848262,Montréal,QC
731,CEA-10594,DGI - Complexe Desjardins,"1251 rue Jeanne-Mance, Montréal, QC",H2X 3Y2,Level2,45.507924,-73.56414000000001,"1,00 $ (CAD) de l'heure","1251 Rue Jeanne-Mance, Montréal, QC H2X, Canada",45.5070394,-73.5651293,Montréal,QC
732,CEA-10749,225 | BSR | VSMPE | 7352 Drolet,"7352A Drolet, Montréal, QC",H2R 2C4,Level2,45.538645,-73.618645,"1,00 $ (CAD) de l'heure","7352 Rue Drolet, Montréal, QC H2R 2C4, Canada",45.538464000000005,-73.618425,Montréal,QC
740,CEA-10336,506 | BSR | PMR | 5004 St-Laurent : Parc Lahaie,"5004 Boul St-Laurent, Montréal, QC",H2T 1R7,Level2,45.522579,-73.591611,"1,00 $ (CAD) de l'heure","5004 Boul St-Laurent, Montréal, QC H2T 1R7, Canada",45.522451200000006,-73.59183730000001,Montréal,QC
742,CEA-11198 ,327 | BSR | RPP | 4485 D'orléans,"4485 D'orléans, Montréal, QC",H1X 2K2,Level2,45.554109,-73.559811,"1,00 $ (CAD) de l'heure","4485 Avenue d'Orléans, Montréal, QC H1X 2K1, Canada",45.554146100000004,-73.5596913,Montréal,QC
751,CEA-10328,505 | BSR | PMR | 4231 St Laurent,"4321 boul. St-Laurent, Montréal, QC",H2W 1Z4,Level2,45.518205,-73.581949,"1,00 $ (CAD) de l'heure","4321 Boul St-Laurent, Montréal, QC H2W 1Z3, Canada",45.5190351,-73.5838925,Montréal,QC
756,CEA-10856,209 | BSR | VSMPE | 8074 St-Hubert,"8074 St-Hubert, Montréal, QC",H2R 2P3,Level2,45.546225,-73.626042,"1,00 $ (CAD) de l'heure","8074 Rue St-Hubert, Montréal, QC H2R 2P3, Canada",45.546157799999996,-73.62601670000001,Montréal,QC
767,CEA-10904,323 | BSR | RPP | 1348 Jean-Talon,"1348 Jean-Talon, Montréal, QC",H2E 1S1,Level2,45.54519,-73.60918000000001,"1,00 $ (CAD) de l'heure","1348 Rue Jean-Talon Est, Montréal, QC H2E 1S1, Canada",45.545179700000006,-73.6093862,Montréal,QC
776,CEA-11194,425 | BSR | MHM | 369 Contrecoeur ,"369 Rue de Contrecoeur, Montréal, QC",H1L 3Y4,Level2,45.609253,-73.510823,"1,00 $ (CAD) de l'heure","369 Rue de Contrecoeur, Montréal, QC H1L 3Y4, Canada",45.609266600000005,-73.5108178,Montréal,QC
777,CEA-10157,613 | BSR | VM | 1409 Mackay,"1428 rue Mackay, Montréal, QC",H3G 2H9,Level2,45.495977,-73.57746999999999,"1,00 $ (CAD) de l'heure","1428 Rue Mackay, Montréal, QC H3G 2H9, Canada",45.4959179,-73.57770529999999,Montréal,QC
779,CEA-10823,819 | BSR | SO | 4039 Notre-Dame,"4039 Rue Notre-Dame Ouest , Montréal, QC",H4C 2S1,Level2,45.477515,-73.584979,"1,00 $ (CAD) de l'heure","4039 Rue Notre-Dame Ouest, Montréal, QC H4C 1R3, Canada",45.4774804,-73.5849392,Montréal,QC
789,CEA-10558,517 | BSR | PMR | 3660 Mentana,"3660 Mentana, Montréal, QC",H2L 1J1,Level2,45.521258,-73.567555,"1,00 $ (CAD) de l'heure","3660 Rue de Mentana, Montréal, QC H2L 3R1, Canada",45.5212972,-73.5677105,Montréal,QC
794,CEA-10272,304 | BSR | RPP | 2705 Masson,"2705 Rue Masson , Montréal, QC",H1Y 1W6,Level2,45.546539,-73.57616,"1,00 $ (CAD) de l'heure","2705 Rue Masson, Montréal, QC H1Y 1W6, Canada",45.546594,-73.57601509999999,Montréal,QC
797,CEA-10150,616 | BSR | VM | 250 Président-Kennedy,"330 Avenue du Président-Kennedy, Montréal, QC",H2X 4C7,Level2,45.508211,-73.568974,"1,00 $ (CAD) de l'heure","330 Avenue du Président-Kennedy, Montréal, QC H2X, Canada",45.5079813,-73.56907829999999,Montréal,QC
799,CEA-10542,519 | BSR | PMR | 5465 St-Denis,"5465 rue St-Denis, Montréal, QC",H2J 4B7,Level2,45.529242,-73.594302,"1,00 $ (CAD) de l'heure","5465 Rue Saint-Denis, Montréal, QC H2J 4B7, Canada",45.5295737,-73.59439429999999,Montréal,QC
802,CEA-11464,331 | BSR | RPP | 6679 Rue Garnier,"6679 Rue Garnier, Montréal, QC",H2G 3A2,Level2,45.5428645,-73.601371,"1,00 $ (CAD) de l'heure","6679 Rue Garnier, Montréal, QC H2G 3A2, Canada",45.542891999999995,-73.60115,Montréal,QC
804,CEA-11022,636 | BSR | VM | 2005 Ste-Catherine E,"2005 rue Ste-Catherine E, Montréal, QC",H2K 2H6,Level2,45.524189,-73.551029,"1,00 $ (CAD) de l'heure","2005 Rue Sainte-Catherine E, Montréal, QC H2K 2H6, Canada",45.5244401,-73.5510127,Montréal,QC
806,CEA-10911,715 | BSR | CND-NDG | 3285 Lacombe,"3285 Lacombe, Montréal, QC",H3T 1L8,Level2,45.498543,-73.62177199999999,"1,00 $ (CAD) de l'heure","3285 Avenue Lacombe, Montréal, QC H3T 1L6, Canada",45.4990236,-73.6215875,Montréal,QC
812,CEA-10078,605 | BSR | VM | 265 St-Antoine,"301 rue St-Antoine Ouest, Montréal, QC",H2Z 1H5,Level2,45.50378,-73.56002,"1,00 $ (CAD) de l'heure","301 Rue Saint-Antoine O, Montréal, QC H2Z 1H5, Canada",45.5036148,-73.56053840000001,Montréal,QC
813,CEA-10296,405 | BSR | MHM | 2002 Leclaire,"2002 Rue Leclaire, Montréal, QC",H1V 2Z9,Level2,45.557123,-73.537115,"1,00 $ (CAD) de l'heure","2002 Rue Leclaire, Montréal, QC H1V 2Z9, Canada",45.5570801,-73.5371415,Montréal,QC
816,CEA-10374,507 | BSR | PMR | 3528 Calixa-Lavallée : Parc Lafontaine,"3528 Avenue Calixa-Lavallée, Montréal, QC",H2L 2T6,Level2,45.524943,-73.565462,"1,00 $ (CAD) de l'heure","3528 Avenue Calixa-Lavallée, Montréal, QC H2L 2T6, Canada",45.5247991,-73.56526159999999,Montréal,QC
819,CEA-10371,701 | BSR | CND-NDG | 3405 Grand Boulevard,"3405 Grand Boulevard, Montréal, QC",H4B 2X3,Level2,45.466805,-73.623583,"1,00 $ (CAD) de l'heure","3405 Grand Boulevard, Montréal, QC H4B 2X3, Canada",45.466897100000004,-73.62359570000001,Montréal,QC
820,CEA-10812,RIO - Parc Olympique 2,"3200 Rue Viau , Montréal, QC",H1V 3J3,Level2,45.560388,-73.55135,"2,50 $ (CAD) par session","3200 Rue Viau, Montréal, QC H1V 3J3, Canada",45.55976210000001,-73.5514912,Montréal,QC
826,CEA-11361,329 | BSR | RPP | 5918 24e Avenue,"5918 24e Avenue, Montréal, QC",H1T 3M3,Level2,45.562055,-73.573238,"1,00 $ (CAD) de l'heure","5918 24e Ave, Montréal, QC H1T 3M3, Canada",45.5620561,-73.573497,Montréal,QC
828,CEA-10733,813 | BSR | SO | 355 Ash,"355 Avenue Ash, Montréal, QC",H3K 2R2,Level2,45.478472,-73.553093,"1,00 $ (CAD) de l'heure","355 Avenue Ash, Montréal, QC H3K 2R2, Canada",45.4786512,-73.553335,Montréal,QC
830,CEA-11231,228 | BSR | VSMPE | 405 Guizot,"405 Rue Guizot E, Montréal, QC",H2P 1M8,Level2,45.543788,-73.632248,"1,00 $ (CAD) de l'heure","405 Rue Guizot E, Montréal, QC H2P 1M8, Canada",45.543828999999995,-73.63228659999999,Montréal,QC
831,CEA-10280,401 | BSR | MHM | 4119 Ontario Est,"4119 Rue Ontario E, Montréal, QC",H1V 1J7,Level2,45.55096,-73.540898,"1,00 $ (CAD) de l'heure","4119 Rue Ontario E, Montréal, QC H1V 1J7, Canada",45.5508409,-73.5410833,Montréal,QC
832,CEA-10539,724 | BSR | CDN-NDG | 2940 Côte Ste-Catherine,"2940 Côte Ste-Catherine, Montréal, QC",H3S 2C2,Level2,45.504899,-73.621948,"1,00 $ (CAD) de l'heure","2940 Chemin de la Côte-Sainte-Catherine, Montréal, QC H3S 2C2, Canada",45.504887599999996,-73.6218803,Montréal,QC
834,CEA-11227,729 | BSR | CDN-NDG | 2405 Cote Ste-Catherine,"2405 Chemin de la Côte-Sainte-Catherine, Montréal, QC",H3T 1A8,Level2,45.508874,-73.61836,"1,00 $ (CAD) de l'heure","2405 Chemin de la Côte-Sainte-Catherine, Montréal, QC H3T 1A8, Canada",45.5097386,-73.619582,Montréal,QC
835,CEA-063,381 | BHR | RPP | 1401 Sherbrooke E : Jardin Botanique - Espace pour la vie,"4101 rue Sherbrooke Est, Montréal, QC",H1X 2B2,Level2,45.556685,-73.55532,"2,50 $ (CAD) par session","4101 Rue Sherbrooke E, Montréal, QC H1X 2B1, Canada",45.5598341,-73.5630652,Montréal,QC
836,CEA-10605,816 | BSR | SO | 1660 Centre,"1660A Centre, Montréal, QC",H3K 1G4,Level2,45.484356,-73.559822,"1,00 $ (CAD) de l'heure","1660 Rue Centre, Montréal, QC H3K 1H6, Canada",45.484206799999995,-73.5595833,Montréal,QC
847,CEA-10943,217 | BSR | VSMPE | 7877 Foucher,"7877 Foucher, Montréal, QC",H2R 2K8,Level2,45.544025,-73.624583,"1,00 $ (CAD) de l'heure","7877 Rue Foucher, Montréal, QC H2R 2K8, Canada",45.5441509,-73.6246306,Montréal,QC
848,CEA-217,781 | BHR | CDN-NDG | 4985 West-Hill : Parc de la Confédération,"6265 Avenue Biermans, Montréal, QC",H3X 1Z1,Level2,45.471627,-73.63802,"2,50 $ (CAD) par session","6265 Avenue Biermans, Montréal, QC H3X 1Z1, Canada",45.4717078,-73.63684549999999,Montréal,QC
854,CEA-10653,217 | BSR | VSMPE | 7877 Foucher,"7877 Foucher, Montréal, QC",H2R 2K8,Level2,45.544025,-73.624583,"1,00 $ (CAD) de l'heure","7877 Rue Foucher, Montréal, QC H2R 2K8, Canada",45.5441509,-73.6246306,Montréal,QC
856,CEA-10322,402 | BSR | MHM | 8646 Hochelaga,"8646 Rue Hochelaga, Montréal, QC",H1L 2M4,Level2,45.600718,-73.51992299999999,"1,00 $ (CAD) de l'heure","8646 Rue Hochelaga, Montréal, QC H1L 2M4, Canada",45.6007291,-73.52008909999999,Montréal,QC
861,CEA-11004,821 | BSR | SO | 6000 Laurendeau,"6000 rue Laurendeau, Montréal, QC",H4E 3X4,Level2,45.458143,-73.588273,"1,00 $ (CAD) de l'heure","6000 Rue Laurendeau, Montréal, QC H4E 3X4, Canada",45.4583407,-73.588099,Montréal,QC
866,CEA-10663,703 | BSR | CDN-NDG | 5038 rue Sherbrooke O,"5038 Sherbrooke O, Montréal, QC",H4A 1S7,Level2,45.476487,-73.606153,"1,00 $ (CAD) de l'heure","5038 Rue Sherbrooke Ouest, Montréal, QC H4A 1S7, Canada",45.4763895,-73.6059853,Montréal,QC
868,CEA-10358,308 | BSR | RPP | 3211 Rachel E,"3211 Rachel E, Montréal, QC",H1W 1A3,Level2,45.545229,-73.56114699999999,"1,00 $ (CAD) de l'heure","3211 Rue Rachel E, Montréal, QC H1W 1A3, Canada",45.5454122,-73.56090999999999,Montréal,QC
871,CEA-10333,805 | BSR | SO | 1010 rue Charlevoix,"1010 rue Charlevoix, Montréal, QC",H3K 3G8,Level2,45.477045,-73.566929,"1,00 $ (CAD) de l'heure","1010 Rue Charlevoix, Montréal, QC H3K 2Z1, Canada",45.476689,-73.56724399999999,Montréal,QC
874,CEA-10683,RIO - Parc Olympique 2,"3200 Rue Viau, Montréal, QC",H1V 3J3,Level2,45.560388,-73.55135,"2,50 $ (CAD) par session","3200 Rue Viau, Montréal, QC H1V 3J3, Canada",45.55976210000001,-73.5514912,Montréal,QC
875,CEA-10163,623 | BSR | VM | 1436 Amherst,"1411 rue Amherst, Montréal, QC",H2L 2G2,Level2,45.5176188090555,-73.55755239881141,"1,00 $ (CAD) de l'heure","1411 Rue Amherst, Montréal, QC H2L 3L2, Canada",45.517711799999994,-73.5572265,Montréal,QC
882,CEA-10935,818 | BSR | SO | 4523 St-Jacques,"4523 St-Jacques, Montréal, QC",H4C 1K3,Level2,45.475618,-73.59129200000001,"1,00 $ (CAD) de l'heure","4523 Rue Saint-Jacques, Montréal, QC H4C 1K3, Canada",45.475662299999996,-73.5913007,Montréal,QC
889,CEA-11134,230 | BSR | VSMPE | 7350 Garnier,"7350 Garnier, Montréal, QC",H2E 3A3,Level2,45.547512,-73.611812,"1,00 $ (CAD) de l'heure","7350 Rue Garnier, Montréal, QC H2E 2A3, Canada",45.547096,-73.61125799999999,Montréal,QC
896,CEA-10546,312 | BSR | RPP | 1315 Bellechasse,"1315 Bellechasse, Montréal, QC",H2G 1N8,Level2,45.538598,-73.596221,"1,00 $ (CAD) de l'heure","1315 Rue de Bellechasse, Montréal, QC H2G 1N8, Canada",45.538821999999996,-73.59637729999999,Montréal,QC
899,CEA-269,602 | BSR | VM | 1245 St-Urbain,"rue St-Urbain & René-Lévesque, Montréal, QC",H2Z 1A4,Level2,45.507908,-73.56276,"1,00 $ (CAD) de l'heure","Boulevard René-Lévesque O & Rue Saint-Urbain, Montréal, QC H2Z, Canada",45.507678399999996,-73.562505,Montréal,QC
909,CEA-10691,212 | BSR | VSMPE | 4085A Bélanger,"4085 rue Belanger, Montréal, QC",H1X 1B9,Level2,45.56475,-73.58761,"1,00 $ (CAD) de l'heure","4085 Rue Bélanger, Montréal, QC H1X 1B9, Canada",45.5648311,-73.58784859999999,Montréal,QC
915,CEA-11019,327 | BSR | RPP | 4485 D'orléans,"4485 D'orléans, Montréal, QC",H1X 2K2,Level2,45.554109,-73.559811,"1,00 $ (CAD) de l'heure","4485 Avenue d'Orléans, Montréal, QC H1X 2K1, Canada",45.554146100000004,-73.5596913,Montréal,QC
923,CEA-11304,227 | BSR | VSMPE | 7187 St-Hubert,"7187 St-Hubert, Montréal, QC",H2R 2N2,Level2,45.54103,-73.61374,"1,00 $ (CAD) de l'heure","7187 Rue St-Hubert, Montréal, QC H2R 2N2, Canada",45.541049799999996,-73.6137047,Montréal,QC
929,CEA-10852,713 | BSR | CDN-NDG | 5468 Claranald,"5468 Claranald, Montréal, QC",H3X 2S7,Level2,45.483906,-73.637557,"1,00 $ (CAD) de l'heure","5468 Avenue Clanranald, Montréal, QC H3X 2S3, Canada",45.4837375,-73.63781469999999,Montréal,QC
930,CEA-047,Société des casinos - Casino de Montréal,"1 avenue du Casino, Montréal, QC",H3C 4W7,Level2,45.5062154452052,-73.52566344411079,"2,50 $ (CAD) par session","1 Avenue du Casino, Montréal, QC H3C 4W7, Canada",45.5054701,-73.5256318,Montréal,QC
931,CEA-10135,Collège LaSalle - Complexe du Fort,"1400 Du Fort, Montréal, QC",H3H 2T1,Level2,45.4914683591903,-73.58127204166409,"1,00 $ (CAD) de l'heure","1400 Rue du Fort, Montréal, QC H3H 2T1, Canada",45.4912841,-73.5814727,Montréal,QC
934,CEA-10972,529 | BSR | PMR | 2025 Masson,"2025 Rue Masson, Montréal, QC",H2H 2P7,Level2,45.539172,-73.58224,"1,00 $ (CAD) de l'heure","2025 Rue Masson, Montréal, QC H2H 2P7, Canada",45.5393624,-73.58210240000001,Montréal,QC
938,CEA-10604,512 | BSR | PMR | 1 Mont-Royal Est,"1 Avenue du Mont-Royal E, Montréal, QC",H2T 1N4,Level2,45.520262,-73.586551,"1,00 $ (CAD) de l'heure","1 Avenue du Mont-Royal E, Montréal, QC H2T 1N4, Canada",45.520303000000006,-73.58645200000001,Montréal,QC
939,CEA-10278,703 | BSR | CDN-NDG | 5038 rue Sherbrooke O,"5038 Sherbrooke O, Montréal, QC",H4A 1S7,Level2,45.476487,-73.606153,"1,00 $ (CAD) de l'heure","5038 Rue Sherbrooke Ouest, Montréal, QC H4A 1S7, Canada",45.4763895,-73.6059853,Montréal,QC
945,CEA-10600,415 | BSR | MHM | 2251 Aird,"2251 Aird, Montréal, QC",H1V 2W4,Level2,45.556959,-73.541658,"1,00 $ (CAD) de l'heure","2251 Avenue Aird, Montréal, QC H1V 2W4, Canada",45.557233399999994,-73.5422921,Montréal,QC
946,CEA-10176,606 | BSR | VM | 369 St-Antoine,"405 rue St-Antoine Ouest, Montréal, QC",H2Z 2A3,Level2,45.502668,-73.56097,"1,00 $ (CAD) de l'heure","405 Rue Saint-Antoine O, Montréal, QC H2Z 2A3, Canada",45.5025893,-73.5611507,Montréal,QC
947,CEA-10287,804 | BSR | SO | 1105 de la Sucrerie,"1105 Rue de la Sucrerie, Montréal, QC",H3K 3E7,Level2,45.483595,-73.56020799999999,"1,00 $ (CAD) de l'heure","1105 Rue de la Sucrerie, Montréal, QC H3K 3E7, Canada",45.48353,-73.55993199999999,Montréal,QC
951,CEA-10294,307 | BSR | RPP | 1031 St-Zotique,"1031 Rue Saint-Zotique E, Montréal, QC",H2S 1N1,Level2,45.539199,-73.605241,"1,00 $ (CAD) de l'heure","1031 Rue Saint-Zotique E, Montréal, QC H2S 1N1, Canada",45.5390674,-73.60546109999999,Montréal,QC
956,CEA-11303,116 | BSR | AC | 10625 Francis,"10625 Rue Francis, Montréal, QC",H2C 3A5,Level2,45.565295,-73.660453,"1,00 $ (CAD) de l'heure","10625 Rue Francis, Montréal, QC H2C 3A5, Canada",45.5653481,-73.6603467,Montréal,QC
959,CEA-10770,218 | BSR | VSMPE | 8498 Châteaubriand,"8498 Avenue De Chateaubriand, Montréal, QC",H2P 2A3,Level2,45.547498,-73.63325,"1,00 $ (CAD) de l'heure","8498 Avenue De Chateaubriand, Montréal, QC H2P 2A3, Canada",45.547575099999996,-73.63310440000001,Montréal,QC
964,CEA-172,782 | BHR | CDN-NDG | 3220 Appleton : Parc Kent,"3220 Avenue Appleton, Montréal, QC",H3S 2T3,Level2,45.505514,-73.63166,"2,50 $ (CAD) par session","3220 Avenue Appleton, Montréal, QC H3S 2T3, Canada",45.5052784,-73.6315971,Montréal,QC
965,CEA-11453,730 | BSR | CDN-NDG | 4268 Royal,"4268 Avenue Royal, Montréal, QC",H4A 2M5,Level2,45.471682,-73.625817,"1,00 $ (CAD) de l'heure","4268 Avenue Royal, Montréal, QC H4A 2M5, Canada",45.4714686,-73.62589179999999,Montréal,QC
966,CEA-10948,314 | BSR | RPP | 3561 Masson,"3561 Rue Masson, Montréal, QC",H1X 1S1,Level2,45.553956,-73.571797,"1,00 $ (CAD) de l'heure","3561 Rue Masson, Montréal, QC H1X 1S1, Canada",45.553840799999996,-73.5718039,Montréal,QC
969,CEA-11473,328 | BSR | RPP | 440 Beaubien,"440 Beaubien, Montréal, QC",H2S 2P7,Level2,45.534569,-73.60441,"1,00 $ (CAD) de l'heure","440 Rue Beaubien E, Montréal, QC H2S 1S3, Canada",45.534534,-73.604271,Montréal,QC
971,CEA-11296,117 | BSR | AC | 1545 Henri-Bourassa,"1545 Henri Bourassa, Montréal, QC",H3M 1X7,Level2,45.538203,-73.678763,"1,00 $ (CAD) de l'heure","1545 Boul Henri-Bourassa O, Montréal, QC H3M 1X6, Canada",45.5381839,-73.6790046,Montréal,QC
977,CEA-10535,815 | BSR | SO | 2523 Grand Trunk,"2523A Grand Trunk, Montréal, QC",H3K 1M9,Level2,45.477645,-73.56752900000001,"1,00 $ (CAD) de l'heure","2523 Rue Grand Trunk, Montréal, QC H3K 1M9, Canada",45.477812,-73.56755090000001,Montréal,QC
981,CEA-10359,709 | BSR | CDN-NDG |5137 Décarie,"5137 Décarie, Montréal, QC",H3W 3C2,Level2,45.484167,-73.629705,"1,00 $ (CAD) de l'heure","5137 Boulevard Décarie, Montréal, QC H3W 3C3, Canada",45.4843052,-73.6295153,Montréal,QC
982,CEA-10155,615 | BSR | VM | 1901 City Councillor,"425 Boul. de Maisonneuve O, Montréal, QC",H3A 3K5,Level2,45.505901,-73.570678,"1,00 $ (CAD) de l'heure","425 Boulevard de Maisonneuve O, Montréal, QC H3A 3G5, Canada",45.506133500000004,-73.5704262,Montréal,QC
984,CEA-10579,518 | BSR | PMR | 5185 Parc,"5185A Parc, Montréal, QC",H2V 2G3,Level2,45.52069,-73.59733100000001,"1,00 $ (CAD) de l'heure","5185 Av du Parc, Montréal, QC H2V 4G4, Canada",45.520592,-73.5972887,Montréal,QC
989,CEA-11200,630 | BSR | VM | 1125 Ontario Est,"1125 Ontario St E, Montréal, QC",H2L 1R1,Level2,45.520402,-73.563312,"1,00 $ (CAD) de l'heure","1125 Rue Ontario E, Montréal, QC H2L 1R1, Canada",45.5206722,-73.5633898,Montréal,QC
990,CEA-10317,621 | BSR | VM | 1475 St-Hubert,"1475 St-Hubert, Montréal, QC",H2L 3Y9,Level2,45.515876,-73.55996999999999,"1,00 $ (CAD) de l'heure","1475 Rue St-Hubert, Montréal, QC H2L 3Y9, Canada",45.5159121,-73.559561,Montréal,QC
1007,CEA-10362,207 | BSR | VSMPE | 2225 Jean-Talon E,"2225 rue Jean-Talon E, Montréal, QC",H2E 1V5,Level2,45.55101,-73.604473,"1,00 $ (CAD) de l'heure","2225 Rue Jean-Talon Est, Montréal, QC H2E 1V5, Canada",45.5510441,-73.6045237,Montréal,QC
1012,CEA-10529,521 | BSR | PMR | 375 St-Viateur,"375A St-Viateur, Montréal, QC",H2V 4B5,Level2,45.521651,-73.602802,"1,00 $ (CAD) de l'heure","263 Rue Saint Viateur O, Montréal, QC H2V 1Y1, Canada",45.5226902,-73.60196440000001,Montréal,QC
1013,CEC-00101,BRCC - Marché Atwater,"138, Avenue Atwater, Montréal, QC",H4C 2H6,FastDC,45.478722,-73.57675,"10,00 $ (CAD) de l'heure","138 Avenue Atwater, Montréal, QC H4C 2H6, Canada",45.4795202,-73.5769653,Montréal,QC
1016,CEA-11297,118 | BSR | AC | 9335 St-Hubert,"9335 rue St Hubert, Montréal, QC",H2M 1Y7,Level2,45.552497,-73.646632,"1,00 $ (CAD) de l'heure","9335 Rue St-Hubert, Montréal, QC H2M 1Y7, Canada",45.5531259,-73.6463446,Montréal,QC
1021,CEA-10664,727 | BSR | CDN-NDG | 6521 Décarie,"6521 boul. Decarie, Montréal, QC",H3W 3E3,Level2,45.491264,-73.645548,"1,00 $ (CAD) de l'heure","6521 Boulevard Décarie, Montréal, QC H3W 3E3, Canada",45.4912864,-73.64545720000001,Montréal,QC
1022,CEA-10323,802 | BSR | SO | 372 Square G-E Cartier,"372 Square G-E Cartier, Montréal, QC",H4C 3A2,Level2,45.473652,-73.587634,"1,00 $ (CAD) de l'heure","372 Rue du Square Sir George Étienne Cartier, Montréal, QC H4C 3A2, Canada",45.4735377,-73.58774790000001,Montréal,QC
1028,CEA-11140,423 | BSR | MHM | 9546 Sherbrooke E,"9546 Sherbrooke E, Montréal, QC",H1L 1E8,Level2,45.611736,-73.52578199999999,"1,00 $ (CAD) de l'heure","9546 Rue Sherbrooke E, Montréal, QC H1L 1E8, Canada",45.6117321,-73.5259693,Montréal,QC
1030,CEA-356,Collège Ahuntsic,"9155 rue Saint-Hubert, Montréal, QC",H2M 1Y8,Level2,45.551445,-73.64164,"1,00 $ (CAD) de l'heure","9155 Rue St-Hubert, Montréal, QC H2M 1Y9, Canada",45.552283200000005,-73.6421462,Montréal,QC
1034,CEA-10218,606 | BSR | VM | 369 St-Antoine,"405 rue St-Antoine Ouest, Montréal, QC",H2Z 2A3,Level2,45.502797,-73.56085,"1,00 $ (CAD) de l'heure","405 Rue Saint-Antoine O, Montréal, QC H2Z 2A3, Canada",45.5025893,-73.5611507,Montréal,QC
1036,CEA-10726,205 | BSR | VSMPE | 7145 rue St-Denis,"7145 rue St-Denis, Montréal, QC",H2R 2E3,Level2,45.538487,-73.614693,"1,00 $ (CAD) de l'heure","7145 Rue Saint-Denis, Montréal, QC H2R 2E3, Canada",45.5385152,-73.6145051,Montréal,QC
1037,CEA-10878,627 | BSR | VM | 1475 Alexandre DeSève,"1475 Rue Alexandre-DeSève, Montréal, QC",H2L 4P2,Level2,45.521667,-73.554563,"1,00 $ (CAD) de l'heure","1475 Rue Alexandre-DeSève, Montréal, QC H2L 4P2, Canada",45.5218232,-73.554902,Montréal,QC
1041,CEA-11026,631 | BSR | VM | 1717 René-Levesque Est,"1717 Boulevard René-Lévesque E, Montréal, QC",H2L 2R8,Level2,45.521602,-73.55053000000001,"1,00 $ (CAD) de l'heure","1717 Boulevard René-Lévesque E, Montréal, QC H2L 2R8, Canada",45.521378000000006,-73.55037779999999,Montréal,QC
1043,CEA-10655,517 | BSR | PMR | 3660 Mentana,"3660 Mentana, Montréal, QC",H2L 1J1,Level2,45.521258,-73.567555,"1,00 $ (CAD) de l'heure","3660 Rue de Mentana, Montréal, QC H2L 3R1, Canada",45.5212972,-73.5677105,Montréal,QC
1044,CEA-11340,233 | BSR | VSMPE | 7707 Shelley,"7707 Shelley, Montréal, QC",H2A 1H6,Level2,45.562171,-73.604732,"1,00 $ (CAD) de l'heure","7707 Avenue Shelley, Montréal, QC H2A 1H6, Canada",45.562410899999996,-73.6048151,Montréal,QC
1045,CEA-10606,718 | BSR | CDN-NDG | 3555 Queen Mary,"3355 Chemin Queen Mary, Montréal, QC",H3V 1H9,Level2,45.49571,-73.618201,"1,00 $ (CAD) de l'heure","3355 Chemin Queen Mary, Montréal, QC H3V 1A5, Canada",45.4961536,-73.6188136,Montréal,QC
1050,CEA-11290,227 | BSR | VSMPE | 7187 St-Hubert,"7187 St-Hubert, Montréal, QC",H2R 2N2,Level2,45.54103,-73.61374,"1,00 $ (CAD) de l'heure","7187 Rue St-Hubert, Montréal, QC H2R 2N2, Canada",45.541049799999996,-73.6137047,Montréal,QC
1055,CEA-10260,802 | BSR | SO | 372 Square G-E Cartier,"372 Square G-E Cartier, Montréal, QC",H4C 3A2,Level2,45.473652,-73.587634,"1,00 $ (CAD) de l'heure","372 Rue du Square Sir George Étienne Cartier, Montréal, QC H4C 3A2, Canada",45.4735377,-73.58774790000001,Montréal,QC
1059,CEA-10164,616 | BSR | VM | 250 Président-Kennedy,"Avenue du Président-Kennedy, Montréal, QC",H2X 4C7,Level2,45.508211,-73.568974,"1,00 $ (CAD) de l'heure","Avenue du Président-Kennedy, Montréal, QC, Canada",45.506439,-73.5705712,Montréal,QC
1062,CEA-10609,313 | BSR | RPP | 6036 St-Hubert,"6036 St-Hubert, Montréal, QC",H2S 2L7,Level2,45.534474,-73.59958,"1,00 $ (CAD) de l'heure","6036 Rue St-Hubert, Montréal, QC H2S 2L7, Canada",45.534389000000004,-73.59970799999999,Montréal,QC
1065,CEA-10783,181 | BHR | AC | 11301 de l'Acadie : Aréna Marcelin-Wilson,"11301 Boulevard de l'Acadie, Montréal, QC",H3M 2T1,Level2,45.537078,-73.684914,"1,00 $ (CAD) de l'heure","11301 Boulevard de l'Acadie, Montréal, QC H3M 2T1, Canada",45.5365968,-73.68487950000001,Montréal,QC
1067,CEA-10824,323 | BSR | RPP | 1348 Jean-Talon,"1348 Jean-Talon, Montréal, QC",H2E 1S1,Level2,45.54519,-73.60918000000001,"1,00 $ (CAD) de l'heure","1348 Rue Jean-Talon Est, Montréal, QC H2E 1S1, Canada",45.545179700000006,-73.6093862,Montréal,QC
1069,CEA-10554,Monit Investments,"1000 Sherbrooke Ouest, Montréal, QC",H3A 3G4,Level2,45.502062,-73.57476,"1,00 $ (CAD) de l'heure","1000 Sherbrooke, Montréal, QC H3A, Canada",45.5027183,-73.57511579999999,Montréal,QC
1070,CEA-10190,604 | BSR | VM | 163 St-Antoine,"115 rue St-Antoine Ouest, Montréal, QC",H2Z 1X8,Level2,45.505539,-73.55852,"1,00 $ (CAD) de l'heure","115 Rue Saint-Antoine O, Montréal, QC H2Z 1X8, Canada",45.5054528,-73.55869090000002,Montréal,QC
1077,CEA-10525,311 | BSR | RPP | 19 St-Zotique O,"19 St-Zotique O, Montréal, QC",H2S 1N9,Level2,45.531561,-73.61254,"1,00 $ (CAD) de l'heure","19 Rue Saint Zotique O, Montréal, QC H2S 1N9, Canada",45.53166829999999,-73.6127208,Montréal,QC
1078,CEA-10700,214 | BSR | VSMPE | 6961 des Écores,"6961 Des Écores, Montréal, QC",H2E 2V7,Level2,45.551028,-73.59976999999999,"1,00 $ (CAD) de l'heure","6961 Rue des Écores, Montréal, QC H2E 2V7, Canada",45.551163200000005,-73.5999005,Montréal,QC
1081,CEA-10274,801 | BSR | SO | 3451 St-Jacques,"3451 Saint-Jacques, Montréal, QC",H4C 1H2,Level2,45.481909,-73.582365,"1,00 $ (CAD) de l'heure","3451 Rue Saint-Jacques, Montréal, QC H4C 1H2, Canada",45.4822301,-73.58218719999999,Montréal,QC
1092,CEA-154,380 | BHR | RPP | 4581 Sherbrooke E : Insectarium - Espace pour la vie,"4581 Rue Sherbrooke E, Montréal, QC",H1X 2B2,Level2,45.561546,-73.55825,"2,50 $ (CAD) par session","4581 Rue Sherbrooke E, Montréal, QC H1X 2B1, Canada",45.560949,-73.55796690000001,Montréal,QC
1094,CEA-10602,815 | BSR | SO | 2523 Grand Trunk,"2523A Grand Trunk, Montréal, QC",H3K 1M9,Level2,45.477645,-73.56752900000001,"1,00 $ (CAD) de l'heure","2523 Rue Grand Trunk, Montréal, QC H3K 1M9, Canada",45.477812,-73.56755090000001,Montréal,QC
1097,CEA-10577,109 | BSR | AC | 205 Chabanel,"205 Rue Chabanel O, Montréal, QC",H2N 1G3,Level2,45.540928,-73.653312,"1,00 $ (CAD) de l'heure","205 Rue Chabanel O, Montréal, QC H2N 1G3, Canada",45.540977000000005,-73.6536969,Montréal,QC
1099,CEA-11205,421 | BSR | MHM | 1401 De la Salle,"1401 Avenue de la Salle, Montréal, QC",H1V 2J4,Level2,45.550076,-73.534962,"1,00 $ (CAD) de l'heure","1401 Avenue de la Salle, Montréal, QC H1V 2J4, Canada",45.550181099999996,-73.53481009999999,Montréal,QC
1101,CEA-261,Palais des Congrès de Montréal,"159 St-Antoine O, Montréal, QC",H2Z 1H2,Level2,45.505426,-73.561206,"2,50 $ (CAD) par session","159 Rue Saint-Antoine O, Montréal, QC H2Z 1H2, Canada",45.505055299999995,-73.5590771,Montréal,QC
1107,CEA-10526,511 | BSR | PMR | 2755 Hogan,"2755 Rue Hogan, Montréal, QC",H2K 2T5,Level2,45.53871,-73.560538,"1,00 $ (CAD) de l'heure","2755 Rue Hogan, Montréal, QC H2K 2T5, Canada",45.5384011,-73.5593526,Montréal,QC
1111,CEA-11347,329 | BSR | RPP | 5918 24e Avenue,"5918 24e Avenue, Montréal, QC",H1T 3M3,Level2,45.562055,-73.573238,"1,00 $ (CAD) de l'heure","5918 24e Ave, Montréal, QC H1T 3M3, Canada",45.5620561,-73.573497,Montréal,QC
1112,CEA-11016,525 | BSR | PMR | 4169 St-Hubert,"4169 Rue St-Hubert, Montréal, QC",H2L 4A7,Level2,45.523482,-73.576275,"1,00 $ (CAD) de l'heure","4169 Rue St-Hubert, Montréal, QC H2L 4A7, Canada",45.5234909,-73.5761893,Montréal,QC
1113,CEA-10757,811 | BSR | SO | 123 Courcelle,"123 Courcelle, Montréal, QC",H4C 3B4,Level2,45.471563,-73.586178,"1,00 $ (CAD) de l'heure","123 Rue de Courcelle, Montréal, QC H4C 3B4, Canada",45.471630700000006,-73.5861051,Montréal,QC
1114,CEA-10387,205 | BSR | VSMPE | 7145 rue St-Denis,"7145 rue St-Denis, Montréal, QC",H2R 2E3,Level2,45.538487,-73.614693,"1,00 $ (CAD) de l'heure","7145 Rue Saint-Denis, Montréal, QC H2R 2E3, Canada",45.5385152,-73.6145051,Montréal,QC
1116,CEA-10781,181 | BHR | AC | 11301 de l'Acadie : Aréna Marcelin-Wilson,"11301 Boulevard de l'Acadie, Montréal, QC",H3M 2T1,Level2,45.537078,-73.684914,"1,00 $ (CAD) de l'heure","11301 Boulevard de l'Acadie, Montréal, QC H3M 2T1, Canada",45.5365968,-73.68487950000001,Montréal,QC
1118,CEA-11003,425 | BSR | MHM | 369 Contrecoeur ,"369 Rue de Contrecoeur, Montréal, QC",H1L 3Y4,Level2,45.609253,-73.510823,"1,00 $ (CAD) de l'heure","369 Rue de Contrecoeur, Montréal, QC H1L 3Y4, Canada",45.609266600000005,-73.5108178,Montréal,QC
1120,CEA-11020,332 | BSR | RPP | 1201 Bélanger,"1201 Rue Bélanger, Montréal, QC",H2S 1H7,Level2,45.541863,-73.60772800000001,"1,00 $ (CAD) de l'heure","1201 Rue Bélanger, Montréal, QC H2S 1H7, Canada",45.5418565,-73.6077662,Montréal,QC
1122,CEA-11450,424 | BSR | MHM | 6040 La Fontaine,"6040 La Fontaine, Montréal, QC",H1N 2B6,Level2,45.570197,-73.525253,"1,00 $ (CAD) de l'heure","6040 Rue la Fontaine, Montréal, QC H1N 2B7, Canada",45.5701935,-73.5251676,Montréal,QC
1130,CEA-10583,110 | BSR | AC | 9815 Lajeunesse,"9815 Lajeunesse, Montréal, QC",H3L 2E1,Level2,45.551598,-73.655922,"1,00 $ (CAD) de l'heure","9815 Rue Lajeunesse, Montréal, QC H3L 2C9, Canada",45.5520054,-73.655971,Montréal,QC
1131,CEA-10837,710 | BSR | CDN-NDG | 6205 Sherbrooke Ouest,"6205 Sherbrooke O, Montréal, QC",H4B 2X3,Level2,45.466759,-73.62378100000001,"1,00 $ (CAD) de l'heure","6205 Rue Sherbrooke Ouest, Montréal, QC H4B 1M4, Canada",45.46666,-73.62391600000001,Montréal,QC
1133,CEA-114,Société des casinos - Casino de Montréal,"1 avenue du Casino, Montréal, QC",H3C 4W7,Level2,45.5062154452052,-73.52566344411079,"2,50 $ (CAD) par session","1 Avenue du Casino, Montréal, QC H3C 4W7, Canada",45.5054701,-73.5256318,Montréal,QC
1134,CEA-11269,232 | BSR | VSMPE | 9309 De Lille,"9039 Rue de Lille, Montréal, QC",H1Z 2P4,Level2,45.569295,-73.636234,"1,00 $ (CAD) de l'heure","9039 Rue de Lille, Montréal, QC H1Z 2P4, Canada",45.5692345,-73.63656,Montréal,QC
1135,CEA-10587,DGI - Complexe Desjardins,"1251 rue Jeanne-Mance, Montréal, QC",H2X 3Y2,Level2,45.507924,-73.56414000000001,"1,00 $ (CAD) de l'heure","1251 Rue Jeanne-Mance, Montréal, QC H2X, Canada",45.5070394,-73.5651293,Montréal,QC
1138,CEA-10382,705 | BSR | CDN-NDG | 3333 Côte Ste-Catherin,"3333 Côte Ste-Catherine, Montréal, QC",H1W 2C7,Level2,45.500176,-73.62619699999999,"1,00 $ (CAD) de l'heure","3333 Chemin de la Côte-Sainte-Catherine, Montréal, QC H3S 2C5, Canada",45.500605799999995,-73.62621709999999,Montréal,QC
1139,CEA-10937,324 | BSR | RPP | 5808 St-Hubert,"5808 St-Hubert, Montréal, QC",H2S 2L7,Level2,45.533244,-73.596864,"1,00 $ (CAD) de l'heure","5808 Rue St-Hubert, Montréal, QC H2S 2L7, Canada",45.53308,-73.596824,Montréal,QC
1140,CEA-10311,621 | BSR | VM | 1475 St-Hubert,"1475 St-Hubert, Montréal, QC",H2L 3Y9,Level2,45.515876,-73.55996999999999,"1,00 $ (CAD) de l'heure","1475 Rue St-Hubert, Montréal, QC H2L 3Y9, Canada",45.5159121,-73.559561,Montréal,QC
1144,CEB-10242,Altitude Montréal,"1225 Robert-Bourassa, Montréal, QC",H3B 9A9,Level2,45.502713,-73.56853199999999,"2,50 $ (CAD) par session","1225 Boulevard Robert-Bourassa, Montréal, QC H3B 3A7, Canada",45.5027219,-73.5685777,Montréal,QC
1146,CEB-10181,Centre Bell,"1275 rue Saint-Antoine Ouest, Montréal, QC",H3C 5L2,Level2,45.4956512451172,-73.5681915283203,"2,50 $ (CAD) par session","1275 Rue Saint-Antoine O, Montréal, QC H3C 5L2, Canada",45.4952593,-73.5691542,Montréal,QC
1151,CEA-10094,DGI - Complexe Desjardins,"1251 rue Jeanne-Mance, Montréal, QC",H2X 3Y2,Level2,45.507924,-73.56414000000001,"1,00 $ (CAD) de l'heure","1251 Rue Jeanne-Mance, Montréal, QC H2X, Canada",45.5070394,-73.5651293,Montréal,QC
1157,CEA-10871,315 | BSR | RPP | 2460 Dandurand,"2460 Dandurand, Montréal, QC",H2G 2A1,Level2,45.543958,-73.581129,"1,00 $ (CAD) de l'heure","2460 Rue Dandurand, Montréal, QC H2G 2A3, Canada",45.54387020000001,-73.5809345,Montréal,QC
1160,CEA-10744,405 | BSR | MHM | 2002 Leclaire,"2002 Rue Leclaire, Montréal, QC",H1V 2Z9,Level2,45.557123,-73.537115,"1,00 $ (CAD) de l'heure","2002 Rue Leclaire, Montréal, QC H1V 2Z9, Canada",45.5570801,-73.5371415,Montréal,QC
1165,CEA-10903,RIO - Parc Olympique 2,"3200 Rue Viau, Montréal, QC",H1V 3J3,Level2,45.560388,-73.55135,"2,50 $ (CAD) par session","3200 Rue Viau, Montréal, QC H1V 3J3, Canada",45.55976210000001,-73.5514912,Montréal,QC
1175,CEA-10281,407 | BSR | MHM | 1407 William David,"1407 Avenue William-David, Montréal, QC",H1V 2R5,Level2,45.552578,-73.53335,"1,00 $ (CAD) de l'heure","1407 Avenue William-David, Montréal, QC H1V 2R5, Canada",45.5526909,-73.5334142,Montréal,QC
1177,CEA-11190,830 | BSR | SO | 256 Charlevoix,"256 Charlevoix, Montréal, QC",H3J 1N7,Level2,45.482396,-73.57547199999999,"1,00 $ (CAD) de l'heure","256 Rue Charlevoix, Montréal, QC H3J 1N7, Canada",45.4820981,-73.57517840000001,Montréal,QC
1181,CEA-11320,526 | BSR | PMR | 5561 St-Dominique,"5561 rue Saint-Dominique, Montréal, QC",H2T 1A5,Level2,45.526635,-73.598664,"1,00 $ (CAD) de l'heure","5561 Rue Saint-Dominique, Montréal, QC H2T 1A5, Canada",45.526773600000006,-73.598535,Montréal,QC
1182,CEA-10221,603 | BSR | VM | 115 St-Antoine,"155 rue St-Antoine Ouest, Montréal, QC",H2Z 2A7,Level2,45.504965,-73.559,"1,00 $ (CAD) de l'heure","155 Rue Saint-Antoine O, Montréal, QC H2Z 1H2, Canada",45.505202000000004,-73.5589031,Montréal,QC
1183,CEB-10024,ARTM - Terminus Radisson,"7250 rue Sherbrooke Est, Montréal, QC",H1N 1E7,Level2,45.5899502624981,-73.5367756187916,"2,50 $ (CAD) par session","7250 Rue Sherbrooke E, Montréal, QC H1N 1E7, Canada",45.5896455,-73.5388848,Montréal,QC
1184,CEA-10147,324 | BSR | RPP | 5808 St-Hubert,"5808 St-Hubert , Montréal, QC",H2S 2L7,Level2,45.53324,-73.596864,"1,00 $ (CAD) de l'heure","5808 Rue St-Hubert, Montréal, QC H2S 2L7, Canada",45.53308,-73.596824,Montréal,QC
1186,CEA-230,Allied - 75 Queen,"75 Queen, Montreal, QC",H3C 2N5,Level2,45.4975137141037,-73.55427392108541,"2,50 $ (CAD) par session","75 Rue Queen, Montréal, QC H3C 2N6, Canada",45.497498900000004,-73.5540847,Montréal,QC
1189,CEA-10130,603 | BSR | VM | 115 St-Antoine,"115 rue St-Antoine Ouest, Montréal, QC",H2Z 1X8,Level2,45.505622,-73.55845,"1,00 $ (CAD) de l'heure","115 Rue Saint-Antoine O, Montréal, QC H2Z 1X8, Canada",45.5054528,-73.55869090000002,Montréal,QC
1191,CEA-10377,302 | BSR | RPP | 253 Mozart,"253 rue Mozart E, Montréal, QC",H2S 1B5,Level2,45.535996,-73.613517,"1,00 $ (CAD) de l'heure","253 Avenue Mozart E, Montréal, QC H2S 1B5, Canada",45.535822499999995,-73.6137959,Montréal,QC
1192,CEA-10613,215 | BSR | VSMPE | 7140 Bordeaux,"7140 Rue de Bordeaux, Montréal, QC",H2E 2M3,Level2,45.549552,-73.60523,"1,00 $ (CAD) de l'heure","7140 Rue de Bordeaux, Montréal, QC H2E 2M3, Canada",45.5494502,-73.6052291,Montréal,QC
1201,CEB-10015,Place des Arts,"1450 rue St-Urbain, Montréal, QC",H5B 1E4,Level2,45.5091667175293,-73.5659484863281,"2,50 $ (CAD) par session","1450 Rue Saint-Urbain, Montréal, QC H2X 1Z8, Canada",45.5090838,-73.5660905,Montréal,QC
1203,CEA-144,282 | BHR | VSMPE | 9235 Papineau : Stade de Soccer de Montréal,"9235 Avenue Papineau, Montréal, QC",H2M 2G5,Level2,45.562243,-73.63818,"2,50 $ (CAD) par session","9235 Rue Papineau, Montréal, QC H2M 2G5, Canada",45.562889500000004,-73.63885450000001,Montréal,QC
1204,CEA-10364,207 | BSR | VSMPE | 2225 Jean-Talon E,"2225 rue Jean-Talon E, Montréal, QC",H2E 1V5,Level2,45.55101,-73.604473,"1,00 $ (CAD) de l'heure","2225 Rue Jean-Talon Est, Montréal, QC H2E 1V5, Canada",45.5510441,-73.6045237,Montréal,QC
1206,CEA-10142,Collège de Rosemont,"6400 16e avenue, Montréal, QC",H1X 2S9,Level2,45.5571391156207,-73.5811485717582,"1,00 $ (CAD) de l'heure","6400 16e Avenue, Montréal, QC H1X 1H2, Canada",45.557444,-73.582376,Montréal,QC
1211,CEA-10299,418 | BSR | MHM | 8355 Notre-Dame,"8355 Notre-Dame, Montréal, QC",H1L 3L2,Level2,45.594272,-73.51131600000001,"1,00 $ (CAD) de l'heure","8355 Rue Notre-Dame Est, Montréal, QC H1L 3L2, Canada",45.5944597,-73.51147440000001,Montréal,QC
1212,CEA-10811,716 | BSR | CDN-NDG | 6045 Upper Lachine,"6045A Upper Lachine, Montréal, QC",H4A 2C3,Level2,45.465749,-73.614126,"1,00 $ (CAD) de l'heure","6045 Chemin Upper Lachine, Montréal, QC H4A 2C3, Canada",45.4656265,-73.6143908,Montréal,QC
1213,CEA-11238,824 | BSR | SO | 1306 Olier,"1306 Rue Olier, Montréal, QC",H3C 1W4,Level2,45.490105,-73.55968,"1,00 $ (CAD) de l'heure","1306 Rue Olier, Montréal, QC H3C 1W4, Canada",45.4912749,-73.5582632,Montréal,QC
1217,CEA-057,282 | BHR | VSMPE | 9235 Papineau : Stade de Soccer de Montréal,"9235 Avenue Papineau, Montréal, QC",H2M 2G5,Level2,45.562243,-73.63818,"2,50 $ (CAD) par session","9235 Rue Papineau, Montréal, QC H2M 2G5, Canada",45.562889500000004,-73.63885450000001,Montréal,QC
1220,CEA-10875,325 | BSR | RPP | 5841 des Écores,"5841 Rue des Écores , Montréal, QC",H2G 1X6,Level2,45.544691,-73.58632,"1,00 $ (CAD) de l'heure","5841 Rue des Écores, Montréal, QC H2G 2J2, Canada",45.5447644,-73.5863595,Montréal,QC
1221,CEA-10335,304 | BSR | RPP | 2705 Masson,"2705 Rue Masson , Montréal, QC",H1Y 1W6,Level2,45.546539,-73.57616,"1,00 $ (CAD) de l'heure","2705 Rue Masson, Montréal, QC H1Y 1W6, Canada",45.546594,-73.57601509999999,Montréal,QC
1222,CEB-10194,ITHQ,"3535 rue St-Denis, Montréal, QC",H2X 3P1,Level2,45.518076,-73.56879,"1,00 $ (CAD) de l'heure","3535 Rue Saint-Denis, Montréal, QC H2X 3P1, Canada",45.5177092,-73.5687593,Montréal,QC
1224,CEA-10038,613 | BSR | VM | 1409 Mackay,"1428 rue Mackay, Montréal, QC",H3G 2H9,Level2,45.495977,-73.57746999999999,"1,00 $ (CAD) de l'heure","1428 Rue Mackay, Montréal, QC H3G 2H9, Canada",45.4959179,-73.57770529999999,Montréal,QC
1232,CEA-11197,234 | BSR | VSMPE | 6900 Parc,"6900 Av du Parc, Montréal, QC",H3N 1W9,Level2,45.529095,-73.618287,"1,00 $ (CAD) de l'heure","6900 Av du Parc, Montréal, QC H3N 1W9, Canada",45.5288325,-73.61839659999998,Montréal,QC
1235,CEA-10739,317 | BSR | RPP | 2923 St-Zotique,"2923A St-Zotique, Montréal, QC",H1Y 1E4,Level2,45.553515,-73.592311,"1,00 $ (CAD) de l'heure","2923 Rue Saint-Zotique E, Montréal, QC H1Y 1E4, Canada",45.553624,-73.592665,Montréal,QC
1238,CEA-098,481 | BHR | MHM | 8780 Dubuisson : Aréna Clément-Jetté,"8780 avenue Dubuisson, Montréal, QC",H1L 2W6,Level2,45.601836,-73.516419,"2,50 $ (CAD) par session","8780 Avenue Dubuisson, Montréal, QC H1L 2W6, Canada",45.6016974,-73.5164237,Montréal,QC
1242,CEA-10191,604 | BSR | VM | 163 St-Antoine,"155 rue St-Antoine Ouest, Montréal, QC",H2Z 2A7,Level2,45.505046,-73.55894,"1,00 $ (CAD) de l'heure","155 Rue Saint-Antoine O, Montréal, QC H2Z 1H2, Canada",45.505202000000004,-73.5589031,Montréal,QC
1244,CEA-10645,413 | BSR | MHM | 2696 D'Orleans,"2696 D'orléans, Montréal, QC",H1W 3S5,Level2,45.551603,-73.552353,"1,00 $ (CAD) de l'heure","2696 Avenue d'Orléans, Montréal, QC H1W 3S5, Canada",45.551559499999996,-73.55263149999999,Montréal,QC
1249,CEA-10291,119 | BSR | AC |  10905 rue Basile Routhier : Parc Basile Routhier,"10905A rue Basile Routhier, Montréal, QC",H2C 3H5,Level2,45.557084,-73.671649,"1,00 $ (CAD) de l'heure","10905 Rue Basile Routhier, Montréal, QC H2C 1N7, Canada",45.557458600000004,-73.6725483,Montréal,QC
1250,CEA-10758,226 | BSR | VSMPE | 151 Castelnau,"151 Castelnau, Montréal, QC",H2R 1P3,Level2,45.536733,-73.61896,"1,00 $ (CAD) de l'heure","151 Rue de Castelnau O, Montréal, QC H2R 2Y6, Canada",45.5339635,-73.62186,Montréal,QC
1253,CEA-10300,503 | BSR | PMR | 3760 St-Hubert,"3760 rue St-Hubert, Montréal, QC",H2L 4A3,Level2,45.520781,-73.570745,"1,00 $ (CAD) de l'heure","3760 Rue St-Hubert, Montréal, QC H2L 4A3, Canada",45.5205726,-73.5708147,Montréal,QC
1254,CEA-051,381 | BHR | RPP | 1401 Sherbrooke E : Jardin Botanique - Espace pour la vie,"4101 rue Sherbrooke Est, Montréal, QC",H1X 2B2,Level2,45.556685,-73.55532,"2,50 $ (CAD) par session","4101 Rue Sherbrooke E, Montréal, QC H1X 2B1, Canada",45.5598341,-73.5630652,Montréal,QC
1255,CEA-10857,209 | BSR | VSMPE | 8074 St-Hubert,"8074 St-Hubert, Montréal, QC",H2R 2P3,Level2,45.546225,-73.626042,"1,00 $ (CAD) de l'heure","8074 Rue St-Hubert, Montréal, QC H2R 2P3, Canada",45.546157799999996,-73.62601670000001,Montréal,QC
1256,CEA-10912,516 | BSR | PMR | 3620 St-Denis,"3620 St-Denis, Montréal, QC",H2X 3L6,Level2,45.517751,-73.569529,"1,00 $ (CAD) de l'heure","3620 Rue Saint-Denis, Montréal, QC H2X 3L7, Canada",45.517817,-73.56995490000001,Montréal,QC
1260,CEA-11142,423 | BSR | MHM | 9546 Sherbrooke E,"9546 Sherbrooke E, Montréal, QC",H1L 1E8,Level2,45.611736,-73.52578199999999,"1,00 $ (CAD) de l'heure","9546 Rue Sherbrooke E, Montréal, QC H1L 1E8, Canada",45.6117321,-73.5259693,Montréal,QC
1264,CEA-10825,309 | BSR | RPP | 7145 Alexandra,"7145 Alexandra, Montréal, QC",H2S 3J6,Level2,45.532232,-73.619845,"1,00 $ (CAD) de l'heure","7145 Rue Alexandra, Montréal, QC H2S 3J6, Canada",45.532303000000006,-73.61973,Montréal,QC
1273,CEA-10702,210 | BSR | VSMPE | 15 Liège E,"15A Liege E, Montréal, QC",H2P 1H8,Level2,45.541019,-73.63746,"1,00 $ (CAD) de l'heure","15 Rue de Liège E, Montréal, QC H2P 1H8, Canada",45.5410242,-73.6375275,Montréal,QC
1278,CEA-11031,525 | BSR | PMR | 4169 St-Hubert,"4169 Rue St-Hubert, Montréal, QC",H2L 4A7,Level2,45.523482,-73.576275,"1,00 $ (CAD) de l'heure","4169 Rue St-Hubert, Montréal, QC H2L 4A7, Canada",45.5234909,-73.5761893,Montréal,QC
1282,CEA-10940,712 | BSR | CDN-NDG |1070 Decarie,"1070 Decarie, Montréal, QC",H4A 3H9,Level2,45.472083,-73.60405300000001,"1,00 $ (CAD) de l'heure","1070 Boulevard Décarie, Montréal, QC H4A 3H9, Canada",45.4720575,-73.6040663,Montréal,QC
1287,CEA-11189,422 | BSR | MHM | 3090 Hochelaga,"3090 Rue Hochelaga, Montréal, QC",H1W 1G2,Level2,45.541194,-73.55475899999999,"1,00 $ (CAD) de l'heure","3090 Rue Hochelaga, Montréal, QC H1W 1G2, Canada",45.5412445,-73.5545291,Montréal,QC
1288,CEA-10519,510 | BSR | PMR | 3440 St-Laurent,"3440 Boul St-Laurent, H2X 2T9, Montréal, QC",H2H 1W1,Level2,45.512799,-73.570279,"1,00 $ (CAD) de l'heure","3440 Boul St-Laurent, Montréal, QC H2X 2T9, Canada",45.512429,-73.5699604,Montréal,QC
1293,CEA-10571,221 | BSR | VSMPE | 2200 Jean-Talon E,"2200 Jean-Talon E, Montréal, QC",H2E 2R1,Level2,45.551248,-73.60377199999999,"1,00 $ (CAD) de l'heure","2200 Rue Jean-Talon Est, Montréal, QC H2E 2R1, Canada",45.550911,-73.6038593,Montréal,QC
1296,CEA-10453,208 | BSR | VSMPE | 10 Villeray,"10 Rue Villeray, Montréal, QC",H2R 1E8,Level2,45.537317,-73.624953,"1,00 $ (CAD) de l'heure","10 Rue Villeray, Montréal, QC H2R 1E8, Canada",45.537246,-73.624707,Montréal,QC
1300,CEA-10334,301 | BSR | RPP | 6511 St-André,"6511 Rue Saint-André, Montréal, QC",H2S 2K7,Level2,45.536686,-73.60300500000001,"1,00 $ (CAD) de l'heure","6511 Rue Saint-André, Montréal, QC H2S 2K7, Canada",45.536734,-73.6030444,Montréal,QC
1305,CEA-10564,813 | BSR | SO | 355 Ash,"355 Avenue Ash, Montréal, QC",H3K 2R2,Level2,45.478472,-73.553093,"1,00 $ (CAD) de l'heure","355 Avenue Ash, Montréal, QC H3K 2R2, Canada",45.4786512,-73.553335,Montréal,QC
1307,CEA-10087,Collège LaSalle - Complexe du Fort,"1400 Du Fort, Montréal, QC",H3H 2T1,Level2,45.4914683591903,-73.58127204166409,"1,00 $ (CAD) de l'heure","1400 Rue du Fort, Montréal, QC H3H 2T1, Canada",45.4912841,-73.5814727,Montréal,QC
1310,CEA-10354,201 | BSR | VSMPE | 622 Jarry O,"622 rue Jarry O, Montréal, QC",H3N 1G2,Level2,45.531226,-73.635681,"1,00 $ (CAD) de l'heure","622 Rue Jarry O, Montréal, QC H3N 1G2, Canada",45.531056899999996,-73.63560799999999,Montréal,QC
1312,CEA-10849,1411 | BSR | SLA | 360A Meloche,"360 Meloche, Montréal, QC",H4N 1A6,Level2,45.528437,-73.67577800000001,"1,00 $ (CAD) de l'heure","Rue Meloche, Montréal, QC, Canada",45.457854,-73.8859361,Montréal,QC
1313,CEA-10196,606 | BSR | VM | 369 St-Antoine,"405 rue St-Antoine Ouest, Montréal, QC",H2Z 2A3,Level2,45.502797,-73.56085,"1,00 $ (CAD) de l'heure","405 Rue Saint-Antoine O, Montréal, QC H2Z 2A3, Canada",45.5025893,-73.5611507,Montréal,QC
1316,CEA-10704,411 | BSR | MHM | 3450 Ste-Catherine,"3450 Ste-Catherine, Montréal, QC",H1W 2E2,Level2,45.541957,-73.539358,"1,00 $ (CAD) de l'heure","3450 Rue Sainte-Catherine E, Montréal, QC H1W 2E2, Canada",45.5418559,-73.5393527,Montréal,QC
1319,CEA-10874,322 | BSR | RPP | 2900 Masson,"2900 Masson, Montréal, QC",H1Y 1X3,Level2,45.548219,-73.57472299999999,"1,00 $ (CAD) de l'heure","2900 Rue Masson, Montréal, QC H1Y, Canada",45.5483017,-73.5744184,Montréal,QC
1326,CEA-10707,410 | BSR | MHM | 3150 Sainte-Catherine E,"3150 Rue Sainte-Catherine E, Montréal, QC",H1W 2C3,Level2,45.538602,-73.541466,"1,00 $ (CAD) de l'heure","3150 Rue Sainte-Catherine E, Montréal, QC H1W 2C3, Canada",45.5385544,-73.5414806,Montréal,QC
1327,CEA-10929,812 | BSR | SO | 2441 Notre-Dame,"2441A Notre-Dame, Montréal, QC",H3J 1N6,Level2,45.483512,-73.57468100000001,"1,00 $ (CAD) de l'heure","2441 Rue Notre-Dame Ouest, Montréal, QC H3J 1N6, Canada",45.4833877,-73.5746749,Montréal,QC
1337,CEA-391,Terrebonne - Parc Marcel-De La Sablonnière,"21e Avenue, Terrebonne, QC",J6Y 1G5,Level2,45.684674,-73.727633,"1,00 $ (CAD) de l'heure","21e Avenue, Montréal, QC, Canada",45.5646292,-73.58924350000001,Montréal,QC
1343,CEA-10270,405 | BSR | MHM | 2500 Théodore,"2500 Rue Théodore, Montréal, QC",H1V 3C6,Level2,45.560128,-73.54373199999999,"1,00 $ (CAD) de l'heure","2500 Rue Théodore, Montréal, QC H1V 3C6, Canada",45.5599999,-73.5436605,Montréal,QC
1344,CEA-10851,713 | BSR | CDN-NDG | 5468 Claranald,"5468 Claranald, Montréal, QC",H3X 2S7,Level2,45.483967,-73.637694,"1,00 $ (CAD) de l'heure","5468 Avenue Clanranald, Montréal, QC H3X 2S3, Canada",45.4837375,-73.63781469999999,Montréal,QC
1346,CEA-10737,222 | BSR | VSMPE | 3232 Bélanger,"3232 Rue Bélanger, Montréal, QC",H1Y 3H5,Level2,45.556924,-73.59442,"1,00 $ (CAD) de l'heure","3232 Rue Bélanger, Montréal, QC H1Y 3H5, Canada",45.556686,-73.594117,Montréal,QC
1347,CEA-10598,511 | BSR | PMR | 2755 Hogan,"2755 Rue Hogan, Montréal, QC",H2K 2T5,Level2,45.53871,-73.560538,"1,00 $ (CAD) de l'heure","2755 Rue Hogan, Montréal, QC H2K 2T5, Canada",45.5384011,-73.5593526,Montréal,QC
1348,CEA-10338,805 | BSR | SO | 1010 rue Charlevoix,"1010 rue Charlevoix, Montréal, QC",H3K 3G8,Level2,45.477045,-73.566929,"1,00 $ (CAD) de l'heure","1010 Rue Charlevoix, Montréal, QC H3K 2Z1, Canada",45.476689,-73.56724399999999,Montréal,QC
1357,CEA-11135,232 | BSR | VSMPE | 9309 De Lille,"9039 Rue de Lille, Montréal, QC",H1Z 2P4,Level2,45.569295,-73.636234,"1,00 $ (CAD) de l'heure","9039 Rue de Lille, Montréal, QC H1Z 2P4, Canada",45.5692345,-73.63656,Montréal,QC
1358,CEA-357,Collège Ahuntsic,"9155 rue Saint-Hubert, Montréal, QC",H2M 1Y8,Level2,45.551445,-73.64164,"1,00 $ (CAD) de l'heure","9155 Rue St-Hubert, Montréal, QC H2M 1Y9, Canada",45.552283200000005,-73.6421462,Montréal,QC
1363,CEA-10816,RIO - Parc Olympique 2,"3200 Rue Viau, Montréal, QC",H1V 3N7,Level2,45.560388,-73.55135,"2,50 $ (CAD) par session","3200 Rue Viau, Montréal, QC H1V 3J3, Canada",45.55976210000001,-73.5514912,Montréal,QC
1364,CEA-10357,204 | BSR | VSMPE | 299 Jean-Talon E,"299 rue Jean-Talon E, Montréal, QC",H2R 1S9,Level2,45.536993,-73.615789,"1,00 $ (CAD) de l'heure","299 Rue Jean-Talon Est, Montréal, QC H2R 1S9, Canada",45.537100099999996,-73.61589509999999,Montréal,QC
1372,CEA-10580,312 | BSR | RPP | 1315 Bellechasse,"1315 Bellechasse, Montréal, QC",H2G 1N8,Level2,45.538598,-73.596221,"1,00 $ (CAD) de l'heure","1315 Rue de Bellechasse, Montréal, QC H2G 1N8, Canada",45.538821999999996,-73.59637729999999,Montréal,QC
1373,CEA-10657,103 | BSR | AC | 9475 Lajeunesse,"9475 Lajeunesse, Montréal, QC",H2M 1S5,Level2,45.550257,-73.650896,"1,00 $ (CAD) de l'heure","9475 Rue Lajeunesse, Montréal, QC H2M 1S5, Canada",45.550334899999996,-73.650802,Montréal,QC
1375,CEA-10375 ,705 | BSR | CDN-NDG | 3333 Côte Ste-Catherin,"3333 Côte Ste-Catherine, Montréal, QC",H1W 2C7,Level2,45.500176,-73.62619699999999,"1,00 $ (CAD) de l'heure","3333 Chemin de la Côte-Sainte-Catherine, Montréal, QC H3S 2C5, Canada",45.500605799999995,-73.62621709999999,Montréal,QC
1385,CEA-11253,282 | BHR | VSMPE | 9235 Papineau : Stade de Soccer de Montréal,"9235 Avenue Papineau, Montréal, QC",H2M 2G5,Level2,45.562243,-73.63818,"2,50 $ (CAD) par session","9235 Rue Papineau, Montréal, QC H2M 2G5, Canada",45.562889500000004,-73.63885450000001,Montréal,QC
1386,CEA-11478,424 | BSR | MHM | 6040 La Fontaine,"6040 La Fontaine, Montréal, QC",H1N 2B6,Level2,45.570197,-73.525253,"1,00 $ (CAD) de l'heure","6040 Rue la Fontaine, Montréal, QC H1N 2B7, Canada",45.5701935,-73.5251676,Montréal,QC
1387,CEA-10869,322 | BSR | RPP | 2900 Masson,"2900 Masson, Montréal, QC",H1Y 1X3,Level2,45.548219,-73.57472299999999,"1,00 $ (CAD) de l'heure","2900 Rue Masson, Montréal, QC H1Y, Canada",45.5483017,-73.5744184,Montréal,QC
1392,CEA-11147,635 | BSR | VM | 799 De La Commune,"799 De La Commune, Ville-Marie, QC",H3C 1Y1,Level2,45.495752,-73.552719,"1,00 $ (CAD) de l'heure","799 Rue de la Commune O, Montréal, QC H3C 1Y1, Canada",45.495422999999995,-73.55288890000001,Montréal,QC
1393,CEA-10288,405 | BSR | MHM | 2500 Théodore,"2500 Rue Théodore, Montréal, QC",H1V 3C6,Level2,45.560128,-73.54373199999999,"1,00 $ (CAD) de l'heure","2500 Rue Théodore, Montréal, QC H1V 3C6, Canada",45.5599999,-73.5436605,Montréal,QC
1400,CEA-10195,281 | BHR | VSMPE | 8650 Querbes : Aréna Howie Morentz,"8650 Avenue Querbes, Montréal, QC",H3N 2G5,Level2,45.534091,-73.644047,"2,50 $ (CAD) par session","8650 Avenue Querbes, Montréal, QC H3N 2X4, Canada",45.5342078,-73.6444972,Montréal,QC
1404,CEA-11243,523 | BSR | PMR | 4752 Berri,"4752 Berri, Montréal, QC",H2J 2R6,Level2,45.526525,-73.585349,"1,00 $ (CAD) de l'heure","4752 Rue Berri, Montréal, QC H2J 2R5, Canada",45.526371999999995,-73.58540500000001,Montréal,QC
1405,CEA-10303,806 | BSR | SO | 550 Avenue Atwater,"550 Avenue Atwater, Montréal, QC",H4C 2G6,Level2,45.48178,-73.578613,"1,00 $ (CAD) de l'heure","550 Avenue Atwater, Montréal, QC H4C 2G6, Canada",45.4820871,-73.5787063,Montréal,QC
1406,CEA-10822,814 | BSR | SO | 2415 Allard,"2415 Allard, Montréal, QC",H4E 2L5,Level2,45.450914,-73.594951,"1,00 $ (CAD) de l'heure","2415 Rue Allard, Montréal, QC H4E 2L3, Canada",45.451234899999996,-73.5934408,Montréal,QC
1411,CEA-10363,308 | BSR | RPP | 3211 Rachel E,"3211 Rachel E, Montréal, QC",H1W 1A3,Level2,45.545229,-73.56114699999999,"1,00 $ (CAD) de l'heure","3211 Rue Rachel E, Montréal, QC H1W 1A3, Canada",45.5454122,-73.56090999999999,Montréal,QC
1416,CEB-10022,METRO - Fleury,"1745 rue Fleury Est, Montréal, QC",H2C 1T3,Level2,45.5666999816895,-73.6542129516602,"1,00 $ (CAD) de l'heure","1745 Rue Fleury E, Montréal, QC H2C 1T3, Canada",45.566800799999996,-73.65473850000001,Montréal,QC
1417,CEA-10134,622 | BSR | VM | 1275 Berri,"1265 Rue Berri, Montréal, QC",H2L 4X4,Level2,45.51461,-73.559342,"1,00 $ (CAD) de l'heure","1265 Rue Berri, Montréal, QC H2L 4S6, Canada",45.5146026,-73.55884959999999,Montréal,QC
1419,CEA-10640,415 | BSR | MHM | 2251 Aird,"2251 Aird, Montréal, QC",H1V 2W4,Level2,45.556959,-73.541658,"1,00 $ (CAD) de l'heure","2251 Avenue Aird, Montréal, QC H1V 2W4, Canada",45.557233399999994,-73.5422921,Montréal,QC
1421,CEA-10051,603 | BSR | VM | 115 St-Antoine,"155 rue St-Antoine Ouest, Montréal, QC",H2Z 2A7,Level2,45.504965,-73.559,"1,00 $ (CAD) de l'heure","155 Rue Saint-Antoine O, Montréal, QC H2Z 1H2, Canada",45.505202000000004,-73.5589031,Montréal,QC
1424,CEA-10784,985 | BHR | RDP-PAT | 9175 Perras: Aréna René-Masson,"9175 Boulevard Perras, Montréal, QC",H1E 3J7,Level2,45.651515,-73.577185,"1,00 $ (CAD) de l'heure","9175 Boulevard Perras, Montréal, QC H1E 3J7, Canada",45.6516417,-73.5778326,Montréal,QC
1428,CEA-10161,801 | BSR | SO | 3451 St-Jacques,"3451 Saint-Jacques, Montréal, QC",H4C 1H2,Level2,45.481909,-73.582365,"1,00 $ (CAD) de l'heure","3451 Rue Saint-Jacques, Montréal, QC H4C 1H2, Canada",45.4822301,-73.58218719999999,Montréal,QC
1429,CEA-11301,628 | BSR | VM | 2330 Sherbrooke Ouest,"2330 rue Sherbrooke O, Montréal, QC",H3H 1G8,Level2,45.491734,-73.58722900000001,"1,00 $ (CAD) de l'heure","2330 Rue Sherbrooke Ouest, Montréal, QC H3H 1G8, Canada",45.491395000000004,-73.586883,Montréal,QC
1433,CEA-10725,225 | BSR | VSMPE | 7352 Drolet,"7352A Drolet, Montréal, QC",H2R 2C4,Level2,45.538645,-73.618645,"1,00 $ (CAD) de l'heure","7352 Rue Drolet, Montréal, QC H2R 2C4, Canada",45.538464000000005,-73.618425,Montréal,QC
1434,CEA-503,601 | BSR | VM | 800 Gauvin,"800 rue du Square Victoria, Montréal, QC",H4Z 1A1,Level2,45.500852,-73.56134,"1,00 $ (CAD) de l'heure","800 Rue du Square-Victoria, Montréal, QC H4Z 1A1, Canada",45.5003412,-73.56207140000001,Montréal,QC
1436,CEA-10942,101 | BSR | AC | 10490 Lajeunesse,"10490 Lajeunesse, Montréal, QC",H3J 2E1,Level2,45.554181,-73.664827,"1,00 $ (CAD) de l'heure","10490 Rue Lajeunesse, Montréal, QC H3L 2E5, Canada",45.55407,-73.66486090000001,Montréal,QC
1448,CEA-11119,985 | BHR | RDP-PAT | 9175 Perras: Aréna René-Masson,"9175 Boulevard Perras, Montréal, QC",H1E 3J7,Level2,45.651515,-73.577185,"1,00 $ (CAD) de l'heure","9175 Boulevard Perras, Montréal, QC H1E 3J7, Canada",45.6516417,-73.5778326,Montréal,QC
1457,CEA-433,St-Hubert - Honoré-Beaugrand,"7870 Sherbrooke Est , Montréal, QC",H1L 1A5,Level2,45.5957020632717,-73.5348584656952,"1,00 $ (CAD) de l'heure","7870 Rue Sherbrooke E, Montréal, QC H1L 1A5, Canada",45.595616,-73.53470490000001,Montréal,QC
1459,CEA-206,280 | BHR | VSMPE | 7501 François Perrault : Maison du citoyen,"7501 François Perrault, Montréal, QC",H2A 1M1,Level2,45.56153,-73.60127,"2,50 $ (CAD) par session","7501 Rue François-Perrault, Montréal, QC H2A 1M1, Canada",45.5617131,-73.60121240000001,Montréal,QC
1461,CEA-10641,413 | BSR | MHM | 2696 D'Orleans,"2696 D'orléans, Montréal, QC",H1W 3S5,Level2,45.551603,-73.552353,"1,00 $ (CAD) de l'heure","2696 Avenue d'Orléans, Montréal, QC H1W 3S5, Canada",45.551559499999996,-73.55263149999999,Montréal,QC
1466,CEA-11392,632 | BSR | VM | 140 Prince,"140 Rue Prince, Ville-Marie, QC",H3C 1T6,Level2,45.497384,-73.556547,"1,00 $ (CAD) de l'heure","140 Rue Prince, Montréal, QC H3C 1T6, Canada",45.4970877,-73.5559311,Montréal,QC
1469,CEA-10611,110 | BSR | AC | 9815 Lajeunesse,"9815 Lajeunesse, Montréal, QC",H3L 2E1,Level2,45.551598,-73.655922,"1,00 $ (CAD) de l'heure","9815 Rue Lajeunesse, Montréal, QC H3L 2C9, Canada",45.5520054,-73.655971,Montréal,QC
1474,CEA-10901,104 | BSR | AC | 54 Gouin,"54 Boul. Gouin Est, Montréal, QC",H3L 1A6,Level2,45.552297,-73.673625,"1,00 $ (CAD) de l'heure","54 Boulevard Gouin E, Montréal, QC H3L, Canada",45.552005,-73.67369709999998,Montréal,QC
1477,CEA-10930,108 | BSR | AC | 990 Salaberry,"990 Salaberry, Montréal, QC",H3L 3L6,Level2,45.545777,-73.692268,"1,00 $ (CAD) de l'heure","990 Rue de Salaberry, Montréal, QC H3L, Canada",45.5455256,-73.6925484,Montréal,QC
1478,CEA-11442,230 | BSR | VSMPE | 7350 Garnier,"7350 Garnier, Montréal, QC",H2E 3A3,Level2,45.547512,-73.611812,"1,00 $ (CAD) de l'heure","7350 Rue Garnier, Montréal, QC H2E 2A3, Canada",45.547096,-73.61125799999999,Montréal,QC
1479,CEA-11210,326 | BSR | RPP | 1550 Bélanger,"1550 rue Bélanger, Montréal, QC",H2G 1A8,Level2,45.545093,-73.6043,"1,00 $ (CAD) de l'heure","1550 Rue Bélanger, Montréal, QC H2G 1A9, Canada",45.5453854,-73.60403769999999,Montréal,QC
1481,CEA-10373,502 | BSR | PMR | 4502 Boyer,"4502 rue Boyer, Montréal, QC",H2J 3E2,Level2,45.527465,-73.580138,"1,00 $ (CAD) de l'heure","4502 Rue Boyer, Montréal, QC H2J 3E2, Canada",45.5274177,-73.5800945,Montréal,QC
1484,CEA-405,St-Hubert - Cadillac,"6225 rue Sherbrooke Est, Montréal, QC",H1N 1C3,Level2,45.579227,-73.54565,"1,00 $ (CAD) de l'heure","6225 Rue Sherbrooke E, Montréal, QC H1N 1C3, Canada",45.579124,-73.54581999999999,Montréal,QC
1487,CEA-10821,809 | BSR | SO | 5505A Angers,"5505A rue Angers, Montréal, QC",H4E 1G5,Level2,45.462917,-73.584786,"1,00 $ (CAD) de l'heure","5505 Rue Angers, Montréal, QC H4E 1G5, Canada",45.463341799999995,-73.5848262,Montréal,QC
1495,CEA-10471,720 | BSR | CDN-NDG | 3165 Côte Ste-Catherine,"3165A Côte Ste-Catherine, Montréal, QC",H3T 1C4,Level2,45.503899,-73.622842,"1,00 $ (CAD) de l'heure","3165 Chemin de la Côte-Sainte-Catherine, Montréal, QC H3T 1C4, Canada",45.503252,-73.62410600000001,Montréal,QC
1497,CEA-10532,106 | BSR | AC | 780 Fleury,"1780 Fleury, Montréal, QC",H2C 1T4,Level2,45.567582,-73.653615,"1,00 $ (CAD) de l'heure","1780 Rue Fleury E, Montréal, QC H2C 3E4, Canada",45.567422799999996,-73.6535553,Montréal,QC
1499,CEA-10158,615 | BSR | VM | 1901 City Councillor,"425 Boul. de Maisonneuve O, Montréal, QC",H3A 3K5,Level2,45.505901,-73.570678,"1,00 $ (CAD) de l'heure","425 Boulevard de Maisonneuve O, Montréal, QC H3A 3G5, Canada",45.506133500000004,-73.5704262,Montréal,QC
1504,CEA-10541,822 | BSR | SO | 555 Des Seigneurs,"555 Des Seigneurs, Montréal, QC",H3J 2S5,Level2,45.488813,-73.570943,"1,00 $ (CAD) de l'heure","555 Rue des Seigneurs, Montréal, QC H3J 1Y1, Canada",45.4885844,-73.5700977,Montréal,QC
1508,CEA-10879,416 | BSR | MHM | 5750 Pierre de Coubertin,"5750 Pierre de Coubertin, Montréal, QC",H1N 2K9,Level2,45.571544,-73.540664,"1,00 $ (CAD) de l'heure","5750 Avenue Pierre-De Coubertin, Montréal, QC H1N 1R4, Canada",45.571661,-73.54074279999999,Montréal,QC
1511,CEA-10264,119 | BSR | AC |  10905 rue Basile Routhier : Parc Basile Routhier,"10905A rue Basile Routhier, Montréal, QC",H2C 3H5,Level2,45.557084,-73.671649,"1,00 $ (CAD) de l'heure","10905 Rue Basile Routhier, Montréal, QC H2C 1N7, Canada",45.557458600000004,-73.6725483,Montréal,QC
1517,CEA-10345,503 | BSR | PMR | 3760 St-Hubert,"3760 rue St-Hubert, Montréal, QC",H2L 4A3,Level2,45.520781,-73.570745,"1,00 $ (CAD) de l'heure","3760 Rue St-Hubert, Montréal, QC H2L 4A3, Canada",45.5205726,-73.5708147,Montréal,QC
1518,CEA-10634,482 | BHR | MHM | 3000 Viau : Centre Pierre-Charbonneau - Espace pour la vie,"3000 rue Viau, Montréal, QC",H1V 3J3,Level2,45.5624923698896,-73.54930681343079,"2,50 $ (CAD) par session","3000 Rue Viau, Montréal, QC H1V 3J3, Canada",45.5620422,-73.55005849999999,Montréal,QC
1520,CEA-10965,204 | BSR | VSMPE | 299 Jean-Talon E,"299 rue Jean-Talon E, Montréal, QC",H2R 1S9,Level2,45.536993,-73.615789,"1,00 $ (CAD) de l'heure","299 Rue Jean-Talon Est, Montréal, QC H2R 1S9, Canada",45.537100099999996,-73.61589509999999,Montréal,QC
1522,CEA-10206,RIO - Parc Olympique,"4141 Avenue Pierre-De Coubertin, Montréal, QC",H1V 3N7,Level2,45.5554177287515,-73.5513811997223,"2,50 $ (CAD) par session","4141 Avenue Pierre-De Coubertin, Montréal, QC H1V 3N7, Canada",45.559774,-73.5514832,Montréal,QC
1523,CEA-10560,522 | BSR | PMR | 4490 Fabre,"4490 Rue Fabre, Montréal, QC",H2J 3V3,Level2,45.531321,-73.575622,"1,00 $ (CAD) de l'heure","4490 Rue Fabre, Montréal, QC H2J 3V3, Canada",45.5312697,-73.5756427,Montréal,QC
1528,CEA-10385,206 | BSR | VSMPE | 8106 Casgrain,"8106 Avenue Casgrain , Montréal, QC",H2P 2K5,Level2,45.540098,-73.63096999999999,"1,00 $ (CAD) de l'heure","8106 Avenue Casgrain, Montréal, QC H2P 2K5, Canada",45.540012100000006,-73.63104150000001,Montréal,QC
1531,CEA-10752,717 | BSR | CDN-NDG | 5225 Sherbrooke,"5252 Sherbrooke, Montréal, QC",H4A 1V1,Level2,45.474704,-73.608527,"1,00 $ (CAD) de l'heure","5252 Rue Sherbrooke E, Montréal, QC H1N, Canada",45.568083200000004,-73.5521558,Montréal,QC
1532,CEA-10695,414 | BSR | MHM | 4217 Rue de Rouen,"4217 Rue de Rouen , Montréal, QC",H1V 1G7,Level2,45.552531,-73.544179,"1,00 $ (CAD) de l'heure","4217 Rue de Rouen, Montréal, QC H1V 1G7, Canada",45.552559,-73.54427690000001,Montréal,QC
1533,CEA-10962,514 | BSR | PMR | 5333 Papineau,"5333 Papineau, Montréal, QC",H2H 1W1,Level2,45.537015,-73.583259,"1,00 $ (CAD) de l'heure","5333 Rue Papineau, Montréal, QC H2H 1W1, Canada",45.5369802,-73.5830187,Montréal,QC
1535,CEA-10643,222 | BSR | VSMPE | 3232 Bélanger,"3232 Rue Bélanger, Montréal, QC",H1Y 3H5,Level2,45.556924,-73.59442,"1,00 $ (CAD) de l'heure","3232 Rue Bélanger, Montréal, QC H1Y 3H5, Canada",45.556686,-73.594117,Montréal,QC
1536,CEA-10735,317 | BSR | RPP | 2923 St-Zotique,"2923A St-Zotique, Montréal, QC",H1Y 1E4,Level2,45.553515,-73.592311,"1,00 $ (CAD) de l'heure","2923 Rue Saint-Zotique E, Montréal, QC H1Y 1E4, Canada",45.553624,-73.592665,Montréal,QC
1538,CEA-10506,Fédération autonome de l'enseignement,"8550 boul. Pie-IX, Montréal, QC",H1Z 4G2,Level2,45.575077,-73.61132099999999,"1,00 $ (CAD) de l'heure","8550 Boulevard Pie-IX, Montréal, QC H1Z 4G2, Canada",45.5749732,-73.61137120000001,Montréal,QC
1539,CEA-10835,716 | BSR | CDN-NDG | 6045 Upper Lachine,"6045A Upper Lachine, Montréal, QC",H4A 2C3,Level2,45.465749,-73.614126,"1,00 $ (CAD) de l'heure","6045 Chemin Upper Lachine, Montréal, QC H4A 2C3, Canada",45.4656265,-73.6143908,Montréal,QC
1540,CEA-10194,605 | BSR | VM | 265 St-Antoine,"301 rue St-Antoine Ouest, Montréal, QC",H2Z 1H5,Level2,45.503582,-73.56019,"1,00 $ (CAD) de l'heure","301 Rue Saint-Antoine O, Montréal, QC H2Z 1H5, Canada",45.5036148,-73.56053840000001,Montréal,QC
1542,CEA-165,782 | BHR | CDN-NDG | 3220 Appleton : Parc Kent,"3220 Avenue Appleton, Montréal, QC",H3S 2T3,Level2,45.505514,-73.63166,"2,50 $ (CAD) par session","3220 Avenue Appleton, Montréal, QC H3S 2T3, Canada",45.5052784,-73.6315971,Montréal,QC
1543,CEA-10361,303 | BSR | RPP | 2160 Beaubien,"2160 Rue Beaubien E, Montréal, QC",H2G 1M6,Level2,45.546029,-73.59401899999999,"1,00 $ (CAD) de l'heure","2160 Rue Beaubien E, Montréal, QC H2G 1M6, Canada",45.545912,-73.5940186,Montréal,QC
1544,CEA-10298,403 | BSR | MHM | 882 Dézéry,"882 Rue Dézéry, Montréal, QC",H1W 2R9,Level2,45.540895,-73.547126,"1,00 $ (CAD) de l'heure","882 Rue Dézéry, Montréal, QC H1W 2R1, Canada",45.5390345,-73.5410645,Montréal,QC
1545,CEA-10729,818 | BSR | SO | 4523 St-Jacques,"4523 St-Jacques, Montréal, QC",H4C 1K3,Level2,45.475618,-73.59129200000001,"1,00 $ (CAD) de l'heure","4523 Rue Saint-Jacques, Montréal, QC H4C 1K3, Canada",45.475662299999996,-73.5913007,Montréal,QC
1546,CEA-11268,828 | BSR | SO | 2190 Favard,"2190 Rue Favard, Montréal, QC",H3K 1Z8,Level2,45.475625,-73.557778,"1,00 $ (CAD) de l'heure","2190 Rue Favard, Montréal, QC H3K 1Z8, Canada",45.475855100000004,-73.5576564,Montréal,QC
1549,CEB-10106,Discount St-Jacques Ouest,"6250 rue St-Jacques ouest, Montréal, QC",H4B 1T6,Level2,45.4631309509277,-73.6182327270508,"1,00 $ (CAD) de l'heure","6250 Rue Saint-Jacques, Montréal, QC H4B 1T6, Canada",45.463134499999995,-73.61748309999999,Montréal,QC
1563,CEA-10171,622 | BSR | VM | 1275 Berri,"1265 Rue Berri, Montréal, QC",H2L 4S6,Level2,45.51461,-73.559342,"1,00 $ (CAD) de l'heure","1265 Rue Berri, Montréal, QC H2L 4S6, Canada",45.5146026,-73.55884959999999,Montréal,QC
1564,CEA-081,481 | BHR | MHM | 8780 Dubuisson : Aréna Clément-Jetté,"8780 avenue Dubuisson, Montréal, QC",H1L 2W6,Level2,45.601836,-73.516419,"2,50 $ (CAD) par session","8780 Avenue Dubuisson, Montréal, QC H1L 2W6, Canada",45.6016974,-73.5164237,Montréal,QC
1570,CEA-10339,404 | BSR | MHM | 3622 Hochelaga,"3622 Rue Hochelaga, Montréal, QC",H1W 1J1,Level2,45.547475,-73.550661,"1,00 $ (CAD) de l'heure","3622 Rue Hochelaga, Montréal, QC H1W 1J1, Canada",45.547396899999995,-73.5507923,Montréal,QC
1572,CEA-11229,527 | BSR | PMR | 3820 Laval,"3820 Avenue Laval, Montréal, QC",H2W 2J1,Level2,45.51786,-73.574396,"1,00 $ (CAD) de l'heure","3820 Avenue Laval, Montréal, QC H2W 2J1, Canada",45.5178932,-73.5747021,Montréal,QC
1582,CEA-221,Allied - 111 Duke,"111 Rue Duke, Montreal, QC",H3C 2M1,Level2,45.4971082709454,-73.5567164535113,"2,50 $ (CAD) par session","111 Rue Duke, Montréal, QC H3C 2M1, Canada",45.4967578,-73.5562301,Montréal,QC
1591,CEA-10217,603 | BSR | VM | 115 St-Antoine,"115 rue St-Antoine Ouest, Montréal, QC",H2Z 1X8,Level2,45.505622,-73.55845,"1,00 $ (CAD) de l'heure","115 Rue Saint-Antoine O, Montréal, QC H2Z 1X8, Canada",45.5054528,-73.55869090000002,Montréal,QC
1592,CEA-10381,702 | BSR | CDN-NDG | 5252 Sherbrooke O,"5252 Sherbrooke O, Montréal, QC",H4A 3K5,Level2,45.474621,-73.608302,"1,00 $ (CAD) de l'heure","5252 Rue Sherbrooke Ouest, Montréal, QC H4A 3K5, Canada",45.4745826,-73.60823640000001,Montréal,QC
1595,CEA-10144,620 | BSR | VM | 1551 St-Denis,"1551 rue St-Denis, Montréal, QC",H2L 3K3,Level2,45.514626,-73.56228,"1,00 $ (CAD) de l'heure","1551 Rue Saint-Denis, Montréal, QC H2X 3K3, Canada",45.5146299,-73.562003,Montréal,QC
1599,CEA-10872,703 | BSR | CDN-NDG | 5038 rue Sherbrooke O,"5038 Sherbrooke O, Montréal, QC",H4A 1S7,Level2,45.476487,-73.606153,"1,00 $ (CAD) de l'heure","5038 Rue Sherbrooke Ouest, Montréal, QC H4A 1S7, Canada",45.4763895,-73.6059853,Montréal,QC
1600,CEA-11206,630 | BSR | VM | 1125 Ontario Est,"1125 Ontario St E, Montréal, QC",H2L 1R1,Level2,45.520402,-73.563312,"1,00 $ (CAD) de l'heure","1125 Rue Ontario E, Montréal, QC H2L 1R1, Canada",45.5206722,-73.5633898,Montréal,QC
1602,CEA-10863,211 | BSR | VSMPE | 625 Liege O,"625 Liege O, Montréal, QC",H3N 1A7,Level2,45.532997,-73.642027,"1,00 $ (CAD) de l'heure","625 Rue de Liège O, Montréal, QC H3N 1A7, Canada",45.533015999999996,-73.64207259999999,Montréal,QC
1605,CEA-10143,324 | BSR | RPP | 5808 St-Hubert,"5808 St-Hubert, Montréal, QC",H2S 2L7,Level2,45.533245,-73.596864,"1,00 $ (CAD) de l'heure","5808 Rue St-Hubert, Montréal, QC H2S 2L7, Canada",45.53308,-73.596824,Montréal,QC
1608,CEA-10192,605 | BSR | VM | 265 St-Antoine,"301 rue St-Antoine Ouest, Montréal, QC",H2Z 1H5,Level2,45.50378,-73.56002,"1,00 $ (CAD) de l'heure","301 Rue Saint-Antoine O, Montréal, QC H2Z 1H5, Canada",45.5036148,-73.56053840000001,Montréal,QC
1609,CEA-10601,408 | BSR | MHM | 1870 Davidson,"1870 Davidson, Montréal, QC",H1W 2Y6,Level2,45.542656,-73.545168,"1,00 $ (CAD) de l'heure","1870 Rue Davidson, Montréal, QC H1W 2Y6, Canada",45.5423324,-73.54523809999999,Montréal,QC
1624,CEA-10528,515 | BSR | PMR | 4801 Papineau,"4801 Avenue Papineau, Montréal, QC",H2H 1V7,Level2,45.534713,-73.57794100000001,"1,00 $ (CAD) de l'heure","4801 Rue Papineau, Montréal, QC H2H 1V7, Canada",45.5348126,-73.5780873,Montréal,QC
1626,CEA-10330,402 | BSR | MHM | 8646 Hochelaga,"8646 Rue Hochelaga, Montréal, QC",H1L 2M4,Level2,45.600718,-73.51992299999999,"1,00 $ (CAD) de l'heure","8646 Rue Hochelaga, Montréal, QC H1L 2M4, Canada",45.6007291,-73.52008909999999,Montréal,QC
1628,CEA-10267,RIO - Parc Olympique 2,"3200 Rue Viau, Montréal, QC",H1V 3J3,Level2,45.560388,-73.55135,"2,50 $ (CAD) par session","3200 Rue Viau, Montréal, QC H1V 3J3, Canada",45.55976210000001,-73.5514912,Montréal,QC
1629,CEA-11455,632 | BSR | VM | 140 Prince,"140 Rue Prince, Ville-Marie, QC",H3C 1T6,Level2,45.497384,-73.556547,"1,00 $ (CAD) de l'heure","140 Rue Prince, Montréal, QC H3C 1T6, Canada",45.4970877,-73.5559311,Montréal,QC
1631,CEA-10927,623 | BSR | VM | 1436 Amherst,"1411 rue Amherst, Montréal, QC",H2L 2G2,Level2,45.5176188090555,-73.55755239881141,"1,00 $ (CAD) de l'heure","1411 Rue Amherst, Montréal, QC H2L 3L2, Canada",45.517711799999994,-73.5572265,Montréal,QC
1633,CEA-10386,725 | BSR | CDN-NDG | 7440 Décarie,"7440 Décarie, H4P 2N1, QC",H4A 3H9,Level2,45.49426,-73.654292,"1,00 $ (CAD) de l'heure","7440 Boulevard Décarie, Montréal, QC H4P 2N1, Canada",45.495273299999994,-73.655125,Montréal,QC
1640,CEA-11216,527 | BSR | PMR | 3820 Laval,"3820 Avenue Laval, Montréal, QC",H2W 2J1,Level2,45.51786,-73.574396,"1,00 $ (CAD) de l'heure","3820 Avenue Laval, Montréal, QC H2W 2J1, Canada",45.5178932,-73.5747021,Montréal,QC
1647,CEA-10797,105 | BSR | AC | 1530 Fleury,"1530 rue Fleury, Montréal, QC",H2C 2Y6,Level2,45.562906,-73.656227,"1,00 $ (CAD) de l'heure","1530 Rue Fleury E, Montréal, QC H2C 2Y6, Canada",45.5629748,-73.6561512,Montréal,QC
1648,CEA-10282,505 | BSR | PMR | 4231 St Laurent,"4321 boul. St-Laurent, Montréal, QC",H2W 1Z4,Level2,45.518205,-73.581949,"1,00 $ (CAD) de l'heure","4321 Boul St-Laurent, Montréal, QC H2W 1Z3, Canada",45.5190351,-73.5838925,Montréal,QC
1652,CEA-10376,706 | BSR | CDN-NDG | 3340 Côte Ste-Catherin,"3340 Côte Ste-Catherine, Montréal, QC",H1W 2C7,Level2,45.5001,-73.626006,"1,00 $ (CAD) de l'heure","3340 Chemin de la Côte-Sainte-Catherine, Montréal, QC H3T 1C6, Canada",45.5000421,-73.6258217,Montréal,QC
1653,CEA-10518,520 | BSR | PMR | 4604 Parc,"4604A ave du Parc , Montréal, QC",H2V 4E5,Level2,45.517256,-73.591151,"1,00 $ (CAD) de l'heure","4604 Av du Parc, Montréal, QC H2V 4E5, Canada",45.5172996,-73.59136459999999,Montréal,QC
1654,CEA-10292,803 | BSR | SO | 1825 Notre-Dame O,"1825 rue Notre-Dame O, Montréal, QC",H3J 2Y4,Level2,45.487874,-73.569212,"1,00 $ (CAD) de l'heure","1825 Rue Notre-Dame Ouest, Montréal, QC H3J 2Y4, Canada",45.488162,-73.568995,Montréal,QC
1655,CEA-10742,223 | BSR | VSMPE | 8630 Berri,"8630 Rue Berri, Montréal, QC",H2P 2G4,Level2,45.545698,-73.63738000000001,"1,00 $ (CAD) de l'heure","8630 Rue Berri, Montréal, QC H2P 2Z4, Canada",45.5455533,-73.6374537,Montréal,QC
1663,CEA-10301,403 | BSR | MHM | 882 Dézéry,"882 Rue Dézéry, Montréal, QC",H1W 2R9,Level2,45.540895,-73.547126,"1,00 $ (CAD) de l'heure","882 Rue Dézéry, Montréal, QC H1W 2R1, Canada",45.5390345,-73.5410645,Montréal,QC
1664,CEA-10342,306 | BSR | RPP | 3189 Masson,"3189 Rue Masson , Montréal, QC",H1Y 1Y2,Level2,45.550345,-73.573841,"1,00 $ (CAD) de l'heure","3189 Rue Masson, Montréal, QC H1Y 1Y2, Canada",45.550287100000006,-73.5738282,Montréal,QC
1666,CEA-11305,332 | BSR | RPP | 1201 Bélanger,"1201 Rue Bélanger, Montréal, QC",H2S 1H7,Level2,45.541863,-73.60772800000001,"1,00 $ (CAD) de l'heure","1201 Rue Bélanger, Montréal, QC H2S 1H7, Canada",45.5418565,-73.6077662,Montréal,QC
1670,CEA-10607,718 | BSR | CDN-NDG | 3555 Queen Mary,"3355 Chemin Queen Mary, Montréal, QC",H3V 1H9,Level2,45.49571,-73.618201,"1,00 $ (CAD) de l'heure","3355 Chemin Queen Mary, Montréal, QC H3V 1A5, Canada",45.4961536,-73.6188136,Montréal,QC
1673,CEA-10193,606 | BSR | VM | 369 St-Antoine,"405 rue St-Antoine Ouest, Montréal, QC",H2Z 2A3,Level2,45.502668,-73.56097,"1,00 $ (CAD) de l'heure","405 Rue Saint-Antoine O, Montréal, QC H2Z 2A3, Canada",45.5025893,-73.5611507,Montréal,QC
1677,CEA-086,180 | BHR | AC | 10560 Rue St-Hubert : Aréna Ahuntsic,"10560 Rue St-Hubert, Montréal, QC",H2C 2H7,Level2,45.557008,-73.664484,"2,50 $ (CAD) par session","10560 Rue St-Hubert, Montréal, QC H2C 2H7, Canada",45.5572098,-73.6642379,Montréal,QC
1679,CEA-11357,526 | BSR | PMR | 5561 St-Dominique,"5561 rue Saint-Dominique, Montréal, QC",H2T 1A5,Level2,45.526635,-73.598664,"1,00 $ (CAD) de l'heure","5561 Rue Saint-Dominique, Montréal, QC H2T 1A5, Canada",45.526773600000006,-73.598535,Montréal,QC
1683,CEA-10960,5600.com,"5656 Hochelaga, Montréal, QC",H1N 3L7,Level2,45.56898,-73.53826600000001,"1,00 $ (CAD) de l'heure","5656 Rue Hochelaga, Montréal, QC H1N 3T1, Canada",45.5698388,-73.53807940000002,Montréal,QC
1688,CEA-10603,103 | BSR | AC | 9475 Lajeunesse,"9475 Lajeunesse, Montréal, QC",H2M 1S5,Level2,45.550257,-73.650896,"1,00 $ (CAD) de l'heure","9475 Rue Lajeunesse, Montréal, QC H2M 1S5, Canada",45.550334899999996,-73.650802,Montréal,QC
1701,CEA-10569,224 | BSR | VSMPE | 7200 Hutchison,"7200 Hutchison, Montréal, QC",H3N 1Z2,Level2,45.529826,-73.62305,"1,00 $ (CAD) de l'heure","7200 Rue Hutchison, Montréal, QC H3N 1Z2, Canada",45.529608,-73.62315699999999,Montréal,QC
1702,CEA-10698,414 | BSR | MHM | 4217 Rue de Rouen,"4217 Rue de Rouen , Montréal, QC",H1V 1G7,Level2,45.552531,-73.544179,"1,00 $ (CAD) de l'heure","4217 Rue de Rouen, Montréal, QC H1V 1G7, Canada",45.552559,-73.54427690000001,Montréal,QC
1707,CEB-10107,Discount Plateau Mont-Royal/Rosemont,"4447 rue Papineau, Montréal, Q", H2H1T7,Level2,45.5326881408691,-73.5736846923828,"1,00 $ (CAD) de l'heure","4447 Rue Papineau, Montréal, QC H2H 1T7, Canada",45.5326575,-73.5735,Montréal,QC
1709,CEB-10004,Place des Arts,"1450 rue St-Urbain, Montréal, QC",H5B 1E4,Level2,45.5091667175293,-73.5659484863281,"2,50 $ (CAD) par session","1450 Rue Saint-Urbain, Montréal, QC H2X 1Z8, Canada",45.5090838,-73.5660905,Montréal,QC
1713,CEA-11289,231 | BSR | VSMPE | 3901 Jarry,"3901 jarry E, Montréal, QC",H1Z 2G1,Level2,45.569855,-73.604919,"1,00 $ (CAD) de l'heure","3901 Rue Jarry E, Montréal, QC H1Z 2G1, Canada",45.57100820000001,-73.6047437,Montréal,QC
1717,CEA-10870,309 | BSR | RPP | 7145 Alexandra,"7145 Alexandra, Montréal, QC",H2S 3J6,Level2,45.532232,-73.619845,"1,00 $ (CAD) de l'heure","7145 Rue Alexandra, Montréal, QC H2S 3J6, Canada",45.532303000000006,-73.61973,Montréal,QC
1723,CEA-10184,626 | BSR | VM | 2027 L'Espérance,"2030 Rue L'espérance, Montréal, QC",H2K 2N9,Level2,45.537758,-73.549702,"1,00 $ (CAD) de l'heure","2030 Rue Lespérance, Montréal, QC H2K 2N9, Canada",45.537695,-73.550104,Montréal,QC
1731,CEA-10738,501 | BSR | PMR | 4492 rue Parth,"4492 rue Parthenais, Montréal, QC",H2H 2G5,Level2,45.536337,-73.571,"1,00 $ (CAD) de l'heure","4492 Rue Parthenais, Montréal, QC H2H 2G5, Canada",45.536284,-73.57097990000001,Montréal,QC
1733,CEA-10850,1411 | BSR | SLA | 360A Meloche,"360 Meloche, Montréal, QC",H4N 1A6,Level2,45.528437,-73.67577800000001,"1,00 $ (CAD) de l'heure","Rue Meloche, Montréal, QC, Canada",45.457854,-73.8859361,Montréal,QC
1762,AAA-127,Édifice Jacques-Parizeau,"1000 Jean-Paul-Riopelle, Montréal, QC",H2Z 2B3,Level2,45.50253,-73.561352,"1,00 $ (CAD) de l'heure","1000 Place Jean-Paul-Riopelle, Montréal, QC H2Z 2B3, Canada",45.502909100000004,-73.5619531,Montréal,QC
1781,AAA-161,Place Montréal Trust,"1500 avenue McGill College, Montréal, QC",H3A 3J5,Level2,45.502156,-73.57222900000001,"1,00 $ (CAD) de l'heure","1500 Avenue McGill College, Montréal, QC H3A 3L2, Canada",45.5023402,-73.5723526,Montréal,QC
1791,AAA-207,Centre Eaton,"705 rue Ste-Catherine Ouest, Montréal, QC",H3B 4G5,Level2,45.503249,-73.57027,"1,00 $ (CAD) de l'heure","705 Rue Sainte-Catherine O, Montréal, QC H3B 4G5, Canada",45.502466,-73.57130409999999,Montréal,QC
1828,AAA-530,Alexis Nihon,"1500 Avenue Atwater, Montréal, QC",H3Z 1X5,Level2,45.488728,-73.58551,"1,00 $ (CAD) de l'heure","1500 Avenue Atwater, Montréal, QC H3Z 1X5, Canada",45.488805,-73.5859921,Montréal,QC
1833,AAA-10332,Ivanhoé Cambridge - Maison Manuvie,"900 Boul, De Maisonneuve Ouest, Montréal, QC",H3A 1N4,Level2,45.501544,-73.572989,"1,00 $ (CAD) de l'heure","900 Boulevard de Maisonneuve O, Montréal, QC H3A 1M5, Canada",45.5019469,-73.57338859999999,Montréal,QC
1842,AAB-12081,SQI - Palais de justice de Montréal (Rue Bellechasse),"410 Rue de Bellechasse, Montréal, QC",H2S 1X3,Level2,45.532648,-73.600372,"1,00 $ (CAD) de l'heure","410 Rue de Bellechasse, Montréal, QC H2S 1X3, Canada",45.532739299999996,-73.600739,Montréal,QC
1843,AAA-10336,Ivanhoé Cambridge - Maison Manuvie,"900 Boul, De Maisonneuve Ouest, Montréal, QC",H3A 1N4,Level2,45.501544,-73.572989,"1,00 $ (CAD) de l'heure","900 Boulevard de Maisonneuve O, Montréal, QC H3A 1M5, Canada",45.5019469,-73.57338859999999,Montréal,QC
1863,AAA-10329,Ivanhoé Cambridge - Maison Manuvie,"900 Boul, De Maisonneuve Ouest, Montréal, QC",H3A 1N4,Level2,45.501544,-73.572989,"1,00 $ (CAD) de l'heure","900 Boulevard de Maisonneuve O, Montréal, QC H3A 1M5, Canada",45.5019469,-73.57338859999999,Montréal,QC
1878,AAA-175,Centre Eaton,"705 rue Ste-Catherine Ouest, Montréal, QC",H3B 4G5,Level2,45.503249,-73.57027,"1,00 $ (CAD) de l'heure","705 Rue Sainte-Catherine O, Montréal, QC H3B 4G5, Canada",45.502466,-73.57130409999999,Montréal,QC
1882,AAA-10480,MTL - Aréna Bill Durnan (0610),"4988, rue Vézina, Montréal, QC",H3W 1C1,Level2,45.494898,-73.644266,"2,50 $ (CAD) par session","4988 Rue Vézina, Montréal, QC H3W 1C1, Canada",45.494823700000005,-73.6446937,Montréal,QC
1911,AAA-10444,Montréal - Marché Central - 1025 rue Marché Central,"1025 rue Marché Central, Montréal, QC",H4N 3K1,Level2,45.534841,-73.65943,"0,00 $ (CAD) par session","1025 Rue du Marché Central, Montréal, QC H4N 1J8, Canada",45.534538500000004,-73.6596261,Montréal,QC
1918,AAA-11170,P-3744 Jean-Brillant,"3744 Rue Jean-Brillant, Montréal, QC",H3T 1P1,Level2,45.495237,-73.621813,"1,00 $ (CAD) de l'heure","3744 Rue Jean-Brillant, Montréal, QC H3T 1P1, Canada",45.495106,-73.6217464,Montréal,QC
1938,AAA-10433,Montréal - Marché Central - 8989 boul L'Acadie,"8989 boul L’Acadie, Montréal, QC",H4N 3K1,Level2,45.532492,-73.65256,"0,00 $ (CAD) par session","8989 Boulevard de l'Acadie, Montréal, QC H4N 3K1, Canada",45.532252,-73.65148359999999,Montréal,QC
1948,AAA-10606,Via Rail Canada Inc.-Montréal Maintenance Centre CC13285,"201, Ash, Montréal, QC",H3K 3K2,Level2,45.477476,-73.549898,"2,00 $ (CAD) par session","201 Avenue Ash, Montréal, QC H3K 3K2, Canada",45.476574299999996,-73.5510875,Montréal,QC
1951,AAA-179,Place Montréal Trust,"1500 avenue McGill College, Montréal, QC",H3A 3J5,Level2,45.502156,-73.57222900000001,"1,00 $ (CAD) de l'heure","1500 Avenue McGill College, Montréal, QC H3A 3L2, Canada",45.5023402,-73.5723526,Montréal,QC
1961,AAA-10333,Ivanhoé Cambridge - Maison Manuvie,"900 Boul, De Maisonneuve Ouest, Montréal, QC",H3A 1N4,Level2,45.501544,-73.572989,"1,00 $ (CAD) de l'heure","900 Boulevard de Maisonneuve O, Montréal, QC H3A 1M5, Canada",45.5019469,-73.57338859999999,Montréal,QC
1974,AAA-10418,_MES  Université McGill - Redéveloppement,"3420 Rue McTavish, Montréal, QC",H3A 1Y1,Level2,45.502857,-73.57681099999999,"1,00 $ (CAD) de l'heure","3420 Rue McTavish, Montréal, QC H3A 3L1, Canada",45.5029451,-73.57675649999999,Montréal,QC
1982,AAA-10892,T.A. - 2600 William-Tremblay,"2600 Rue William-Tremblay, Montréal, QC",H1Y 3J2,Level2,45.542242,-73.56399,"1,00 $ (CAD) de l'heure","2600 Rue William-Tremblay, Montréal, QC H1X 3J2, Canada",45.542548499999995,-73.56389709999999,Montréal,QC
1986,AAA-10428,Montréal - Marché Central - 9187 boul L'Acadie,"9187 boul L’Acadie, Montréal, QC",H4N 3K1,Level2,45.533598,-73.6552,"0,00 $ (CAD) par session","9187 Boulevard de l'Acadie, Montréal, QC H4N 3K1, Canada",45.5331119,-73.6551863,Montréal,QC
2025,AAA-123,Édifice Jacques-Parizeau,"1000 Jean-Paul-Riopelle, Montréal, QC",H2Z 2B3,Level2,45.50253,-73.561352,"1,00 $ (CAD) de l'heure","1000 Place Jean-Paul-Riopelle, Montréal, QC H2Z 2B3, Canada",45.502909100000004,-73.5619531,Montréal,QC
2059,AAA-10615,Via Rail Canada Inc.-Montréal Maintenance Centre CC14409,"201, Ash, Montréal, QC",H3K 3K2,Level2,45.476233,-73.549018,"2,00 $ (CAD) par session","201 Avenue Ash, Montréal, QC H3K 3K2, Canada",45.476574299999996,-73.5510875,Montréal,QC
2064,AAA-10249,Ivanhoé Cambridge - Maison Manuvie,"900 Boul, De Maisonneuve Ouest, Montréal, QC",H3A 1N4,Level2,45.501544,-73.572989,"1,00 $ (CAD) de l'heure","900 Boulevard de Maisonneuve O, Montréal, QC H3A 1M5, Canada",45.5019469,-73.57338859999999,Montréal,QC
2095,AAB-11963,IA - Crémazie,"1611 Boul Crémazie E, Montréal, QC",H2M 2R9,Level2,45.553932,-73.625066,"1,00 $ (CAD) de l'heure","1611 Boul Crémazie E, Montréal, QC H2M 2R9, Canada",45.5545329,-73.6239679,Montréal,QC
2134,AAA-10411,T.A. - 4050 Molson,"4050 rue Molson, Montréal, QC",H1Y 3L1,Level2,45.541189,-73.56251999999999,"1,00 $ (CAD) de l'heure","4050 Rue Molson, Montréal, QC H1W 1A1, Canada",45.5411826,-73.56205959999998,Montréal,QC
2146,AAA-135,Centre de commerce mondial de Montréal,"747 rue Square Victoria, Montréal, QC",H2Y 3Y9,Level2,45.502106,-73.560807,"1,00 $ (CAD) de l'heure","747 Rue du Square-Victoria, Montréal, QC H2Y 3Y9, Canada",45.5020089,-73.5605637,Montréal,QC
2152,AAA-10431,Montréal - Marché Central - 8989 boul L'Acadie,"8989 boul L’Acadie, Montréal, QC",H4N 3K1,Level2,45.532492,-73.65256,"0,00 $ (CAD) par session","8989 Boulevard de l'Acadie, Montréal, QC H4N 3K1, Canada",45.532252,-73.65148359999999,Montréal,QC
2153,AAA-172,Édifice Jacques-Parizeau,"1000 Jean-Paul-Riopelle, Montréal, QC",H2Z 2B3,Level2,45.50253,-73.561352,"1,00 $ (CAD) de l'heure","1000 Place Jean-Paul-Riopelle, Montréal, QC H2Z 2B3, Canada",45.502909100000004,-73.5619531,Montréal,QC
2159,AAA-10937,P-02 Garage Louis-Colin (Niveau 5),"5255 Avenue Louis-Colin, Montréal, QC",H3T 1T3,Level2,45.500196,-73.617303,"1,00 $ (CAD) de l'heure","5255 Avenue Louis-Colin, Montréal, QC H3T 1N8, Canada",45.500352899999996,-73.6175865,Montréal,QC
2160,AAA-573,Indigo Park - Complexe de la Gare Centrale,"904 rue Belmont, Montréal, QC",H3B 2M4,Level2,45.500357,-73.566862,"1,00 $ (CAD) de l'heure","904 Rue Belmont, Montréal, QC H3B 2M4, Canada",45.500254999999996,-73.566779,Montréal,QC
2173,AAB-11268,Place Bonaventure ,"800 rue de la Gauchetiere O, Montréal, QC",H5A 1K6,Level2,45.498651,-73.5658,"1,00 $ (CAD) de l'heure","800 Rue de la Gauchetière O, Montréal, QC H5A 1K8, Canada",45.500133,-73.5652994,Montréal,QC
2179,AAB-11327,COMPLEXE FTQ - Fonds de solidarité - 545 Crémazie ,"545 boul. Crémazie E, Montréal, QC",H2M 1R6,Level2,45.546308,-73.638607,"1,00 $ (CAD) de l'heure","545 Boul Crémazie E, Montréal, QC H2M 1R6, Canada",45.546348200000004,-73.63856120000001,Montréal,QC
2183,AAA-159,Édifice Jacques-Parizeau,"1000 Jean-Paul-Riopelle, Montréal, QC",H2Z 2B3,Level2,45.50253,-73.561352,"1,00 $ (CAD) de l'heure","1000 Place Jean-Paul-Riopelle, Montréal, QC H2Z 2B3, Canada",45.502909100000004,-73.5619531,Montréal,QC
2239,AAA-10479,Vieux-Port de Montréal,"2 Rue de la Commune O, Montréal, QC",H2Y 4B2,Level2,45.505148,-73.54961999999999,"0,00 $ (CAD) de l'heure","2 Rue de la Commune O, Montréal, QC H2Y 4B2, Canada",45.5052122,-73.5502408,Montréal,QC
2260,AAB-10807,L Avenue,"1275 Avenue des Canadiens de Montreal, Montréal, QC",H3B 0G4,Level2,45.496458,-73.570604,"0,00 $ (CAD) par session","1275 Avenue des Canadiens-de-Montréal, Montréal, QC H3B 5E6, Canada",45.4964397,-73.5706624,Montréal,QC
2262,AAA-137,Centre de commerce mondial de Montréal,"747 rue Square Victoria, Montréal, QC",H2Y 3Y9,Level2,45.502106,-73.560807,"1,00 $ (CAD) de l'heure","747 Rue du Square-Victoria, Montréal, QC H2Y 3Y9, Canada",45.5020089,-73.5605637,Montréal,QC
2263,AAA-10948,P-02 Garage Louis-Colin (Niveau 1),"5255 Avenue Louis-Colin, Montréal, QC",H3T 1T3,Level2,45.500618,-73.617248,"1,00 $ (CAD) de l'heure","5255 Avenue Louis-Colin, Montréal, QC H3T 1N8, Canada",45.500352899999996,-73.6175865,Montréal,QC
2265,AAA-10521,T.A. - 4100 Molson,"4100 rue Molson, Montréal, QC",H1Y 3L1,Level2,45.541007,-73.56325,"1,00 $ (CAD) de l'heure","4100 Rue Molson, Montréal, QC H1Y 3N1, Canada",45.541074,-73.5631193,Montréal,QC
2269,AAB-11682,Complexe Place Crémazie,"50 boul Crémazie O, Montréal, QC",H2P 2T2,Level2,45.540921,-73.640621,"1,00 $ (CAD) de l'heure","50 Boulevard Crémazie O, Montréal, QC H2P, Canada",45.540878,-73.64107829999999,Montréal,QC
2329,AAB-10815,L Avenue,"1275 Avenue des Canadiens de Montreal, Montréal, QC",H3B 0G4,Level2,45.496458,-73.570604,"0,00 $ (CAD) par session","1275 Avenue des Canadiens-de-Montréal, Montréal, QC H3B 5E6, Canada",45.4964397,-73.5706624,Montréal,QC
2402,AAA-10461,T.A. - 2600 William-Tremblay,"2600 Rue William-Tremblay, Montréal, QC",H1Y 3J2,Level2,45.542242,-73.56399,"1,00 $ (CAD) de l'heure","2600 Rue William-Tremblay, Montréal, QC H1X 3J2, Canada",45.542548499999995,-73.56389709999999,Montréal,QC
2405,AAB-11334,COMPLEXE FTQ - Fonds de solidarité - 545 Crémazie ,"545 boul. Crémazie E, Montréal, QC",H2M 1R6,Level2,45.546308,-73.638607,"1,00 $ (CAD) de l'heure","545 Boul Crémazie E, Montréal, QC H2M 1R6, Canada",45.546348200000004,-73.63856120000001,Montréal,QC
2410,AAA-10605,Via Rail Canada Inc.-Montréal Maintenance Centre CC14409,"201, Ash, Montréal, QC",H3K 3K2,Level2,45.477476,-73.549898,"2,00 $ (CAD) par session","201 Avenue Ash, Montréal, QC H3K 3K2, Canada",45.476574299999996,-73.5510875,Montréal,QC
2411,AAA-085,Montréal - Marché Central - Stat. intérieur,"8791 de l’Acadie, Montréal, QC",H4N 3K1,Level2,45.5317565558421,-73.6496754070626,"0,00 $ (CAD) par session","8791 Boulevard de l'Acadie, Montréal, QC H4N 3K1, Canada",45.5318755,-73.6496635,Montréal,QC
2455,AAA-119,Place Montréal Trust,"1500 avenue McGill College, Montréal, QC",H3A 3J5,Level2,45.502156,-73.57222900000001,"1,00 $ (CAD) de l'heure","1500 Avenue McGill College, Montréal, QC H3A 3L2, Canada",45.5023402,-73.5723526,Montréal,QC
2514,AAA-10972,P-02 Garage Louis-Colin (Niveau 1),"5255 Avenue Louis-Colin, Montréal, QC",H3T 1T3,Level2,45.500618,-73.617248,"1,00 $ (CAD) de l'heure","5255 Avenue Louis-Colin, Montréal, QC H3T 1N8, Canada",45.500352899999996,-73.6175865,Montréal,QC
2544,AAA-10458,T.A. - 4050 Molson,"4050 rue Molson, Montréal, QC",H1Y 3L1,Level2,45.541189,-73.56251999999999,"1,00 $ (CAD) de l'heure","4050 Rue Molson, Montréal, QC H1W 1A1, Canada",45.5411826,-73.56205959999998,Montréal,QC
2557,AAA-130,Centre Eaton,"705 rue Ste-Catherine Ouest, Montréal, QC",H3B 4G5,Level2,45.503249,-73.57027,"1,00 $ (CAD) de l'heure","705 Rue Sainte-Catherine O, Montréal, QC H3B 4G5, Canada",45.502466,-73.57130409999999,Montréal,QC
2581,AAA-609,Indigo Park - Complexe de la Gare Centrale,"904 rue Belmont, Montréal, QC",H3B 2M4,Level2,45.500357,-73.566862,"1,00 $ (CAD) de l'heure","904 Rue Belmont, Montréal, QC H3B 2M4, Canada",45.500254999999996,-73.566779,Montréal,QC
2583,AAA-129,Centre Eaton,"705 rue Ste-Catherine Ouest, Montréal, QC",H3B 4G5,Level2,45.503249,-73.57027,"1,00 $ (CAD) de l'heure","705 Rue Sainte-Catherine O, Montréal, QC H3B 4G5, Canada",45.502466,-73.57130409999999,Montréal,QC
2584,AAA-10323,Ivanhoé Cambridge - Maison Manuvie,"900 Boul, De Maisonneuve Ouest, Montréal, QC",H3A 1N4,Level2,45.501544,-73.572989,"1,00 $ (CAD) de l'heure","900 Boulevard de Maisonneuve O, Montréal, QC H3A 1M5, Canada",45.5019469,-73.57338859999999,Montréal,QC
2603,AAA-10442,Montréal - Marché Central - 9187 boul L'Acadie,"9187 boul L’Acadie, Montréal, QC",H4N 3K1,Level2,45.533598,-73.6552,"0,00 $ (CAD) par session","9187 Boulevard de l'Acadie, Montréal, QC H4N 3K1, Canada",45.5331119,-73.6551863,Montréal,QC
2613,AAB-11985,IA - Crémazie,"1611 Boul Crémazie E, Montréal, QC",H2M 2R9,Level2,45.553932,-73.625066,"1,00 $ (CAD) de l'heure","1611 Boul Crémazie E, Montréal, QC H2M 2R9, Canada",45.5545329,-73.6239679,Montréal,QC
2617,AAA-10355,Vieux-Port de Montréal,"2 Rue de la Commune O, Montréal, QC",H2Y 4B2,Level2,45.505148,-73.54961999999999,"0,00 $ (CAD) de l'heure","2 Rue de la Commune O, Montréal, QC H2Y 4B2, Canada",45.5052122,-73.5502408,Montréal,QC
2652,AAA-10945 ,P-02 Garage Louis-Colin (Niveau 5),"5255 Avenue Louis-Colin, Montréal, QC",H3T 1T3,Level2,45.500196,-73.617303,"1,00 $ (CAD) de l'heure","5255 Avenue Louis-Colin, Montréal, QC H3T 1N8, Canada",45.500352899999996,-73.6175865,Montréal,QC
2677,AAA-433,Oxford - 1250 bld. René-Lévesque O.,"1250 boul. René-Lévesque, Montréal, QC",H3B 2G4,Level2,45.49756,-73.571169,"1,00 $ (CAD) de l'heure","1250 René-Lévesque, Montréal, QC H3B 4K4, Canada",45.497323,-73.57038100000001,Montréal,QC
2693,AAB-11342,COMPLEXE FTQ - Fonds de solidarité - 545 Crémazie ,"545 boul. Crémazie E, Montréal, QC",H2M 1R6,Level2,45.546308,-73.638607,"1,00 $ (CAD) de l'heure","545 Boul Crémazie E, Montréal, QC H2M 1R6, Canada",45.546348200000004,-73.63856120000001,Montréal,QC
2708,AAA-11003,P-3744 Jean-Brillant,"3744 Rue Jean-Brillant, Montréal, QC",H3T 1P1,Level2,45.495237,-73.621813,"1,00 $ (CAD) de l'heure","3744 Rue Jean-Brillant, Montréal, QC H3T 1P1, Canada",45.495106,-73.6217464,Montréal,QC
2712,AAB-11987,IA - Crémazie,"1611 Boul Crémazie E, Montréal, QC",H2M 2R9,Level2,45.553932,-73.625066,"1,00 $ (CAD) de l'heure","1611 Boul Crémazie E, Montréal, QC H2M 2R9, Canada",45.5545329,-73.6239679,Montréal,QC
2761,AAA-10364,Vieux-Port de Montréal,"2 Rue de la Commune O, Montréal, QC",H2Y 4B2,Level2,45.505148,-73.54961999999999,"0,00 $ (CAD) de l'heure","2 Rue de la Commune O, Montréal, QC H2Y 4B2, Canada",45.5052122,-73.5502408,Montréal,QC
2766,AAA-10429,Montréal - Marché Central - 1025 rue Marché Central,"1025 rue Marché Central, Montréal, QC",H4N 3K1,Level2,45.534841,-73.65943,"0,00 $ (CAD) par session","1025 Rue du Marché Central, Montréal, QC H4N 1J8, Canada",45.534538500000004,-73.6596261,Montréal,QC
2804,AAA-10324,Ivanhoé Cambridge - Maison Manuvie,"900 Boul, De Maisonneuve Ouest, Montréal, QC",H3A 1N4,Level2,45.501544,-73.572989,"1,00 $ (CAD) de l'heure","900 Boulevard de Maisonneuve O, Montréal, QC H3A 1M5, Canada",45.5019469,-73.57338859999999,Montréal,QC
2806,AAB-10803,L Avenue,"1275 Avenue des Canadiens de Montreal, Montréal, QC",H3B 0G4,Level2,45.496458,-73.570604,"0,00 $ (CAD) par session","1275 Avenue des Canadiens-de-Montréal, Montréal, QC H3B 5E6, Canada",45.4964397,-73.5706624,Montréal,QC
2829,AAA-10331,Ivanhoé Cambridge - Maison Manuvie,"900 Boul, De Maisonneuve Ouest, Montréal, QC",H3A 1N4,Level2,45.501544,-73.572989,"1,00 $ (CAD) de l'heure","900 Boulevard de Maisonneuve O, Montréal, QC H3A 1M5, Canada",45.5019469,-73.57338859999999,Montréal,QC
2863,AAA-423,T.A. - 4101 Molson (Publique),"4101 rue Molson, Montréal, QC",H1Y 3L1,Level2,45.5418390795982,-73.5642780760575,"1,00 $ (CAD) de l'heure","4101 Rue Molson, Montréal, QC H1Y 3L1, Canada",45.5418591,-73.5645948,Montréal,QC
2867,AAA-473,Alexis Nihon,"1500 Avenue Atwater, Montréal, QC",H3Z 1X5,Level2,45.488728,-73.58551,"1,00 $ (CAD) de l'heure","1500 Avenue Atwater, Montréal, QC H3Z 1X5, Canada",45.488805,-73.5859921,Montréal,QC
2875,AAA-10922,P-02 Garage Louis-Colin (Niveau 5),"5255 Avenue Louis-Colin, Montréal, QC",H3T 1T3,Level2,45.500196,-73.617303,"1,00 $ (CAD) de l'heure","5255 Avenue Louis-Colin, Montréal, QC H3T 1N8, Canada",45.500352899999996,-73.6175865,Montréal,QC
2881,AAA-10520,T.A. - 4100 Molson,"4100 rue Molson, Montréal, QC",H1Y 3L1,Level2,45.541007,-73.56325,"1,00 $ (CAD) de l'heure","4100 Rue Molson, Montréal, QC H1Y 3N1, Canada",45.541074,-73.5631193,Montréal,QC
2889,AAA-10422,_MES  Université McGill - Redéveloppement,"3420 Rue McTavish, Montréal, QC",H3A 1Y1,Level2,45.502857,-73.57681099999999,"1,00 $ (CAD) de l'heure","3420 Rue McTavish, Montréal, QC H3A 3L1, Canada",45.5029451,-73.57675649999999,Montréal,QC
2903,AAB-11055,Immobilier Manuvie - 1001 Maisonneuve,"1001 Boulevard de Maisonneuve O, Montréal, QC",H3A 3C8,Level2,45.501469,-73.574388,"1,00 $ (CAD) de l'heure","1001 Boulevard de Maisonneuve O, Montréal, QC H3A 1X8, Canada",45.5015521,-73.5745365,Montréal,QC
2941,AAA-10990,P-02 Garage Louis-Colin (Niveau 5),"5255 Avenue Louis-Colin, Montréal, QC",H3T 1T3,Level2,45.500196,-73.617303,"1,00 $ (CAD) de l'heure","5255 Avenue Louis-Colin, Montréal, QC H3T 1N8, Canada",45.500352899999996,-73.6175865,Montréal,QC
2951,AAB-11282,Place Bonaventure ,"800 rue de la Gauchetiere O, Montréal, QC",H5A 1K6,Level2,45.498651,-73.5658,"1,00 $ (CAD) de l'heure","800 Rue de la Gauchetière O, Montréal, QC H5A 1K8, Canada",45.500133,-73.5652994,Montréal,QC
2952,AAA-214,Place Montréal Trust,"1500 avenue McGill College, Montréal, QC",H3A 3J5,Level2,45.502156,-73.57222900000001,"1,00 $ (CAD) de l'heure","1500 Avenue McGill College, Montréal, QC H3A 3L2, Canada",45.5023402,-73.5723526,Montréal,QC
2991,AAA-11010,P-3744 Jean-Brillant,"3744 Rue Jean-Brillant, Montréal, QC",H3T 1P1,Level2,45.495237,-73.621813,"1,00 $ (CAD) de l'heure","3744 Rue Jean-Brillant, Montréal, QC H3T 1P1, Canada",45.495106,-73.6217464,Montréal,QC
2994,AAA-400,Porte et Fenêtres de l'est inc.,"6051 rue Notre-Dame Est, Montréal, QC",H1N 2E8,Level2,45.569568,-73.521838,"2,50 $ (CAD) par session","6051 Rue Notre-Dame Est, Montréal, QC H1N 2E8, Canada",45.569481599999996,-73.5218438,Montréal,QC
3009,AAA-081,Montréal - Marché Central - Stat. intérieur,"8791 de l’Acadie, Montréal, QC",H4N 3K1,Level2,45.5317565558421,-73.6496754070626,"0,00 $ (CAD) par session","8791 Boulevard de l'Acadie, Montréal, QC H4N 3K1, Canada",45.5318755,-73.6496635,Montréal,QC
3013,AAA-140,Centre de commerce mondial de Montréal,"747 rue Square Victoria, Montréal, QC",H2Y 3Y9,Level2,45.502106,-73.560807,"1,00 $ (CAD) de l'heure","747 Rue du Square-Victoria, Montréal, QC H2Y 3Y9, Canada",45.5020089,-73.5605637,Montréal,QC
3016,AAA-440,Oxford - 1250 bld. René-Lévesque O.,"1250 boul. René-Lévesque, Montréal, QC",H3B 2G4,Level2,45.49756,-73.571169,"1,00 $ (CAD) de l'heure","1250 René-Lévesque, Montréal, QC H3B 4K4, Canada",45.497323,-73.57038100000001,Montréal,QC
3029,AAA-10988,P-02 Garage Louis-Colin (Niveau 1),"5255 Avenue Louis-Colin, Montréal, QC",H3T 1T3,Level2,45.500618,-73.617248,"1,00 $ (CAD) de l'heure","5255 Avenue Louis-Colin, Montréal, QC H3T 1N8, Canada",45.500352899999996,-73.6175865,Montréal,QC
3052,AAA-10917,P-02 Garage Louis-Colin (Niveau 1),"5255 Avenue Louis-Colin, Montréal, QC",H3T 1T3,Level2,45.500618,-73.617248,"1,00 $ (CAD) de l'heure","5255 Avenue Louis-Colin, Montréal, QC H3T 1N8, Canada",45.500352899999996,-73.6175865,Montréal,QC
3058,AAA-10476,Vieux-Port de Montréal,"2 Rue de la Commune O, Montréal, QC",H2Y 4B2,Level2,45.505148,-73.54961999999999,"0,00 $ (CAD) de l'heure","2 Rue de la Commune O, Montréal, QC H2Y 4B2, Canada",45.5052122,-73.5502408,Montréal,QC
3064,AAB-11344,COMPLEXE FTQ - Fonds de solidarité - 545 Crémazie ,"545 boul. Crémazie E, Montréal, QC",H2M 1R6,Level2,45.546308,-73.638607,"1,00 $ (CAD) de l'heure","545 Boul Crémazie E, Montréal, QC H2M 1R6, Canada",45.546348200000004,-73.63856120000001,Montréal,QC
3086,AAA-117,Centre de commerce mondial de Montréal,"747 rue Square Victoria, Montréal, QC",H2Y 3Y9,Level2,45.502106,-73.560807,"1,00 $ (CAD) de l'heure","747 Rue du Square-Victoria, Montréal, QC H2Y 3Y9, Canada",45.5020089,-73.5605637,Montréal,QC
3099,AAA-10596,Via Rail Canada Inc.-Montréal Maintenance Centre CC13285,"201, Ash, Montréal, QC",H3K 3K2,Level2,45.477476,-73.549898,"2,00 $ (CAD) par session","201 Avenue Ash, Montréal, QC H3K 3K2, Canada",45.476574299999996,-73.5510875,Montréal,QC
3100,AAA-10456,MTL - Aréna Bill Durnan (0610),"4988, rue Vézina, Montréal, QC",H3W 1C1,Level2,45.494898,-73.644266,"2,50 $ (CAD) par session","4988 Rue Vézina, Montréal, QC H3W 1C1, Canada",45.494823700000005,-73.6446937,Montréal,QC
3101,AAB-11274,COMPLEXE FTQ - Fonds de solidarité - 545 Crémazie ,"545 boul. Crémazie E, Montréal, QC",H2M 1R6,Level2,45.546308,-73.638607,"1,00 $ (CAD) de l'heure","545 Boul Crémazie E, Montréal, QC H2M 1R6, Canada",45.546348200000004,-73.63856120000001,Montréal,QC
3112,AAA-10328,Ivanhoé Cambridge - Maison Manuvie,"900 Boul, De Maisonneuve Ouest, Montréal, QC",H3A 1N4,Level2,45.501544,-73.572989,"1,00 $ (CAD) de l'heure","900 Boulevard de Maisonneuve O, Montréal, QC H3A 1M5, Canada",45.5019469,-73.57338859999999,Montréal,QC
3114,AAA-10942,P-02 Garage Louis-Colin (Niveau 5),"5255 Avenue Louis-Colin, Montréal, QC",H3T 1T3,Level2,45.500196,-73.617303,"1,00 $ (CAD) de l'heure","5255 Avenue Louis-Colin, Montréal, QC H3T 1N8, Canada",45.500352899999996,-73.6175865,Montréal,QC
3126,AAA-10144,T.A. - 4101 Molson (Publique),"4101 rue Molson, Montréal, QC",H1Y 3L1,Level2,45.5418390795982,-73.5642780760575,"1,00 $ (CAD) de l'heure","4101 Rue Molson, Montréal, QC H1Y 3L1, Canada",45.5418591,-73.5645948,Montréal,QC
3132,AAB-11339,COMPLEXE FTQ - Fonds de solidarité - 545 Crémazie ,"545 boul. Crémazie E, Montréal, QC",H2M 1R6,Level2,45.546308,-73.638607,"1,00 $ (CAD) de l'heure","545 Boul Crémazie E, Montréal, QC H2M 1R6, Canada",45.546348200000004,-73.63856120000001,Montréal,QC
3143,AAA-10334,Ivanhoé Cambridge - Maison Manuvie,"900 Boul, De Maisonneuve Ouest, Montréal, QC",H3A 1N4,Level2,45.501544,-73.572989,"1,00 $ (CAD) de l'heure","900 Boulevard de Maisonneuve O, Montréal, QC H3A 1M5, Canada",45.5019469,-73.57338859999999,Montréal,QC
3149,AAA-10611,Via Rail Canada Inc.-Montréal Maintenance Centre CC14409,"201, Ash, Montréal, QC",H3K 3K2,Level2,45.476233,-73.549018,"2,00 $ (CAD) par session","201 Avenue Ash, Montréal, QC H3K 3K2, Canada",45.476574299999996,-73.5510875,Montréal,QC
3166,AAA-10610,Via Rail Canada Inc.-Montréal Maintenance Centre CC14409,"201, Ash, Montréal, QC",H3K 3K2,Level2,45.477476,-73.549898,"2,00 $ (CAD) par session","201 Avenue Ash, Montréal, QC H3K 3K2, Canada",45.476574299999996,-73.5510875,Montréal,QC
3167,AAB-11326,COMPLEXE FTQ - Fonds de solidarité - 545 Crémazie ,"545 boul. Crémazie E, Montréal, QC",H2M 1R6,Level2,45.546308,-73.638607,"1,00 $ (CAD) de l'heure","545 Boul Crémazie E, Montréal, QC H2M 1R6, Canada",45.546348200000004,-73.63856120000001,Montréal,QC
3170,AAA-10335,Ivanhoé Cambridge - Maison Manuvie,"900 Boul, De Maisonneuve Ouest, Montréal, QC",H3A 1N4,Level2,45.501544,-73.572989,"1,00 $ (CAD) de l'heure","900 Boulevard de Maisonneuve O, Montréal, QC H3A 1M5, Canada",45.5019469,-73.57338859999999,Montréal,QC
3172,AAB-12080,SQI - Palais de justice de Montréal (Rue Bellechasse),"410 Rue de Bellechasse, Montréal, QC",H2S 1X3,Level2,45.532648,-73.600372,"1,00 $ (CAD) de l'heure","410 Rue de Bellechasse, Montréal, QC H2S 1X3, Canada",45.532739299999996,-73.600739,Montréal,QC
